ArtistID,ArtistName,EventID,EventName,EventType,EventPopolarity,EventDate,AgeRestriction,VenueID,VenueName,VenueAreaName,Country,lat-lng,City,lat,lng,PerformanceID,ArtistName,Billing(HeadlineSupport),ArtistName
65557, Lil Wayne,36029189, Pot of Gold Music Festival 2019, Festival,0.676108, 2019-03-17, None,297026, Steele Indian School Park, Steele Indian School Park, US, 33.49778-112.06973," Phoenix, AZ, US",33.49778,-112.06973,68786699, Lil Wayne, headline, Lil Wayne
65557, Lil Wayne,36780129, Broccoli City Festival 2019, Festival,0.671462, 2019-04-27, None,297026, Steele Indian School Park, Steele Indian School Park, US, 33.49778-112.06973," Phoenix, AZ, US",33.49778,-112.06973,68786704, Post Malone, headline, Lil Wayne
65557, Lil Wayne,37233064, Broccoli City Festival 2019, Festival,0.674141, 2019-04-27, None,297026, Steele Indian School Park, Steele Indian School Park, US, 33.49778-112.06973," Phoenix, AZ, US",33.49778,-112.06973,68786714, Young Thug, headline, Lil Wayne
65557, Lil Wayne,37333579," JMBLYA, Travis Scott, Lil Wayne, Kevin Gates, and 8 moreâ€¦ at Fair Park - Dallas (May 3, 2019)", Concert,0.676552, 2019-05-03, None,297026, Steele Indian School Park, Steele Indian School Park, US, 33.49778-112.06973," Phoenix, AZ, US",33.49778,-112.06973,70315539, JhenÃ© Aiko, headline, Lil Wayne
65557, Lil Wayne,36791584, Soundset 2019, Festival,0.676333, 2019-05-26, None,297026, Steele Indian School Park, Steele Indian School Park, US, 33.49778-112.06973," Phoenix, AZ, US",33.49778,-112.06973,68786619, Cardi B, headline, Lil Wayne
8508053, Post Malone,36791804, The Governors Ball Music Festival 2019, Festival,0.674141, 2019-05-31, None,297026, Steele Indian School Park, Steele Indian School Park, US, 33.49778-112.06973," Phoenix, AZ, US",33.49778,-112.06973,70315559, Tinashe, headline, Post Malone
8508053, Post Malone,36994389," Lil Wayne, Nicki Minaj, Tory Lanez, Trippie Redd, and 1 moreâ€¦ at Staples Center (June 21, 2019)", Concert,0.671462, 2019-06-21, None,297026, Steele Indian School Park, Steele Indian School Park, US, 33.49778-112.06973," Phoenix, AZ, US",33.49778,-112.06973,70315544, lil pump, headline, Post Malone
82547, Calvin Harris,36419324, SonneMondSterne Festival 2019, Festival,0.662349, 2019-08-09, None,483216, Bleilochtalsperre, Bleilochtalsperre, Germany, 50.271758.56657," Saalburg, Germany",50.27175,8.56657,69428204, Calvin Harris, headline, Calvin Harris
82547, Calvin Harris,36955169, Creamfields 2019, Festival,0.663904, 2019-08-22, None,483216, Bleilochtalsperre, Bleilochtalsperre, Germany, 50.271758.56657," Saalburg, Germany",50.27175,8.56657,69428209, DJ Snake, headline, Calvin Harris
82547, Calvin Harris,36954034, Creamfields 2019, Festival,0.663904, 2019-08-23, None,483216, Bleilochtalsperre, Bleilochtalsperre, Germany, 50.271758.56657," Saalburg, Germany",50.27175,8.56657,69428214, Armin van Buuren, headline, Calvin Harris
82547, Calvin Harris,36954144, Creamfields 2019, Festival,0.663904, 2019-08-24, None,483216, Bleilochtalsperre, Bleilochtalsperre, Germany, 50.271758.56657," Saalburg, Germany",50.27175,8.56657,69428234, Robin Schulz, headline, Calvin Harris
127006, Sean Paul,36790199, Kaya Fest: The Marley Brothers & More 2019, Festival,0.226473, 2019-04-20, None,77132, Klipsch Amphitheater at Bayfront Park, Klipsch Amphitheater at Bayfront Park, US, 25.7774-80.18787," Miami, FL, US",25.7774,-80.18787,70745474, Sean Paul, headline, Sean Paul
127006, Sean Paul,37166869," Sean Paul at Bonus Arena, Hull (May 28, 2019)", Concert,0.226473, 2019-05-28, None,77132, Klipsch Amphitheater at Bayfront Park, Klipsch Amphitheater at Bayfront Park, US, 25.7774-80.18787," Miami, FL, US",25.7774,-80.18787,70300879, Damian 'Jr Gong' Marley, headline, Sean Paul
127006, Sean Paul,37157809," Sean Paul at Utilita Arena (May 29, 2019)", Concert,0.226612, 2019-05-29, None,77132, Klipsch Amphitheater at Bayfront Park, Klipsch Amphitheater at Bayfront Park, US, 25.7774-80.18787," Miami, FL, US",25.7774,-80.18787,70300869, Ziggy Marley, headline, Sean Paul
127006, Sean Paul,36238644, Inside Out Festival 2019, Festival,0.225856, 2019-06-01, None,77132, Klipsch Amphitheater at Bayfront Park, Klipsch Amphitheater at Bayfront Park, US, 25.7774-80.18787," Miami, FL, US",25.7774,-80.18787,70300874, Stephen Marley, headline, Sean Paul
127006, Sean Paul,37157134," Sean Paul at Motorpoint Arena Nottingham (June 1, 2019)", Concert,0.226612, 2019-06-01, None,77132, Klipsch Amphitheater at Bayfront Park, Klipsch Amphitheater at Bayfront Park, US, 25.7774-80.18787," Miami, FL, US",25.7774,-80.18787,70300889, Ky-mani Marley, headline, Sean Paul
3275601, Damian 'Jr Gong' Marley,37157389," Sean Paul at The SSE Hydro (June 2, 2019)", Concert,0.226812, 2019-06-02, None,77132, Klipsch Amphitheater at Bayfront Park, Klipsch Amphitheater at Bayfront Park, US, 25.7774-80.18787," Miami, FL, US",25.7774,-80.18787,70745479, Skip Marley, headline, Damian 'Jr Gong' Marley
3275601, Damian 'Jr Gong' Marley,37157174," Sean Paul at Brighton Centre (June 4, 2019)", Concert,0.227425, 2019-06-04, None,77132, Klipsch Amphitheater at Bayfront Park, Klipsch Amphitheater at Bayfront Park, US, 25.7774-80.18787," Miami, FL, US",25.7774,-80.18787,70745484, Third World, headline, Damian 'Jr Gong' Marley
3275601, Damian 'Jr Gong' Marley,37156969," Sean Paul at M&s Bank Arena (June 5, 2019)", Concert,0.226612, 2019-06-05, None,77132, Klipsch Amphitheater at Bayfront Park, Klipsch Amphitheater at Bayfront Park, US, 25.7774-80.18787," Miami, FL, US",25.7774,-80.18787,70300884, Julian Marley, headline, Damian 'Jr Gong' Marley
149066, David Guetta,37221444," David Guetta at Encore Beach Club, Wynn Las Vegas (March 22, 2019)", Concert,0.612062, 2019-03-22, None,1285851," Encore Beach Club, Wynn Las Vegas"," Encore Beach Club, Wynn Las Vegas", US, 36.13019-115.16513," Las Vegas, NV, US",36.13019,-115.16513,70774809, David Guetta, headline, David Guetta
149066, David Guetta,37030814," David Guetta at Encore Beach Club, Wynn Las Vegas (April 6, 2019)", Concert,0.61133, 2019-04-06, None,1285851," Encore Beach Club, Wynn Las Vegas"," Encore Beach Club, Wynn Las Vegas", US, 36.13019-115.16513," Las Vegas, NV, US",36.13019,-115.16513,70439199, David Guetta, headline, David Guetta
149066, David Guetta,37030724," David Guetta at Encore Beach Club, Wynn Las Vegas (April 13, 2019)", Concert,0.61133, 2019-04-13, None,1285851," Encore Beach Club, Wynn Las Vegas"," Encore Beach Club, Wynn Las Vegas", US, 36.13019-115.16513," Las Vegas, NV, US",36.13019,-115.16513,70439104, David Guetta, headline, David Guetta
149066, David Guetta,37030744," David Guetta at Encore Beach Club, Wynn Las Vegas (April 27, 2019)", Concert,0.61133, 2019-04-27, None,1285851," Encore Beach Club, Wynn Las Vegas"," Encore Beach Club, Wynn Las Vegas", US, 36.13019-115.16513," Las Vegas, NV, US",36.13019,-115.16513,70439124, David Guetta, headline, David Guetta
149066, David Guetta,37080724," David Guetta at Encore Beach Club, Wynn Las Vegas (May 4, 2019)", Concert,0.611681, 2019-05-04, None,1285851," Encore Beach Club, Wynn Las Vegas"," Encore Beach Club, Wynn Las Vegas", US, 36.13019-115.16513," Las Vegas, NV, US",36.13019,-115.16513,70526474, David Guetta, headline, David Guetta
149066, David Guetta,37080734," David Guetta at Encore Beach Club, Wynn Las Vegas (May 11, 2019)", Concert,0.611681, 2019-05-11, None,1285851," Encore Beach Club, Wynn Las Vegas"," Encore Beach Club, Wynn Las Vegas", US, 36.13019-115.16513," Las Vegas, NV, US",36.13019,-115.16513,70526484, David Guetta, headline, David Guetta
149066, David Guetta,37405324," David Guetta at XS Nightclub, the Wynn (May 16, 2019)", Concert,0.613096, 2019-05-16, None,1285851," Encore Beach Club, Wynn Las Vegas"," Encore Beach Club, Wynn Las Vegas", US, 36.13019-115.16513," Las Vegas, NV, US",36.13019,-115.16513,71092874, David Guetta, headline, David Guetta
149066, David Guetta,37080739," David Guetta at Encore Beach Club, Wynn Las Vegas (May 18, 2019)", Concert,0.611681, 2019-05-18, None,1285851," Encore Beach Club, Wynn Las Vegas"," Encore Beach Club, Wynn Las Vegas", US, 36.13019-115.16513," Las Vegas, NV, US",36.13019,-115.16513,70526489, David Guetta, headline, David Guetta
149066, David Guetta,37387119," David Guetta at XS Nightclub, the Wynn (May 25, 2019)", Concert,0.613025, 2019-05-25, None,1285851," Encore Beach Club, Wynn Las Vegas"," Encore Beach Club, Wynn Las Vegas", US, 36.13019-115.16513," Las Vegas, NV, US",36.13019,-115.16513,71059244, David Guetta, headline, David Guetta
149066, David Guetta,37080744," David Guetta at Encore Beach Club, Wynn Las Vegas (May 26, 2019)", Concert,0.611681, 2019-05-26, None,1285851," Encore Beach Club, Wynn Las Vegas"," Encore Beach Club, Wynn Las Vegas", US, 36.13019-115.16513," Las Vegas, NV, US",36.13019,-115.16513,70526494, David Guetta, headline, David Guetta
149066, David Guetta,37080749," David Guetta at Encore Beach Club, Wynn Las Vegas (June 1, 2019)", Concert,0.611681, 2019-06-01, None,1285851," Encore Beach Club, Wynn Las Vegas"," Encore Beach Club, Wynn Las Vegas", US, 36.13019-115.16513," Las Vegas, NV, US",36.13019,-115.16513,70526499, David Guetta, headline, David Guetta
149066, David Guetta,35322974, World Club Dome 2019, Festival,0.611878, 2019-06-07, None,1285851," Encore Beach Club, Wynn Las Vegas"," Encore Beach Club, Wynn Las Vegas", US, 36.13019-115.16513," Las Vegas, NV, US",36.13019,-115.16513,69401364, David Guetta, headline, David Guetta
149066, David Guetta,37325809, O Son do CamiÃ±o 2019, Festival,0.613096, 2019-06-13, None,1285851," Encore Beach Club, Wynn Las Vegas"," Encore Beach Club, Wynn Las Vegas", US, 36.13019-115.16513," Las Vegas, NV, US",36.13019,-115.16513,69401374, Armin van Buuren, headline, David Guetta
149066, David Guetta,36159664," David Guetta, Years & Years, Clean Bandit, Mabel, and 2 moreâ€¦ at Ricoh Arena - Stadium (June 16, 2019)", Concert,0.608735, 2019-06-16, None,1285851," Encore Beach Club, Wynn Las Vegas"," Encore Beach Club, Wynn Las Vegas", US, 36.13019-115.16513," Las Vegas, NV, US",36.13019,-115.16513,69401369, Marshmello, headline, David Guetta
149066, David Guetta,37051454," David Guetta, Anne-Marie, Years & Years, Clean Bandit, and 2 moreâ€¦ at Ricoh Arena (June 16, 2019)", Concert,0.611551, 2019-06-16, None,1285851," Encore Beach Club, Wynn Las Vegas"," Encore Beach Club, Wynn Las Vegas", US, 36.13019-115.16513," Las Vegas, NV, US",36.13019,-115.16513,69401379, Lost Frequencies, headline, David Guetta
149066, David Guetta,36199819," David Guetta at Halle Tony Garnier (November 27, 2019)", Concert,0.60848, 2019-11-27, None,1285851," Encore Beach Club, Wynn Las Vegas"," Encore Beach Club, Wynn Las Vegas", US, 36.13019-115.16513," Las Vegas, NV, US",36.13019,-115.16513,69401384, Dimitri Vegas & Like Mike, headline, David Guetta
149066, David Guetta,36199824," David Guetta at Accorhotels Arena (November 28, 2019)", Concert,0.613096, 2019-11-28, None,1285851," Encore Beach Club, Wynn Las Vegas"," Encore Beach Club, Wynn Las Vegas", US, 36.13019-115.16513," Las Vegas, NV, US",36.13019,-115.16513,69401404, Paul Kalkbrenner, headline, David Guetta
149066, David Guetta,36201209," David Guetta at Barclaycard Arena (November 29, 2019)", Concert,0.60848, 2019-11-29, None,1285851," Encore Beach Club, Wynn Las Vegas"," Encore Beach Club, Wynn Las Vegas", US, 36.13019-115.16513," Las Vegas, NV, US",36.13019,-115.16513,69401429, Don Diablo, headline, David Guetta
149066, David Guetta,36201214," David Guetta at Olympiahalle (November 30, 2019)", Concert,0.60848, 2019-11-30, None,1285851," Encore Beach Club, Wynn Las Vegas"," Encore Beach Club, Wynn Las Vegas", US, 36.13019-115.16513," Las Vegas, NV, US",36.13019,-115.16513,70625179, W&W, headline, David Guetta
181875, Maroon 5,35439694," Maroon 5 at Kallang National Stadium (March 7, 2019)", Concert,0.831598, 2019-03-07, None,130396, Kallang National Stadium, Kallang National Stadium, Singapore, NoneNone," Singapore, Singapore",1.29306,103.856,67811049, Maroon 5, headline, Maroon 5
181875, Maroon 5,37197899," Maroon 5 at Molleparken (June 1, 2019)", Concert,0.845664, 2019-06-01, None,130396, Kallang National Stadium, Kallang National Stadium, Singapore, NoneNone," Singapore, Singapore",1.29306,103.856,70732199, Maroon 5, headline, Maroon 5
182968, Eminem,35732484," Eminem at Westpac Stadium (March 2, 2019)", Concert,0.901761, 2019-03-02, None,52075, Westpac Stadium, Westpac Stadium, New Zealand, -41.27728174.78334," Wellington, New Zealand",-41.27728,174.78334,68302679, Eminem, headline, Eminem
186049, Train,35972299," Train at White River Amphitheatre (June 7, 2019)", Concert,0.352708, 2019-06-07, None,31789, White River Amphitheatre, White River Amphitheatre, US, 47.23746-122.11203," Auburn, WA, US",47.23746,-122.11203,68693434, Train, headline, Train
186049, Train,35972319," Train at Sunlight Supply Amphitheater (June 8, 2019)", Concert,0.352708, 2019-06-08, None,31789, White River Amphitheatre, White River Amphitheatre, US, 47.23746-122.11203," Auburn, WA, US",47.23746,-122.11203,68693464, Train, headline, Train
186049, Train,35962464," Train and The Goo Goo Dolls at Northern Quest Casino & Resort (June 9, 2019)", Concert,0.349071, 2019-06-09, None,31789, White River Amphitheatre, White River Amphitheatre, US, 47.23746-122.11203," Auburn, WA, US",47.23746,-122.11203,68810229, Train, headline, Train
186049, Train,35972339," Train at Santa Barbara Bowl (June 11, 2019)", Concert,0.34953, 2019-06-11, None,31789, White River Amphitheatre, White River Amphitheatre, US, 47.23746-122.11203," Auburn, WA, US",47.23746,-122.11203,68676594, The Goo Goo Dolls, headline, Train
186049, Train,35972349," Train at Ak-Chin Pavilion (June 12, 2019)", Concert,0.352708, 2019-06-12, None,31789, White River Amphitheatre, White River Amphitheatre, US, 47.23746-122.11203," Auburn, WA, US",47.23746,-122.11203,68693484, Train, headline, Train
186049, Train,35972369," Train and The Goo Goo Dolls with Allen Stone at North Island Credit Union Amphitheatre (June 14, 2019)", Concert,0.349071, 2019-06-14, None,31789, White River Amphitheatre, White River Amphitheatre, US, 47.23746-122.11203," Auburn, WA, US",47.23746,-122.11203,68693494, Train, headline, Train
186049, Train,35972379," Train at Shoreline Amphitheatre (June 15, 2019)", Concert,0.352708, 2019-06-15, None,31789, White River Amphitheatre, White River Amphitheatre, US, 47.23746-122.11203," Auburn, WA, US",47.23746,-122.11203,68693514, Train, headline, Train
186049, Train,35972424," Train at FivePoint Amphitheatre (June 16, 2019)", Concert,0.352708, 2019-06-16, None,31789, White River Amphitheatre, White River Amphitheatre, US, 47.23746-122.11203," Auburn, WA, US",47.23746,-122.11203,68676654, The Goo Goo Dolls, headline, Train
186049, Train,35972449," Train at USANA Amphitheatre (June 18, 2019)", Concert,0.352661, 2019-06-18, None,31789, White River Amphitheatre, White River Amphitheatre, US, 47.23746-122.11203," Auburn, WA, US",47.23746,-122.11203,68808984, Allen Stone, support, Train
186049, Train,35972469," Train at Fiddler's Green Amphitheatre (June 20, 2019)", Concert,0.34953, 2019-06-20, None,31789, White River Amphitheatre, White River Amphitheatre, US, 47.23746-122.11203," Auburn, WA, US",47.23746,-122.11203,68693524, Train, headline, Train
186049, Train,35972529," Train at Starlight Theatre (June 21, 2019)", Concert,0.352708, 2019-06-21, None,31789, White River Amphitheatre, White River Amphitheatre, US, 47.23746-122.11203," Auburn, WA, US",47.23746,-122.11203,68693644, Train, headline, Train
186049, Train,35972589," Train at Hollywood Casino Amphitheatre (June 22, 2019)", Concert,0.352708, 2019-06-22, None,31789, White River Amphitheatre, White River Amphitheatre, US, 47.23746-122.11203," Auburn, WA, US",47.23746,-122.11203,68693669, Train, headline, Train
186049, Train,35972604," Train at BankPlus Amphitheatre at Snowden Grove (June 23, 2019)", Concert,0.352708, 2019-06-23, None,63084, Sunlight Supply Amphitheater, Sunlight Supply Amphitheater, US, 45.74643-122.66611," Auburn, WA, US",47.23746,-122.11203,68693689, Train, headline, Train
186049, Train,35972614," Train at Stir Cove, Harrah's Council Bluffs Casino & Hotel (June 25, 2019)", Concert,0.352708, 2019-06-25, None,63084, Sunlight Supply Amphitheater, Sunlight Supply Amphitheater, US, 45.74643-122.66611," Auburn, WA, US",47.23746,-122.11203,68693754, Train, headline, Train
186049, Train,35972644," Train at Walmart AMP (Arkansas Music Pavilion) (June 26, 2019)", Concert,0.352708, 2019-06-26, None,63084, Sunlight Supply Amphitheater, Sunlight Supply Amphitheater, US, 45.74643-122.66611," Auburn, WA, US",47.23746,-122.11203,68693819, Train, headline, Train
145102, The Goo Goo Dolls,35972654," Train at Cynthia Woods Mitchell Pavilion (June 28, 2019)", Concert,0.352708, 2019-06-28, None,63084, Sunlight Supply Amphitheater, Sunlight Supply Amphitheater, US, 45.74643-122.66611," Auburn, WA, US",47.23746,-122.11203,68693839, Train, headline, The Goo Goo Dolls
145102, The Goo Goo Dolls,35972659," Train at Dos Equis Pavilion (June 29, 2019)", Concert,0.352708, 2019-06-29, None,63084, Sunlight Supply Amphitheater, Sunlight Supply Amphitheater, US, 45.74643-122.66611," Auburn, WA, US",47.23746,-122.11203,68693859, Train, headline, The Goo Goo Dolls
145102, The Goo Goo Dolls,35962784," The Goo Goo Dolls and Train at Coral Sky Amphitheatre at the South Florida Fairgrounds (July 6, 2019)", Concert,0.349071, 2019-07-06, None,63084, Sunlight Supply Amphitheater, Sunlight Supply Amphitheater, US, 45.74643-122.66611," Auburn, WA, US",47.23746,-122.11203,68693889, Train, headline, The Goo Goo Dolls
145102, The Goo Goo Dolls,35962799," The Goo Goo Dolls and Train at Midflorida Credit Union Amphitheatre (July 7, 2019)", Concert,0.349071, 2019-07-07, None,63084, Sunlight Supply Amphitheater, Sunlight Supply Amphitheater, US, 45.74643-122.66611," Auburn, WA, US",47.23746,-122.11203,68693929, Train, headline, The Goo Goo Dolls
145102, The Goo Goo Dolls,35962804," The Goo Goo Dolls and Train at Daily's Place (July 9, 2019)", Concert,0.349071, 2019-07-09, None,63084, Sunlight Supply Amphitheater, Sunlight Supply Amphitheater, US, 45.74643-122.66611," Auburn, WA, US",47.23746,-122.11203,68693939, Train, headline, The Goo Goo Dolls
186049, Train,35972764," Train at Verizon Wireless Amphitheatre at Encore Park (July 10, 2019)", Concert,0.352708, 2019-07-10, None,63084, Sunlight Supply Amphitheater, Sunlight Supply Amphitheater, US, 45.74643-122.66611," Auburn, WA, US",47.23746,-122.11203,68677129, The Goo Goo Dolls, headline, Train
186049, Train,35962844," The Goo Goo Dolls and Train at PNC Music Pavilion (July 12, 2019)", Concert,0.349071, 2019-07-12, None,63084, Sunlight Supply Amphitheater, Sunlight Supply Amphitheater, US, 45.74643-122.66611," Auburn, WA, US",47.23746,-122.11203,70051854, Train, headline, Train
186049, Train,35962854," The Goo Goo Dolls and Train at Coastal Credit Union Music Park at Walnut Creek (July 13, 2019)", Concert,0.349071, 2019-07-13, None,63084, Sunlight Supply Amphitheater, Sunlight Supply Amphitheater, US, 45.74643-122.66611," Auburn, WA, US",47.23746,-122.11203,68677149, The Goo Goo Dolls, headline, Train
186049, Train,35962874," The Goo Goo Dolls and Train at Veterans United Home Loans Amphitheater (July 14, 2019)", Concert,0.349071, 2019-07-14, None,63084, Sunlight Supply Amphitheater, Sunlight Supply Amphitheater, US, 45.74643-122.66611," Auburn, WA, US",47.23746,-122.11203,70051999, Train, headline, Train
186049, Train,35972899," Train at Ascend Amphitheater (July 16, 2019)", Concert,0.352708, 2019-07-16, None,110230, Northern Quest Casino & Resort, Northern Quest Casino & Resort, US, 47.65841-117.56262," Auburn, WA, US",47.23746,-122.11203,68677154, The Goo Goo Dolls, headline, Train
186049, Train,35972909," Train at Moondance Jam (July 18, 2019)", Concert,0.352708, 2019-07-18, None,110230, Northern Quest Casino & Resort, Northern Quest Casino & Resort, US, 47.65841-117.56262," Auburn, WA, US",47.23746,-122.11203,70051789, Train, headline, Train
186049, Train,35972949," Train at Hollywood Casino Amphitheatre (July 20, 2019)", Concert,0.352708, 2019-07-20, None,110230, Northern Quest Casino & Resort, Northern Quest Casino & Resort, US, 47.65841-117.56262," Auburn, WA, US",47.23746,-122.11203,68694064, Train, headline, Train
186049, Train,35962934," Train and The Goo Goo Dolls with Allen Stone at Ruoff Mortgage Music Center (July 21, 2019)", Concert,0.349071, 2019-07-21, None,110230, Northern Quest Casino & Resort, Northern Quest Casino & Resort, US, 47.65841-117.56262," Auburn, WA, US",47.23746,-122.11203,68677234, The Goo Goo Dolls, headline, Train
186049, Train,35962989," The Goo Goo Dolls and Train at DTE Energy Music Theatre (July 23, 2019)", Concert,0.349071, 2019-07-23, None,110230, Northern Quest Casino & Resort, Northern Quest Casino & Resort, US, 47.65841-117.56262," Auburn, WA, US",47.23746,-122.11203,70052014, Train, headline, Train
186049, Train,35962999," The Goo Goo Dolls and Train at Riverbend Music Center (July 24, 2019)", Concert,0.349071, 2019-07-24, None,110230, Northern Quest Casino & Resort, Northern Quest Casino & Resort, US, 47.65841-117.56262," Auburn, WA, US",47.23746,-122.11203,68677249, The Goo Goo Dolls, headline, Train
186049, Train,35963019," The Goo Goo Dolls and Train at Saratoga Performing Arts Center (SPAC) (July 26, 2019)", Concert,0.349071, 2019-07-26, None,110230, Northern Quest Casino & Resort, Northern Quest Casino & Resort, US, 47.65841-117.56262," Auburn, WA, US",47.23746,-122.11203,70051919, Train, headline, Train
186049, Train,35963029," The Goo Goo Dolls and Train at Bethel Woods Center for the Arts (July 27, 2019)", Concert,0.349071, 2019-07-27, None,110230, Northern Quest Casino & Resort, Northern Quest Casino & Resort, US, 47.65841-117.56262," Auburn, WA, US",47.23746,-122.11203,68677274, The Goo Goo Dolls, headline, Train
186049, Train,35963049," The Goo Goo Dolls and Train at Bank of New Hampshire Pavilion (July 28, 2019)", Concert,0.349071, 2019-07-28, None,110230, Northern Quest Casino & Resort, Northern Quest Casino & Resort, US, 47.65841-117.56262," Auburn, WA, US",47.23746,-122.11203,70051689, Train, headline, Train
186049, Train,35963084," The Goo Goo Dolls and Train at Darling's Waterfront Pavilion (July 30, 2019)", Concert,0.349071, 2019-07-30, None,110230, Northern Quest Casino & Resort, Northern Quest Casino & Resort, US, 47.65841-117.56262," Auburn, WA, US",47.23746,-122.11203,68694299, Train, headline, Train
186049, Train,35973174," Train at Montage Mountain (August 1, 2019)", Concert,0.352708, 2019-08-01, None,110230, Northern Quest Casino & Resort, Northern Quest Casino & Resort, US, 47.65841-117.56262," Auburn, WA, US",47.23746,-122.11203,68694309, Train, headline, Train
145102, The Goo Goo Dolls,35963119," The Goo Goo Dolls and Train at Constellation Brands â€“ Marvin Sands Performing Arts Center (CMAC) (August 2, 2019)", Concert,0.349071, 2019-08-02, None,110230, Northern Quest Casino & Resort, Northern Quest Casino & Resort, US, 47.65841-117.56262," Auburn, WA, US",47.23746,-122.11203,68694364, Train, headline, The Goo Goo Dolls
145102, The Goo Goo Dolls,35963354," The Goo Goo Dolls and Train at Northwell Health at Jones Beach Theater (August 3, 2019)", Concert,0.349071, 2019-08-03, None,29228, Santa Barbara Bowl, Santa Barbara Bowl, US, 34.4351-119.69357," Ridgefield, WA, US",45.74643,-122.66611,68689819, Train, headline, The Goo Goo Dolls
145102, The Goo Goo Dolls,35973409," Train at Musikfest (August 6, 2019)", Concert,0.352661, 2019-08-06, None,29228, Santa Barbara Bowl, Santa Barbara Bowl, US, 34.4351-119.69357," Ridgefield, WA, US",45.74643,-122.66611,68677349, The Goo Goo Dolls, headline, The Goo Goo Dolls
145102, The Goo Goo Dolls,35963374," The Goo Goo Dolls and Train at Keybank Pavilion (August 7, 2019)", Concert,0.349071, 2019-08-07, None,29228, Santa Barbara Bowl, Santa Barbara Bowl, US, 34.4351-119.69357," Ridgefield, WA, US",45.74643,-122.66611,68689824, Allen Stone, support, The Goo Goo Dolls
145102, The Goo Goo Dolls,35963379," The Goo Goo Dolls and Train at Merriweather Post Pavilion (August 9, 2019)", Concert,0.349071, 2019-08-09, None,29228, Santa Barbara Bowl, Santa Barbara Bowl, US, 34.4351-119.69357," Ridgefield, WA, US",45.74643,-122.66611,68677474, The Goo Goo Dolls, headline, The Goo Goo Dolls
1896080, Allen Stone,35963399," The Goo Goo Dolls and Train at BB&T Pavilion (August 10, 2019)", Concert,0.349071, 2019-08-10, None,29228, Santa Barbara Bowl, Santa Barbara Bowl, US, 34.4351-119.69357," Ridgefield, WA, US",45.74643,-122.66611,70051994, Train, headline, Allen Stone
1896080, Allen Stone,35963404," The Goo Goo Dolls and Train at Mohegan Sun Arena (August 11, 2019)", Concert,0.349071, 2019-08-11, None,29228, Santa Barbara Bowl, Santa Barbara Bowl, US, 34.4351-119.69357," Ridgefield, WA, US",45.74643,-122.66611,68677484, The Goo Goo Dolls, headline, Allen Stone
1896080, Allen Stone,35963414," The Goo Goo Dolls and Train at Blossom Music Center (August 14, 2019)", Concert,0.349071, 2019-08-14, None,29228, Santa Barbara Bowl, Santa Barbara Bowl, US, 34.4351-119.69357," Ridgefield, WA, US",45.74643,-122.66611,70052069, Train, headline, Allen Stone
1896080, Allen Stone,35963424," The Goo Goo Dolls and Train at PNC Bank Arts Center (August 16, 2019)", Concert,0.349071, 2019-08-16, None,29228, Santa Barbara Bowl, Santa Barbara Bowl, US, 34.4351-119.69357," Ridgefield, WA, US",45.74643,-122.66611,68677509, The Goo Goo Dolls, headline, Allen Stone
1896080, Allen Stone,35963429," The Goo Goo Dolls and Train at Xfinity Center (August 17, 2019)", Concert,0.349071, 2019-08-17, None,29228, Santa Barbara Bowl, Santa Barbara Bowl, US, 34.4351-119.69357," Ridgefield, WA, US",45.74643,-122.66611,70051719, Train, headline, Allen Stone
209003, Justin Timberlake,36246909," Justin Timberlake at Talking Stick Resort Arena (March 5, 2019)", Concert,0.605565, 2019-03-05, None,613, Talking Stick Resort Arena, Talking Stick Resort Arena, US, 33.4459-112.07131," Phoenix, AZ, US",33.4459,-112.07131,69142034, Justin Timberlake, headline, Justin Timberlake
209003, Justin Timberlake,35580319," Justin Timberlake with Francesco Yates at T-Mobile Arena (March 8, 2019) (CANCELLED) ", Concert,0.607418, 2019-03-08, None,613, Talking Stick Resort Arena, Talking Stick Resort Arena, US, 33.4459-112.07131," Phoenix, AZ, US",33.4459,-112.07131,68045799, Justin Timberlake, headline, Justin Timberlake
209003, Justin Timberlake,35580079," Justin Timberlake at Staples Center (March 10, 2019)", Concert,0.607418, 2019-03-10, None,613, Talking Stick Resort Arena, Talking Stick Resort Arena, US, 33.4459-112.07131," Phoenix, AZ, US",33.4459,-112.07131,70982129, Francesco Yates, support, Justin Timberlake
209003, Justin Timberlake,36247484," Justin Timberlake at Save Mart Center (March 13, 2019)", Concert,0.605565, 2019-03-13, None,613, Talking Stick Resort Arena, Talking Stick Resort Arena, US, 33.4459-112.07131," Phoenix, AZ, US",33.4459,-112.07131,68045439, Justin Timberlake, headline, Justin Timberlake
209003, Justin Timberlake,36247944," Justin Timberlake at Oracle Arena (March 15, 2019)", Concert,0.605565, 2019-03-15, None,613, Talking Stick Resort Arena, Talking Stick Resort Arena, US, 33.4459-112.07131," Phoenix, AZ, US",33.4459,-112.07131,69142904, Justin Timberlake, headline, Justin Timberlake
209003, Justin Timberlake,36964004," Justin Timberlake at Sprint Center (March 21, 2019)", Concert,0.606438, 2019-03-21, None,613, Talking Stick Resort Arena, Talking Stick Resort Arena, US, 33.4459-112.07131," Phoenix, AZ, US",33.4459,-112.07131,69143664, Justin Timberlake, headline, Justin Timberlake
209003, Justin Timberlake,36273369," Justin Timberlake at Chi Health Center (March 23, 2019)", Concert,0.605614, 2019-03-23, None,613, Talking Stick Resort Arena, Talking Stick Resort Arena, US, 33.4459-112.07131," Phoenix, AZ, US",33.4459,-112.07131,70324364, Justin Timberlake, headline, Justin Timberlake
209003, Justin Timberlake,36308664," Justin Timberlake at Little Caesars Arena (March 25, 2019)", Concert,0.605777, 2019-03-25, None,613, Talking Stick Resort Arena, Talking Stick Resort Arena, US, 33.4459-112.07131," Phoenix, AZ, US",33.4459,-112.07131,69185244, Justin Timberlake, headline, Justin Timberlake
209003, Justin Timberlake,36273679," Justin Timberlake at Enterprise Center (March 28, 2019)", Concert,0.605614, 2019-03-28, None,613, Talking Stick Resort Arena, Talking Stick Resort Arena, US, 33.4459-112.07131," Phoenix, AZ, US",33.4459,-112.07131,69243494, Justin Timberlake, headline, Justin Timberlake
209003, Justin Timberlake,36308289," Justin Timberlake at Nationwide Arena (March 31, 2019)", Concert,0.605739, 2019-03-31, None,613, Talking Stick Resort Arena, Talking Stick Resort Arena, US, 33.4459-112.07131," Phoenix, AZ, US",33.4459,-112.07131,69185679, Justin Timberlake, headline, Justin Timberlake
8325428, Francesco Yates,36273344," Justin Timberlake at Bankers Life Fieldhouse (April 2, 2019)", Concert,0.605614, 2019-04-02, None,613, Talking Stick Resort Arena, Talking Stick Resort Arena, US, 33.4459-112.07131," Phoenix, AZ, US",33.4459,-112.07131,69243019, Justin Timberlake, headline, Francesco Yates
8325428, Francesco Yates,36314174," Justin Timberlake at Van Andel Arena (April 4, 2019)", Concert,0.605739, 2019-04-04, None,613, Talking Stick Resort Arena, Talking Stick Resort Arena, US, 33.4459-112.07131," Phoenix, AZ, US",33.4459,-112.07131,69185224, Justin Timberlake, headline, Francesco Yates
8325428, Francesco Yates,36963999," Justin Timberlake at KeyBank Center (April 6, 2019)", Concert,0.606438, 2019-04-06, None,3189929, T-Mobile Arena, T-Mobile Arena, US, 36.10352-115.17359," Phoenix, AZ, US",33.4459,-112.07131,69252454, Justin Timberlake, headline, Francesco Yates
8325428, Francesco Yates,36273739," Justin Timberlake at Wells Fargo Center-pa (April 9, 2019)", Concert,0.607479, 2019-04-09, None,3189929, T-Mobile Arena, T-Mobile Arena, US, 36.10352-115.17359," Phoenix, AZ, US",33.4459,-112.07131,70324359, Justin Timberlake, headline, Francesco Yates
8325428, Francesco Yates,36273914," Justin Timberlake at Mohegan Sun Arena (April 12, 2019)", Concert,0.605614, 2019-04-12, None,3189929, T-Mobile Arena, T-Mobile Arena, US, 36.10352-115.17359," Phoenix, AZ, US",33.4459,-112.07131,69185784, Justin Timberlake, headline, Francesco Yates
209003, Justin Timberlake,36273834," Justin Timberlake at Mohegan Sun Arena (April 13, 2019)", Concert,0.605614, 2019-04-13, None,3189929, T-Mobile Arena, T-Mobile Arena, US, 36.10352-115.17359," Phoenix, AZ, US",33.4459,-112.07131,69186054, Justin Timberlake, headline, Justin Timberlake
247176, Pharrell Williams,36963219, 2019 Essence Festival 3-Day Weekend Package 2019, Festival,0.351857, 2019-07-05, None,5906, Mercedes-Benz Superdome, Mercedes-Benz Superdome, US, 29.95167-90.0784," New Orleans, LA, US",29.95167,-90.0784,71021624, Pharrell Williams, headline, Pharrell Williams
235779, Sia,37111234, Fuji Rock 2019, Festival,0.426535, 2019-07-26, None,44391, Naeba Ski Resort, Naeba Ski Resort, Japan, 36.78959138.78369," Niigata, Japan",36.78959,138.78369,70580599, Sia, headline, Sia
297319, DJ Snake,36024719," DJ Snake at Camarote Salvador (March 2, 2019)", Concert,0.196754, 2019-03-02, None,944926, Camarote Salvador, Camarote Salvador, Brazil, -13.01043-38.51017," Salvador, Brazil",-13.01043,-38.51017,68778384, DJ Snake, headline, DJ Snake
297319, DJ Snake,36133779," DJ Snake at Laroc Club (March 2, 2019)", Concert,0.19226, 2019-03-02, None,944926, Camarote Salvador, Camarote Salvador, Brazil, -13.01043-38.51017," Salvador, Brazil",-13.01043,-38.51017,68958769, DJ Snake, headline, DJ Snake
297319, DJ Snake,36133834," DJ Snake at P12 Parador Internacional (March 3, 2019)", Concert,0.19226, 2019-03-03, None,944926, Camarote Salvador, Camarote Salvador, Brazil, -13.01043-38.51017," Salvador, Brazil",-13.01043,-38.51017,68958829, DJ Snake, headline, DJ Snake
297319, DJ Snake,36133864," DJ Snake and Goldfish at Rio Carnaval Dos Sonhos (March 4, 2019)", Concert,0.200386, 2019-03-04, None,944926, Camarote Salvador, Camarote Salvador, Brazil, -13.01043-38.51017," Salvador, Brazil",-13.01043,-38.51017,68958864, DJ Snake, headline, DJ Snake
297319, DJ Snake,37038474," DJ Snake at MMRDA Grounds, Bandra Kurla Complex (March 21, 2019)", Concert,0.199504, 2019-03-21, None,944926, Camarote Salvador, Camarote Salvador, Brazil, -13.01043-38.51017," Salvador, Brazil",-13.01043,-38.51017,70551924, Goldfish, headline, DJ Snake
297319, DJ Snake,37038519," DJ Snake at Grounds Embassy (March 22, 2019)", Concert,0.199504, 2019-03-22, None,944926, Camarote Salvador, Camarote Salvador, Brazil, -13.01043-38.51017," Salvador, Brazil",-13.01043,-38.51017,70453659, DJ Snake, headline, DJ Snake
297319, DJ Snake,37038489," DJ Snake at Gachibowli Stadium (March 23, 2019)", Concert,0.199504, 2019-03-23, None,944926, Camarote Salvador, Camarote Salvador, Brazil, -13.01043-38.51017," Salvador, Brazil",-13.01043,-38.51017,70453704, DJ Snake, headline, DJ Snake
297319, DJ Snake,37038554," DJ Snake at Leisure Garden (March 24, 2019)", Concert,0.199504, 2019-03-24, None,944926, Camarote Salvador, Camarote Salvador, Brazil, -13.01043-38.51017," Salvador, Brazil",-13.01043,-38.51017,70453679, DJ Snake, headline, DJ Snake
297319, DJ Snake,36901764," DJ Snake at XS Nightclub, the Wynn (March 30, 2019) (CANCELLED) ", Concert,0.203465, 2019-03-30, None,944926, Camarote Salvador, Camarote Salvador, Brazil, -13.01043-38.51017," Salvador, Brazil",-13.01043,-38.51017,70453744, DJ Snake, headline, DJ Snake
297319, DJ Snake,37075864," DJ Snake at Encore Beach Club, Wynn Las Vegas (April 7, 2019)", Concert,0.203465, 2019-04-07, None,944926, Camarote Salvador, Camarote Salvador, Brazil, -13.01043-38.51017," Salvador, Brazil",-13.01043,-38.51017,70222039, DJ Snake, headline, DJ Snake
297319, DJ Snake,30951289, Coachella 2019, Festival,0.572812, 2019-04-12, None,944926, Camarote Salvador, Camarote Salvador, Brazil, -13.01043-38.51017," Salvador, Brazil",-13.01043,-38.51017,70517519, DJ Snake, headline, DJ Snake
297319, DJ Snake,36505889, Coachella 2019, Festival,0.572812, 2019-04-19, None,944926, Camarote Salvador, Camarote Salvador, Brazil, -13.01043-38.51017," Salvador, Brazil",-13.01043,-38.51017,69576584, Wiz Khalifa, headline, DJ Snake
297319, DJ Snake,37075889," DJ Snake at Encore Beach Club, Wynn Las Vegas (April 21, 2019)", Concert,0.203465, 2019-04-21, None,3090014, Laroc Club, Laroc Club, Brazil, -22.94222-46.96123," Salvador, Brazil",-13.01043,-38.51017,69575734, Ariana Grande, headline, DJ Snake
297319, DJ Snake,37386754," DJ Snake at Intrigue Nightclub (April 24, 2019)", Concert,0.203465, 2019-04-24, None,3090014, Laroc Club, Laroc Club, Brazil, -22.94222-46.96123," Salvador, Brazil",-13.01043,-38.51017,69576204, Kid Cudi, headline, DJ Snake
297319, DJ Snake,36967149," DJ Snake with Tchami, Malaa, and Mercer at Red Rocks Amphitheatre (April 26, 2019)", Concert,0.199038, 2019-04-26, All Ages,3090014, Laroc Club, Laroc Club, Brazil, -22.94222-46.96123," Salvador, Brazil",-13.01043,-38.51017,69575894, Childish Gambino, headline, DJ Snake
297319, DJ Snake,36320724, Firefly Music Festival 2019, Festival,0.337663, 2019-06-21, None,3090014, Laroc Club, Laroc Club, Brazil, -22.94222-46.96123," Salvador, Brazil",-13.01043,-38.51017,69576579, Weezer, headline, DJ Snake
297319, DJ Snake,37316209," DJ Snake at Bonanza Campout (June 21, 2019)", Concert,0.202686, 2019-06-21, None,3090014, Laroc Club, Laroc Club, Brazil, -22.94222-46.96123," Salvador, Brazil",-13.01043,-38.51017,69576609, Zedd, headline, DJ Snake
297319, DJ Snake,37386879," DJ Snake at Encore Beach Club, Wynn Las Vegas (June 21, 2019)", Concert,0.203465, 2019-06-21, None,3090014, Laroc Club, Laroc Club, Brazil, -22.94222-46.96123," Salvador, Brazil",-13.01043,-38.51017,69576489, Tame Impala, headline, DJ Snake
297319, DJ Snake,36258089, Escapade Music Festival 2019, Festival,0.227928, 2019-06-22, None,3090014, Laroc Club, Laroc Club, Brazil, -22.94222-46.96123," Salvador, Brazil",-13.01043,-38.51017,69576194, Khalid, headline, DJ Snake
297319, DJ Snake,36966444," DJ Snake at Escapade Music Festival (June 22, 2019)", Concert,0.198685, 2019-06-22, None,3090014, Laroc Club, Laroc Club, Brazil, -22.94222-46.96123," Salvador, Brazil",-13.01043,-38.51017,69576499, The 1975, headline, DJ Snake
549752, Goldfish,36968844, Escapade Festival 2019, Festival,0.22647, 2019-06-22, None,3090014, Laroc Club, Laroc Club, Brazil, -22.94222-46.96123," Salvador, Brazil",-13.01043,-38.51017,69575969, DJ Snake, headline, Goldfish
549752, Goldfish,36249269, Festival Garorock 2019, Festival,0.203775, 2019-06-27, None,3090014, Laroc Club, Laroc Club, Brazil, -22.94222-46.96123," Salvador, Brazil",-13.01043,-38.51017,69575964, Diplo, headline, Goldfish
549752, Goldfish,36405539," Bagarre, Beirut, Christine and the Queens, Columbine, and 3 moreâ€¦ at Plaine de la Filhole (June 29, 2019)", Concert,0.20363, 2019-06-29, None,3090014, Laroc Club, Laroc Club, Brazil, -22.94222-46.96123," Salvador, Brazil",-13.01043,-38.51017,69576594, YG, headline, Goldfish
549752, Goldfish,36405544," Bagarre, Beirut, Christine and the Queens, Columbine, and 5 moreâ€¦ at Plaine de la Filhole (June 29, 2019)", Concert,0.201229, 2019-06-29, None,3090014, Laroc Club, Laroc Club, Brazil, -22.94222-46.96123," Salvador, Brazil",-13.01043,-38.51017,69576349, Pusha T, headline, Goldfish
549752, Goldfish,36405549," Bagarre, Beirut, Christine and the Queens, Columbine, and 4 moreâ€¦ at Plaine de la Filhole (June 30, 2019)", Concert,0.20363, 2019-06-30, None,2848788, P12 Parador Internacional, P12 Parador Internacional, Brazil, -27.43218-48.51526," Salvador, Brazil",-13.01043,-38.51017,69575914, CHVRCHES, headline, Goldfish
297319, DJ Snake,36438709," DJ Snake at Electric Love Festival (July 4, 2019)", Concert,0.195422, 2019-07-04, None,2848788, P12 Parador Internacional, P12 Parador Internacional, Brazil, -27.43218-48.51526," Salvador, Brazil",-13.01043,-38.51017,69576119, J Balvin, headline, DJ Snake
297319, DJ Snake,35324124, Main Square Festival 2019, Festival,0.226749, 2019-07-05, None,2848788, P12 Parador Internacional, P12 Parador Internacional, Brazil, -27.43218-48.51526," Salvador, Brazil",-13.01043,-38.51017,69576144, Janelle MonÃ¡e, headline, DJ Snake
297319, DJ Snake,36282294," DJ Snake at Mainsquare Festival (July 5, 2019)", Concert,0.193751, 2019-07-05, None,2848788, P12 Parador Internacional, P12 Parador Internacional, Brazil, -27.43218-48.51526," Salvador, Brazil",-13.01043,-38.51017,69575749, BASSNECTAR, headline, DJ Snake
297319, DJ Snake,36363404," DJ Snake at RFM SOMNII (July 6, 2019)", Concert,0.19457, 2019-07-06, None,2848788, P12 Parador Internacional, P12 Parador Internacional, Brazil, -27.43218-48.51526," Salvador, Brazil",-13.01043,-38.51017,69576254, Mac DeMarco, headline, DJ Snake
297319, DJ Snake,37368749," DJ Snake at Exit Festival (July 6, 2019)", Concert,0.203321, 2019-07-06, None,2848788, P12 Parador Internacional, P12 Parador Internacional, Brazil, -27.43218-48.51526," Salvador, Brazil",-13.01043,-38.51017,69575719, Anderson .Paak, headline, DJ Snake
297319, DJ Snake,36278454," DJ Snake at Balaton Sound Festival (July 7, 2019)", Concert,0.193614, 2019-07-07, None,2848788, P12 Parador Internacional, P12 Parador Internacional, Brazil, -27.43218-48.51526," Salvador, Brazil",-13.01043,-38.51017,69575959, Dillon Francis, headline, DJ Snake
297319, DJ Snake,36371014, RFM SOMNII-O Maior Sunset de Sempre! 2019, Festival,0.194684, 2019-07-08, None,2848788, P12 Parador Internacional, P12 Parador Internacional, Brazil, -27.43218-48.51526," Salvador, Brazil",-13.01043,-38.51017,69575764, Billie Eilish, headline, DJ Snake
297319, DJ Snake,35305614, Airbeat One Festival 2019, Festival,0.315154, 2019-07-10, None,2848788, P12 Parador Internacional, P12 Parador Internacional, Brazil, -27.43218-48.51526," Salvador, Brazil",-13.01043,-38.51017,69575729, Aphex Twin, headline, DJ Snake
297319, DJ Snake,37347969," DJ Snake at Primer Music Festival (July 10, 2019)", Concert,0.20316, 2019-07-10, None,2848788, P12 Parador Internacional, P12 Parador Internacional, Brazil, -27.43218-48.51526," Salvador, Brazil",-13.01043,-38.51017,69576339, Playboi Carti, headline, DJ Snake
297319, DJ Snake,37014594," DJ Snake at Airbeat One (July 11, 2019)", Concert,0.199214, 2019-07-11, None,2848788, P12 Parador Internacional, P12 Parador Internacional, Brazil, -27.43218-48.51526," Salvador, Brazil",-13.01043,-38.51017,69576179, Kaytranada, headline, DJ Snake
297319, DJ Snake,36423534," DJ Snake at Ilosaarirock Festival (July 12, 2019)", Concert,0.195278, 2019-07-12, None,2848788, P12 Parador Internacional, P12 Parador Internacional, Brazil, -27.43218-48.51526," Salvador, Brazil",-13.01043,-38.51017,69576559, Unknown Mortal Orchestra, headline, DJ Snake
297319, DJ Snake,35334984, Tomorrowland 2019, Festival,0.201584, 2019-07-19, None,4107569, Rio Carnaval Dos Sonhos, Rio Carnaval Dos Sonhos, Brazil, NoneNone," Valinhos, Brazil",-22.94222,-46.96123,69576009, Four Tet, headline, DJ Snake
297319, DJ Snake,36984019," DJ Snake at Tomorrowland (July 20, 2019)", Concert,0.198855, 2019-07-20, None,4107569, Rio Carnaval Dos Sonhos, Rio Carnaval Dos Sonhos, Brazil, NoneNone," Valinhos, Brazil",-22.94222,-46.96123,69576449, Solange, headline, DJ Snake
297319, DJ Snake,36984039," DJ Snake at Tomorrowland (July 27, 2019)", Concert,0.198855, 2019-07-27, None,4107569, Rio Carnaval Dos Sonhos, Rio Carnaval Dos Sonhos, Brazil, NoneNone," Valinhos, Brazil",-22.94222,-46.96123,69575739, Bad Bunny, headline, DJ Snake
297319, DJ Snake,36419324, SonneMondSterne Festival 2019, Festival,0.662349, 2019-08-09, None,4107569, Rio Carnaval Dos Sonhos, Rio Carnaval Dos Sonhos, Brazil, NoneNone," Valinhos, Brazil",-22.94222,-46.96123,69576174, Kacey Musgraves, headline, DJ Snake
297319, DJ Snake,36850514," Orelsan with DJ Snake at Plage Du Palais Des Festivals (August 9, 2019)", Concert,0.20363, 2019-08-09, None,4107569, Rio Carnaval Dos Sonhos, Rio Carnaval Dos Sonhos, Brazil, NoneNone," Valinhos, Brazil",-22.94222,-46.96123,69576124, Jaden Smith, headline, DJ Snake
297319, DJ Snake,36439014," DJ Snake at Les Plages Electroniques (August 10, 2019)", Concert,0.20363, 2019-08-10, None,4107569, Rio Carnaval Dos Sonhos, Rio Carnaval Dos Sonhos, Brazil, NoneNone," Valinhos, Brazil",-22.94222,-46.96123,69575779, Blood Orange, headline, DJ Snake
297319, DJ Snake,36850519," Orelsan with DJ Snake at Plage Du Palais Des Festivals (August 11, 2019)", Concert,0.197472, 2019-08-11, None,4107569, Rio Carnaval Dos Sonhos, Rio Carnaval Dos Sonhos, Brazil, NoneNone," Valinhos, Brazil",-22.94222,-46.96123,69576169, Juice WRLD, headline, DJ Snake
297319, DJ Snake,37414234," DJ Snake at KrakÃ³w Live Music Festival (August 16, 2019)", Concert,0.203775, 2019-08-16, None,4107569, Rio Carnaval Dos Sonhos, Rio Carnaval Dos Sonhos, Brazil, NoneNone," Valinhos, Brazil",-22.94222,-46.96123,69576379, RÃœFÃœS DU SOL, headline, DJ Snake
316828, Wiz Khalifa,36595769," Wiz Khalifa and Curren$y at The Fillmore Silver Spring Presented By Cricket Wireless (February 28, 2019)", Concert,0.571106, 2019-02-28, None,4012179, The Fillmore Silver Spring Presented By Cricket Wireless, The Fillmore Silver Spring Presented By Cricket Wireless, US, 38.99744-77.02762," Silver Spring, MD, US",38.99744,-77.02762,69726914, Wiz Khalifa, headline, Wiz Khalifa
316828, Wiz Khalifa,36650449," Wiz Khalifa and Curren$y at The Fillmore Silver Spring (February 28, 2019)", Concert,0.568242, 2019-02-28, None,4012179, The Fillmore Silver Spring Presented By Cricket Wireless, The Fillmore Silver Spring Presented By Cricket Wireless, US, 38.99744-77.02762," Silver Spring, MD, US",38.99744,-77.02762,69726919, Curren$y, headline, Wiz Khalifa
316828, Wiz Khalifa,37147629," Wiz Khalifa and Curren$y with Rico Davis at The Fillmore Silver Spring Presented By Cricket Wireless (February 28, 2019)", Concert,0.571106, 2019-02-28, 21+,4012179, The Fillmore Silver Spring Presented By Cricket Wireless, The Fillmore Silver Spring Presented By Cricket Wireless, US, 38.99744-77.02762," Silver Spring, MD, US",38.99744,-77.02762,69816049, Wiz Khalifa, headline, Wiz Khalifa
316828, Wiz Khalifa,36597389," Wiz Khalifa and Curren$y at The NorVa (March 1, 2019)", Concert,0.572673, 2019-03-01, None,4012179, The Fillmore Silver Spring Presented By Cricket Wireless, The Fillmore Silver Spring Presented By Cricket Wireless, US, 38.99744-77.02762," Silver Spring, MD, US",38.99744,-77.02762,69816054, Curren$y, headline, Wiz Khalifa
316828, Wiz Khalifa,36594969," Wiz Khalifa and Curren$y at Stage AE (March 2, 2019)", Concert,0.568371, 2019-03-02, None,4012179, The Fillmore Silver Spring Presented By Cricket Wireless, The Fillmore Silver Spring Presented By Cricket Wireless, US, 38.99744-77.02762," Silver Spring, MD, US",38.99744,-77.02762,70694434, Wiz Khalifa, headline, Wiz Khalifa
5334228, Curren$y,36595649," Wiz Khalifa and Curren$y at Buckhead Theatre Presented By Cricket Wireless (March 4, 2019)", Concert,0.568371, 2019-03-04, None,4012179, The Fillmore Silver Spring Presented By Cricket Wireless, The Fillmore Silver Spring Presented By Cricket Wireless, US, 38.99744-77.02762," Silver Spring, MD, US",38.99744,-77.02762,70694439, Curren$y, headline, Curren$y
5334228, Curren$y,37170909," Curren$y and Wiz Khalifa at Republic (March 4, 2019)", Concert,0.571106, 2019-03-04, None,4012179, The Fillmore Silver Spring Presented By Cricket Wireless, The Fillmore Silver Spring Presented By Cricket Wireless, US, 38.99744-77.02762," Silver Spring, MD, US",38.99744,-77.02762,70646999, Rico Davis, support, Curren$y
5334228, Curren$y,36595739," Wiz Khalifa and Curren$y at House of Blues - New Orleans (March 5, 2019)", Concert,0.571106, 2019-03-05, None,4012179, The Fillmore Silver Spring Presented By Cricket Wireless, The Fillmore Silver Spring Presented By Cricket Wireless, US, 38.99744-77.02762," Silver Spring, MD, US",38.99744,-77.02762,69729209, Wiz Khalifa, headline, Curren$y
5334228, Curren$y,36594679," Wiz Khalifa at House of Blues - Houston (March 6, 2019)", Concert,0.568371, 2019-03-06, None,4012179, The Fillmore Silver Spring Presented By Cricket Wireless, The Fillmore Silver Spring Presented By Cricket Wireless, US, 38.99744-77.02762," Silver Spring, MD, US",38.99744,-77.02762,69729214, Curren$y, headline, Curren$y
5334228, Curren$y,36595659," Wiz Khalifa and Curren$y at House of Blues - Dallas (March 7, 2019)", Concert,0.568371, 2019-03-07, None,4012179, The Fillmore Silver Spring Presented By Cricket Wireless, The Fillmore Silver Spring Presented By Cricket Wireless, US, 38.99744-77.02762," Silver Spring, MD, US",38.99744,-77.02762,69725709, Wiz Khalifa, headline, Curren$y
316828, Wiz Khalifa,36969319," Curren$y and Wiz Khalifa at The Criterion (March 8, 2019)", Concert,0.569834, 2019-03-08, None,4012179, The Fillmore Silver Spring Presented By Cricket Wireless, The Fillmore Silver Spring Presented By Cricket Wireless, US, 38.99744-77.02762," Silver Spring, MD, US",38.99744,-77.02762,69725714, Curren$y, headline, Wiz Khalifa
316828, Wiz Khalifa,36594709," Wiz Khalifa at Aztec Theatre (March 9, 2019)", Concert,0.569684, 2019-03-09, None,4012179, The Fillmore Silver Spring Presented By Cricket Wireless, The Fillmore Silver Spring Presented By Cricket Wireless, US, 38.99744-77.02762," Silver Spring, MD, US",38.99744,-77.02762,69726739, Wiz Khalifa, headline, Wiz Khalifa
316828, Wiz Khalifa,36615324," Wiz Khalifa and lil skies at Clayton's Beach Bar (March 12, 2019)", Concert,0.572673, 2019-03-12, None,1448428, The Fillmore Silver Spring, The Fillmore Silver Spring, US, 38.99748-77.02793," Silver Spring, MD, US",38.99744,-77.02762,69726744, Curren$y, headline, Wiz Khalifa
316828, Wiz Khalifa,30951289, Coachella 2019, Festival,0.572812, 2019-04-12, None,1448428, The Fillmore Silver Spring, The Fillmore Silver Spring, US, 38.99748-77.02793," Silver Spring, MD, US",38.99744,-77.02762,70682929, Curren$y, headline, Wiz Khalifa
316828, Wiz Khalifa,36505889, Coachella 2019, Festival,0.572812, 2019-04-19, None,1448428, The Fillmore Silver Spring, The Fillmore Silver Spring, US, 38.99748-77.02793," Silver Spring, MD, US",38.99744,-77.02762,70682934, Wiz Khalifa, headline, Wiz Khalifa
5334228, Curren$y,36965914, Rolling Loud: Miami 2019, Festival,0.572673, 2019-05-10, None,1448428, The Fillmore Silver Spring, The Fillmore Silver Spring, US, 38.99748-77.02793," Silver Spring, MD, US",38.99744,-77.02762,69726874, Wiz Khalifa, headline, Curren$y
366307, Kelly Clarkson,35338509," Kelly Clarkson with Brynn Cartelli and Kelsea Ballerini at American Airlines Center (February 28, 2019)", Concert,0.31719, 2019-02-28, None,673, American Airlines Center, American Airlines Center, US, 32.79044-96.81016," Dallas, TX, US",32.79044,-96.81016,67639419, Kelly Clarkson, headline, Kelly Clarkson
366307, Kelly Clarkson,35338524," Kelly Clarkson with Kelsea Ballerini and Brynn Cartelli at Intrust Bank Arena (March 2, 2019)", Concert,0.315522, 2019-03-02, None,673, American Airlines Center, American Airlines Center, US, 32.79044-96.81016," Dallas, TX, US",32.79044,-96.81016,67640879, Brynn Cartelli, support, Kelly Clarkson
366307, Kelly Clarkson,35338534," Kelly Clarkson with Brynn Cartelli and Kelsea Ballerini at NYCB LIVE: Home of the Nassau Veterans Memorial Coliseum (March 7, 2019)", Concert,0.31719, 2019-03-07, None,673, American Airlines Center, American Airlines Center, US, 32.79044-96.81016," Dallas, TX, US",32.79044,-96.81016,70191664, Kelsea Ballerini, support, Kelly Clarkson
366307, Kelly Clarkson,35338549," Kelly Clarkson with Kelsea Ballerini and Brynn Cartelli at TD Garden (March 8, 2019)", Concert,0.31719, 2019-03-08, None,673, American Airlines Center, American Airlines Center, US, 32.79044-96.81016," Dallas, TX, US",32.79044,-96.81016,67639439, Kelly Clarkson, headline, Kelly Clarkson
366307, Kelly Clarkson,35338559," Kelly Clarkson with Brynn Cartelli and Maggie Rose at PPL Center (March 9, 2019)", Concert,0.315522, 2019-03-09, None,673, American Airlines Center, American Airlines Center, US, 32.79044-96.81016," Dallas, TX, US",32.79044,-96.81016,67639444, Kelsea Ballerini, support, Kelly Clarkson
9679189, Brynn Cartelli,35338564," Kelly Clarkson with Brynn Cartelli and Maggie Rose at Mohegan Sun Arena (March 14, 2019)", Concert,0.31719, 2019-03-14, None,673, American Airlines Center, American Airlines Center, US, 32.79044-96.81016," Dallas, TX, US",32.79044,-96.81016,67640894, Brynn Cartelli, support, Brynn Cartelli
9679189, Brynn Cartelli,35338579," Kelly Clarkson with Brynn Cartelli and Maggie Rose at Mohegan Sun Arena (March 15, 2019)", Concert,0.31719, 2019-03-15, None,673, American Airlines Center, American Airlines Center, US, 32.79044-96.81016," Dallas, TX, US",32.79044,-96.81016,67639454, Kelly Clarkson, headline, Brynn Cartelli
9679189, Brynn Cartelli,35338604," Kelly Clarkson with Kelsea Ballerini and Brynn Cartelli at Royal Farms Arena (March 16, 2019)", Concert,0.31719, 2019-03-16, None,673, American Airlines Center, American Airlines Center, US, 32.79044-96.81016," Dallas, TX, US",32.79044,-96.81016,67640909, Brynn Cartelli, support, Brynn Cartelli
9679189, Brynn Cartelli,35338609," Kelly Clarkson with Kelsea Ballerini and Brynn Cartelli at Quicken Loans Arena (March 21, 2019)", Concert,0.315522, 2019-03-21, None,673, American Airlines Center, American Airlines Center, US, 32.79044-96.81016," Dallas, TX, US",32.79044,-96.81016,70191679, Kelsea Ballerini, support, Brynn Cartelli
9679189, Brynn Cartelli,35338624," Kelly Clarkson with Kelsea Ballerini and Brynn Cartelli at Bankers Life Fieldhouse (March 22, 2019)", Concert,0.31719, 2019-03-22, None,673, American Airlines Center, American Airlines Center, US, 32.79044-96.81016," Dallas, TX, US",32.79044,-96.81016,67639474, Kelly Clarkson, headline, Brynn Cartelli
8417703, Kelsea Ballerini,35338644," Kelly Clarkson with Kelsea Ballerini and Brynn Cartelli at US Bank Arena (March 23, 2019)", Concert,0.31719, 2019-03-23, None,673, American Airlines Center, American Airlines Center, US, 32.79044-96.81016," Dallas, TX, US",32.79044,-96.81016,67639479, Kelsea Ballerini, support, Kelsea Ballerini
8417703, Kelsea Ballerini,35338654," Kelly Clarkson with Kelsea Ballerini and Brynn Cartelli at Infinite Energy Arena (March 28, 2019)", Concert,0.315522, 2019-03-28, None,673, American Airlines Center, American Airlines Center, US, 32.79044-96.81016," Dallas, TX, US",32.79044,-96.81016,67640914, Brynn Cartelli, support, Kelsea Ballerini
8417703, Kelsea Ballerini,36790854," Kelly Clarkson with Kelsea Ballerini and Brynn Cartelli at Bridgestone Arena (March 29, 2019)", Concert,0.315522, 2019-03-29, None,523016, Intrust Bank Arena, Intrust Bank Arena, US, 37.68267-97.33215," Dallas, TX, US",32.79044,-96.81016,67639494, Kelly Clarkson, headline, Kelsea Ballerini
8417703, Kelsea Ballerini,35338674," Kelly Clarkson with Kelsea Ballerini and Brynn Cartelli at Bon Secours Wellness Arena (March 30, 2019)", Concert,0.31719, 2019-03-30, None,523016, Intrust Bank Arena, Intrust Bank Arena, US, 37.68267-97.33215," Dallas, TX, US",32.79044,-96.81016,67640929, Brynn Cartelli, support, Kelsea Ballerini
440797, Pitbull,37311654, Twin Cities Summer Jam 2019, Festival,0.501122, 2019-07-18, None, None, Unknown venue, Unknown venue, US, NoneNone," Shakopee, MN, US",44.7981,-93.5267,70929944, Pitbull, headline, Pitbull
555021, The Killers,36780184, Kaaboo Texas 2019, Festival,0.613042, 2019-05-10, None,50098, AT&T Stadium, AT&T Stadium, US, 32.7479-97.09291," Arlington, TX, US",32.7479,-97.09291,70479334, The Killers, headline, The Killers
555021, The Killers,37228244, HR3 Hessentag 2019, Festival,0.496859, 2019-06-07, None,50098, AT&T Stadium, AT&T Stadium, US, 32.7479-97.09291," Arlington, TX, US",32.7479,-97.09291,70479359, Black Eyed Peas, headline, The Killers
555021, The Killers,37235309," Black Eyed Peas at Sparkassen-Arena (June 7, 2019)", Concert,0.49649, 2019-06-07, None,50098, AT&T Stadium, AT&T Stadium, US, 32.7479-97.09291," Arlington, TX, US",32.7479,-97.09291,70479364, Flo Rida, headline, The Killers
555021, The Killers,37325809, O Son do CamiÃ±o 2019, Festival,0.613096, 2019-06-13, None,50098, AT&T Stadium, AT&T Stadium, US, 32.7479-97.09291," Arlington, TX, US",32.7479,-97.09291,70479369, Ludacris, headline, The Killers
555021, The Killers,35324354, Secret Solstice Festival 2019, Festival,0.49649, 2019-06-21, None,50098, AT&T Stadium, AT&T Stadium, US, 32.7479-97.09291," Arlington, TX, US",32.7479,-97.09291,70479524, Lynyrd Skynyrd, headline, The Killers
451661, Black Eyed Peas,37268479, Usadba Jazz Festival 2019, Festival,0.496767, 2019-06-23, None,50098, AT&T Stadium, AT&T Stadium, US, 32.7479-97.09291," Arlington, TX, US",32.7479,-97.09291,70479349, Counting Crows, headline, Black Eyed Peas
451661, Black Eyed Peas,36109404, Volt Festival 2019, Festival,0.496517, 2019-06-26, None,50098, AT&T Stadium, AT&T Stadium, US, 32.7479-97.09291," Arlington, TX, US",32.7479,-97.09291,70479339, Sting, headline, Black Eyed Peas
451661, Black Eyed Peas,37286884, Weekend Beach Festival 2019, Festival,0.496488, 2019-07-03, None,50098, AT&T Stadium, AT&T Stadium, US, 32.7479-97.09291," Arlington, TX, US",32.7479,-97.09291,70479534, Alanis Morissette, headline, Black Eyed Peas
451661, Black Eyed Peas,37416874, Festival CruÃ¯lla 2019, Festival,0.496488, 2019-07-03, None,50098, AT&T Stadium, AT&T Stadium, US, 32.7479-97.09291," Arlington, TX, US",32.7479,-97.09291,70479344, Kid Rock, headline, Black Eyed Peas
451661, Black Eyed Peas,36182849, Les Ardentes 2019, Festival,0.49513, 2019-07-04, None,50098, AT&T Stadium, AT&T Stadium, US, 32.7479-97.09291," Arlington, TX, US",32.7479,-97.09291,70479384, The Avett Brothers, headline, Black Eyed Peas
1168415, Flo Rida,37105309, Zwarte Cross 2019, Festival,0.495056, 2019-07-18, None,50098, AT&T Stadium, AT&T Stadium, US, 32.7479-97.09291," Arlington, TX, US",32.7479,-97.09291,70479529, Ms. Lauryn Hill, headline, Flo Rida
1168415, Flo Rida,37029799," Black Eyed Peas at Theatre Jean-deschamps (July 29, 2019)", Concert,0.49649, 2019-07-29, None,50098, AT&T Stadium, AT&T Stadium, US, 32.7479-97.09291," Arlington, TX, US",32.7479,-97.09291,70479544, Bush, headline, Flo Rida
1168415, Flo Rida,35542004, Rock In Rio 2019, Festival,0.629191, 2019-10-03, None,50098, AT&T Stadium, AT&T Stadium, US, 32.7479-97.09291," Arlington, TX, US",32.7479,-97.09291,70059724, Chromeo, headline, Flo Rida
456767, Enrique Iglesias,35904969," Enrique Iglesias at Tauron Arena Krakow (May 7, 2019)", Concert,0.343891, 2019-05-07, None,2935043, Tauron Arena Krakow, Tauron Arena Krakow, Poland, 50.0678219.98858," Krakow, Poland",50.06782,19.98858,68583699, Enrique Iglesias, headline, Enrique Iglesias
456767, Enrique Iglesias,35904974," Enrique Iglesias at Lanxess Arena (May 9, 2019)", Concert,0.343916, 2019-05-09, None,2935043, Tauron Arena Krakow, Tauron Arena Krakow, Poland, 50.0678219.98858," Krakow, Poland",50.06782,19.98858,68583709, Enrique Iglesias, headline, Enrique Iglesias
456767, Enrique Iglesias,35904979," Enrique Iglesias at Hallenstadion (May 10, 2019)", Concert,0.343362, 2019-05-10, None,2935043, Tauron Arena Krakow, Tauron Arena Krakow, Poland, 50.0678219.98858," Krakow, Poland",50.06782,19.98858,68583714, Enrique Iglesias, headline, Enrique Iglesias
456767, Enrique Iglesias,37077354," Enrique Iglesias at Avalon Ballroom Theatre, Niagara Fallsview Casino Resort (May 22, 2019)", Concert,0.343293, 2019-05-22, None,2935043, Tauron Arena Krakow, Tauron Arena Krakow, Poland, 50.0678219.98858," Krakow, Poland",50.06782,19.98858,70519844, Enrique Iglesias, headline, Enrique Iglesias
456767, Enrique Iglesias,37077509," Enrique Iglesias at Avalon Ballroom Theatre, Niagara Fallsview Casino Resort (May 23, 2019)", Concert,0.343293, 2019-05-23, None,2935043, Tauron Arena Krakow, Tauron Arena Krakow, Poland, 50.0678219.98858," Krakow, Poland",50.06782,19.98858,70520124, Enrique Iglesias, headline, Enrique Iglesias
456767, Enrique Iglesias,36401639," Enrique Iglesias at WiZink Center (December 7, 2019)", Concert,0.343367, 2019-12-07, None,2935043, Tauron Arena Krakow, Tauron Arena Krakow, Poland, 50.0678219.98858," Krakow, Poland",50.06782,19.98858,69398069, Enrique Iglesias, headline, Enrique Iglesias
527224, Nelly,35208714," Nelly at BB&T Arena (March 15, 2019)", Concert,0.279114, 2019-03-15, None,513066, BB&T Arena, BB&T Arena, US, 39.03178-84.46331," Highland Heights, KY, US",39.03178,-84.46331,67423239, Nelly, headline, Nelly
527224, Nelly,37234549," Nelly and HOWALD at Dampfzentrale (March 22, 2019)", Concert,0.280677, 2019-03-22, None,513066, BB&T Arena, BB&T Arena, US, 39.03178-84.46331," Highland Heights, KY, US",39.03178,-84.46331,70797959, Nelly, headline, Nelly
527224, Nelly,36402429," Steve Aoki, Nelly, Snoop Dogg, and Kryoman at Raising Cane's River Center Arena (April 11, 2019)", Concert,0.407332, 2019-04-11, None,513066, BB&T Arena, BB&T Arena, US, 39.03178-84.46331," Highland Heights, KY, US",39.03178,-84.46331,70797964, HOWALD, headline, Nelly
527224, Nelly,37279854," Snoop Dogg, Nelly, Chromeo, and Kryoman at BOK Center (April 12, 2019)", Concert,0.407668, 2019-04-12, None,513066, BB&T Arena, BB&T Arena, US, 39.03178-84.46331," Highland Heights, KY, US",39.03178,-84.46331,69399229, Steve Aoki, headline, Nelly
527224, Nelly,37138259," Nelly at Lava Cantina - The Colony (May 4, 2019)", Concert,0.279344, 2019-05-04, None,513066, BB&T Arena, BB&T Arena, US, 39.03178-84.46331," Highland Heights, KY, US",39.03178,-84.46331,69399234, Nelly, headline, Nelly
527224, Nelly,36942399," Nelly with Twista and Futuristic at Champaign County Fairgrounds (May 17, 2019)", Concert,0.280705, 2019-05-17, None,513066, BB&T Arena, BB&T Arena, US, 39.03178-84.46331," Highland Heights, KY, US",39.03178,-84.46331,70679869, Snoop Dogg, headline, Nelly
527224, Nelly,36791074, Forecastle Festival 2019, Festival,0.612976, 2019-07-12, None,513066, BB&T Arena, BB&T Arena, US, 39.03178-84.46331," Highland Heights, KY, US",39.03178,-84.46331,70679874, Kryoman, headline, Nelly
527224, Nelly,36586729," Florida Georgia Line with Dan + Shay, Nelly, and Mitchell Tenpenny at Indianapolis Motor Speedway (September 7, 2019)", Concert,0.280559, 2019-09-07, None,513066, BB&T Arena, BB&T Arena, US, 39.03178-84.46331," Highland Heights, KY, US",39.03178,-84.46331,70874909, Snoop Dogg, headline, Nelly
551106, Trey Songz,36483204," Trey Songz with Jacquees and Eric Bellinger at ShoWare Center (March 22, 2019)", Concert,0.348546, 2019-03-22, None,48376, ShoWare Center, ShoWare Center, US, 47.38675-122.24128," Kent, WA, US",47.38675,-122.24128,69537629, Trey Songz, headline, Trey Songz
551106, Trey Songz,37260644," Trey Songz at Foxwoods Resort Casino Grand Theater (May 11, 2019)", Concert,0.348154, 2019-05-11, None,48376, ShoWare Center, ShoWare Center, US, 47.38675-122.24128," Kent, WA, US",47.38675,-122.24128,71070844, Jacquees, support, Trey Songz
556955, Drake,36876029," Drake with Tory Lanez and Tiffany Calver at Manchester Arena (March 10, 2019)", Concert,0.88509, 2019-03-10, None,17602, Manchester Arena, Manchester Arena, UK, 53.48731-2.24335," Manchester, UK",53.48731,-2.24335,70177404, Drake, headline, Drake
556955, Drake,36876034," Drake with Tory Lanez and Tiffany Calver at Manchester Arena (March 11, 2019)", Concert,0.88509, 2019-03-11, None,17602, Manchester Arena, Manchester Arena, UK, 53.48731-2.24335," Manchester, UK",53.48731,-2.24335,70177514, Tory Lanez, support, Drake
556955, Drake,36876039," Drake with Tory Lanez and Tiffany Calver at 3Arena (March 19, 2019)", Concert,0.88509, 2019-03-19, None,17602, Manchester Arena, Manchester Arena, UK, 53.48731-2.24335," Manchester, UK",53.48731,-2.24335,70177519, Tiffany Calver, support, Drake
556955, Drake,36876054," Drake with Tory Lanez and Tiffany Calver at 3Arena (March 21, 2019)", Concert,0.88509, 2019-03-21, None,17602, Manchester Arena, Manchester Arena, UK, 53.48731-2.24335," Manchester, UK",53.48731,-2.24335,70177409, Drake, headline, Drake
556955, Drake,36876059," Drake with Tory Lanez and Tiffany Calver at 3Arena (March 22, 2019)", Concert,0.88509, 2019-03-22, None,17602, Manchester Arena, Manchester Arena, UK, 53.48731-2.24335," Manchester, UK",53.48731,-2.24335,70177539, Tory Lanez, support, Drake
4121471, Tory Lanez,36876069," Drake with Tory Lanez and Tiffany Calver at Resorts World Arena (March 26, 2019)", Concert,0.887072, 2019-03-26, None,17602, Manchester Arena, Manchester Arena, UK, 53.48731-2.24335," Manchester, UK",53.48731,-2.24335,70177544, Tiffany Calver, support, Tory Lanez
4121471, Tory Lanez,36876079," Drake with Tory Lanez and Tiffany Calver at Resorts World Arena (March 27, 2019)", Concert,0.887072, 2019-03-27, None,17602, Manchester Arena, Manchester Arena, UK, 53.48731-2.24335," Manchester, UK",53.48731,-2.24335,70177414, Drake, headline, Tory Lanez
4121471, Tory Lanez,36876094," Drake with Tory Lanez and Tiffany Calver at Resorts World Arena (March 28, 2019)", Concert,0.887072, 2019-03-28, None,17602, Manchester Arena, Manchester Arena, UK, 53.48731-2.24335," Manchester, UK",53.48731,-2.24335,70177554, Tory Lanez, support, Tory Lanez
4121471, Tory Lanez,36869164," Drake with Tory Lanez at The O2 Arena (April 1, 2019)", Concert,0.88509, 2019-04-01, None,17602, Manchester Arena, Manchester Arena, UK, 53.48731-2.24335," Manchester, UK",53.48731,-2.24335,70177559, Tiffany Calver, support, Tory Lanez
4121471, Tory Lanez,36869084," Drake with Tory Lanez at The O2 Arena (April 2, 2019)", Concert,0.88509, 2019-04-02, None,17602, Manchester Arena, Manchester Arena, UK, 53.48731-2.24335," Manchester, UK",53.48731,-2.24335,70177429, Drake, headline, Tory Lanez
8563524, Tiffany Calver,36868784," Drake with Tory Lanez at The O2 Arena (April 4, 2019)", Concert,0.88509, 2019-04-04, None,17602, Manchester Arena, Manchester Arena, UK, 53.48731-2.24335," Manchester, UK",53.48731,-2.24335,70177564, Tory Lanez, support, Tiffany Calver
8563524, Tiffany Calver,36869104," Drake with Tory Lanez at The O2 Arena (April 5, 2019)", Concert,0.88509, 2019-04-05, None,17602, Manchester Arena, Manchester Arena, UK, 53.48731-2.24335," Manchester, UK",53.48731,-2.24335,70177569, Tiffany Calver, support, Tiffany Calver
8563524, Tiffany Calver,36868289," Drake with Tory Lanez at The O2 Arena (April 8, 2019)", Concert,0.88509, 2019-04-08, None,17602, Manchester Arena, Manchester Arena, UK, 53.48731-2.24335," Manchester, UK",53.48731,-2.24335,70177434, Drake, headline, Tiffany Calver
8563524, Tiffany Calver,36868464," Drake with Tory Lanez at The O2 Arena (April 9, 2019)", Concert,0.88509, 2019-04-09, None,17602, Manchester Arena, Manchester Arena, UK, 53.48731-2.24335," Manchester, UK",53.48731,-2.24335,70177574, Tory Lanez, support, Tiffany Calver
8563524, Tiffany Calver,36911949," Drake with Tory Lanez at The O2 Arena (April 11, 2019)", Concert,0.88619, 2019-04-11, None,17602, Manchester Arena, Manchester Arena, UK, 53.48731-2.24335," Manchester, UK",53.48731,-2.24335,70177579, Tiffany Calver, support, Tiffany Calver
568431, OneRepublic,37183229," OneRepublic at Unknown venue (May 2, 2019)", Concert,0.454531, 2019-05-02, None, None, Unknown venue, Unknown venue, US, NoneNone," West Palm Beach, FL, US",26.71,-80.0644,70704979, OneRepublic, headline, OneRepublic
568431, OneRepublic,37183249," OneRepublic at Unknown venue (May 24, 2019)", Concert,0.454531, 2019-05-24, None, None, Unknown venue, Unknown venue, US, NoneNone," West Palm Beach, FL, US",26.71,-80.0644,70705009, OneRepublic, headline, OneRepublic
3277856, Kendrick Lamar,36097874, Lollapalooza 2019, Festival,0.632232, 2019-03-29, None,821361, HipÃ³dromo de San Isidro, HipÃ³dromo de San Isidro, Argentina, -34.49282-58.54785," Buenos Aires, Argentina",-34.49282,-58.54785,68901824, Kendrick Lamar, headline, Kendrick Lamar
3277856, Kendrick Lamar,36097879, Lollapalooza 2019, Festival,0.632232, 2019-03-29, None,821361, HipÃ³dromo de San Isidro, HipÃ³dromo de San Isidro, Argentina, -34.49282-58.54785," Buenos Aires, Argentina",-34.49282,-58.54785,68901829, Arctic Monkeys, headline, Kendrick Lamar
3277856, Kendrick Lamar,35703879, Lollapalooza 2019, Festival,0.632232, 2019-04-05, None,821361, HipÃ³dromo de San Isidro, HipÃ³dromo de San Isidro, Argentina, -34.49282-58.54785," Buenos Aires, Argentina",-34.49282,-58.54785,68901849, Sam Smith, headline, Kendrick Lamar
3277856, Kendrick Lamar,36097914, Festival Estereo Picnic 2019, Festival,0.632232, 2019-04-05, None,821361, HipÃ³dromo de San Isidro, HipÃ³dromo de San Isidro, Argentina, -34.49282-58.54785," Buenos Aires, Argentina",-34.49282,-58.54785,68901834, Twenty One Pilots, headline, Kendrick Lamar
547556, Diplo,37182809, SunFest 2019, Festival,0.198173, 2019-05-02, None, None, Unknown venue, Unknown venue, US, NoneNone," West Palm Beach, FL, US",26.71,-80.0644,70704124, Diplo, headline, Diplo
547556, Diplo,36183579, Hangout Fest 2019, Festival,0.331867, 2019-05-16, None, None, Unknown venue, Unknown venue, US, NoneNone," West Palm Beach, FL, US",26.71,-80.0644,70785894, Bebe Rexha, headline, Diplo
941964, Bruno Mars,37052314," Bruno Mars at Park Theater, Park MGM Las Vegas (April 29, 2019)", Concert,0.771389, 2019-04-29, None,3410514," Park Theater, Park MGM Las Vegas"," Park Theater, Park MGM Las Vegas", US, 36.10502-115.17359," Las Vegas, NV, US",36.10502,-115.17359,70477099, Bruno Mars, headline, Bruno Mars
941964, Bruno Mars,37052319," Bruno Mars at Park Theater, Park MGM Las Vegas (April 30, 2019)", Concert,0.771389, 2019-04-30, None,3410514," Park Theater, Park MGM Las Vegas"," Park Theater, Park MGM Las Vegas", US, 36.10502-115.17359," Las Vegas, NV, US",36.10502,-115.17359,70477104, Bruno Mars, headline, Bruno Mars
941964, Bruno Mars,37052324," Bruno Mars at Park Theater, Park MGM Las Vegas (May 3, 2019)", Concert,0.771389, 2019-05-03, None,3410514," Park Theater, Park MGM Las Vegas"," Park Theater, Park MGM Las Vegas", US, 36.10502-115.17359," Las Vegas, NV, US",36.10502,-115.17359,70477109, Bruno Mars, headline, Bruno Mars
941964, Bruno Mars,37052329," Bruno Mars at Park Theater, Park MGM Las Vegas (May 4, 2019)", Concert,0.771389, 2019-05-04, None,3410514," Park Theater, Park MGM Las Vegas"," Park Theater, Park MGM Las Vegas", US, 36.10502-115.17359," Las Vegas, NV, US",36.10502,-115.17359,70477114, Bruno Mars, headline, Bruno Mars
941964, Bruno Mars,37052339," Bruno Mars at Park Theater, Park MGM Las Vegas (September 3, 2019)", Concert,0.771389, 2019-09-03, None,3410514," Park Theater, Park MGM Las Vegas"," Park Theater, Park MGM Las Vegas", US, 36.10502-115.17359," Las Vegas, NV, US",36.10502,-115.17359,70477129, Bruno Mars, headline, Bruno Mars
941964, Bruno Mars,37052344," Bruno Mars at Park Theater, Park MGM Las Vegas (September 4, 2019)", Concert,0.771389, 2019-09-04, None,3410514," Park Theater, Park MGM Las Vegas"," Park Theater, Park MGM Las Vegas", US, 36.10502-115.17359," Las Vegas, NV, US",36.10502,-115.17359,70477134, Bruno Mars, headline, Bruno Mars
941964, Bruno Mars,37052349," Bruno Mars at Park Theater, Park MGM Las Vegas (September 7, 2019)", Concert,0.771389, 2019-09-07, None,3410514," Park Theater, Park MGM Las Vegas"," Park Theater, Park MGM Las Vegas", US, 36.10502-115.17359," Las Vegas, NV, US",36.10502,-115.17359,70477139, Bruno Mars, headline, Bruno Mars
941964, Bruno Mars,37052359," Bruno Mars at Park Theater, Park MGM Las Vegas (September 9, 2019)", Concert,0.771389, 2019-09-09, None,3410514," Park Theater, Park MGM Las Vegas"," Park Theater, Park MGM Las Vegas", US, 36.10502-115.17359," Las Vegas, NV, US",36.10502,-115.17359,70477149, Bruno Mars, headline, Bruno Mars
941964, Bruno Mars,37052364," Bruno Mars at Park Theater, Park MGM Las Vegas (September 10, 2019)", Concert,0.771389, 2019-09-10, None,3410514," Park Theater, Park MGM Las Vegas"," Park Theater, Park MGM Las Vegas", US, 36.10502-115.17359," Las Vegas, NV, US",36.10502,-115.17359,70477154, Bruno Mars, headline, Bruno Mars
941964, Bruno Mars,37052369," Bruno Mars at Park Theater, Park MGM Las Vegas (September 13, 2019)", Concert,0.771389, 2019-09-13, None,3410514," Park Theater, Park MGM Las Vegas"," Park Theater, Park MGM Las Vegas", US, 36.10502-115.17359," Las Vegas, NV, US",36.10502,-115.17359,70477159, Bruno Mars, headline, Bruno Mars
941964, Bruno Mars,37052374," Bruno Mars at Park Theater, Park MGM Las Vegas (September 14, 2019)", Concert,0.771389, 2019-09-14, None,3410514," Park Theater, Park MGM Las Vegas"," Park Theater, Park MGM Las Vegas", US, 36.10502-115.17359," Las Vegas, NV, US",36.10502,-115.17359,70477164, Bruno Mars, headline, Bruno Mars
974908, Lady Gaga,35085174," Lady Gaga at Park Theater, Park MGM Las Vegas (May 30, 2019)", Concert,0.615549, 2019-05-30, None,3410514," Park Theater, Park MGM Las Vegas"," Park Theater, Park MGM Las Vegas", US, 36.10502-115.17359," Las Vegas, NV, US",36.10502,-115.17359,67207024, Lady Gaga, headline, Lady Gaga
974908, Lady Gaga,35085179," Lady Gaga at Park Theater, Park MGM Las Vegas (June 1, 2019)", Concert,0.615549, 2019-06-01, None,3410514," Park Theater, Park MGM Las Vegas"," Park Theater, Park MGM Las Vegas", US, 36.10502-115.17359," Las Vegas, NV, US",36.10502,-115.17359,67207029, Lady Gaga, headline, Lady Gaga
974908, Lady Gaga,35085304," Lady Gaga at Park Theater, Park MGM Las Vegas (June 2, 2019)", Concert,0.615549, 2019-06-02, None,3410514," Park Theater, Park MGM Las Vegas"," Park Theater, Park MGM Las Vegas", US, 36.10502-115.17359," Las Vegas, NV, US",36.10502,-115.17359,67207184, Lady Gaga, headline, Lady Gaga
974908, Lady Gaga,35085184," Lady Gaga at Park Theater, Park MGM Las Vegas (June 6, 2019)", Concert,0.615549, 2019-06-06, None,3410514," Park Theater, Park MGM Las Vegas"," Park Theater, Park MGM Las Vegas", US, 36.10502-115.17359," Las Vegas, NV, US",36.10502,-115.17359,67207034, Lady Gaga, headline, Lady Gaga
974908, Lady Gaga,35085189," Lady Gaga at Park Theater, Park MGM Las Vegas (June 8, 2019)", Concert,0.615549, 2019-06-08, None,3410514," Park Theater, Park MGM Las Vegas"," Park Theater, Park MGM Las Vegas", US, 36.10502-115.17359," Las Vegas, NV, US",36.10502,-115.17359,67207039, Lady Gaga, headline, Lady Gaga
974908, Lady Gaga,35085319," Lady Gaga at Park Theater, Park MGM Las Vegas (June 9, 2019)", Concert,0.615549, 2019-06-09, None,3410514," Park Theater, Park MGM Las Vegas"," Park Theater, Park MGM Las Vegas", US, 36.10502-115.17359," Las Vegas, NV, US",36.10502,-115.17359,67207199, Lady Gaga, headline, Lady Gaga
974908, Lady Gaga,35085199," Lady Gaga at Park Theater, Park MGM Las Vegas (June 12, 2019)", Concert,0.615549, 2019-06-12, None,3410514," Park Theater, Park MGM Las Vegas"," Park Theater, Park MGM Las Vegas", US, 36.10502-115.17359," Las Vegas, NV, US",36.10502,-115.17359,67207049, Lady Gaga, headline, Lady Gaga
974908, Lady Gaga,35085209," Lady Gaga at Park Theater, Park MGM Las Vegas (June 14, 2019)", Concert,0.615549, 2019-06-14, None,3410514," Park Theater, Park MGM Las Vegas"," Park Theater, Park MGM Las Vegas", US, 36.10502-115.17359," Las Vegas, NV, US",36.10502,-115.17359,67207064, Lady Gaga, headline, Lady Gaga
974908, Lady Gaga,36307689," Lady Gaga at Park Theater, Park MGM Las Vegas (June 15, 2019)", Concert,0.616935, 2019-06-15, None,3410514," Park Theater, Park MGM Las Vegas"," Park Theater, Park MGM Las Vegas", US, 36.10502-115.17359," Las Vegas, NV, US",36.10502,-115.17359,69242014, Lady Gaga, headline, Lady Gaga
974908, Lady Gaga,35085219," Lady Gaga at Park Theater, Park MGM Las Vegas (October 17, 2019)", Concert,0.615549, 2019-10-17, None,3410514," Park Theater, Park MGM Las Vegas"," Park Theater, Park MGM Las Vegas", US, 36.10502-115.17359," Las Vegas, NV, US",36.10502,-115.17359,67207074, Lady Gaga, headline, Lady Gaga
974908, Lady Gaga,35085229," Lady Gaga at Park Theater, Park MGM Las Vegas (October 19, 2019)", Concert,0.615549, 2019-10-19, None,3410514," Park Theater, Park MGM Las Vegas"," Park Theater, Park MGM Las Vegas", US, 36.10502-115.17359," Las Vegas, NV, US",36.10502,-115.17359,67207084, Lady Gaga, headline, Lady Gaga
974908, Lady Gaga,36307999," Lady Gaga at Park Theater, Park MGM Las Vegas (October 20, 2019)", Concert,0.616935, 2019-10-20, None,3410514," Park Theater, Park MGM Las Vegas"," Park Theater, Park MGM Las Vegas", US, 36.10502-115.17359," Las Vegas, NV, US",36.10502,-115.17359,69242509, Lady Gaga, headline, Lady Gaga
974908, Lady Gaga,35085234," Lady Gaga at Park Theater, Park MGM Las Vegas (October 23, 2019)", Concert,0.615549, 2019-10-23, None,3410514," Park Theater, Park MGM Las Vegas"," Park Theater, Park MGM Las Vegas", US, 36.10502-115.17359," Las Vegas, NV, US",36.10502,-115.17359,67207094, Lady Gaga, headline, Lady Gaga
974908, Lady Gaga,35085239," Lady Gaga at Park Theater, Park MGM Las Vegas (October 25, 2019)", Concert,0.615549, 2019-10-25, None,3410514," Park Theater, Park MGM Las Vegas"," Park Theater, Park MGM Las Vegas", US, 36.10502-115.17359," Las Vegas, NV, US",36.10502,-115.17359,67207099, Lady Gaga, headline, Lady Gaga
974908, Lady Gaga,36308814," Lady Gaga at Park Theater, Park MGM Las Vegas (October 26, 2019)", Concert,0.616935, 2019-10-26, None,3410514," Park Theater, Park MGM Las Vegas"," Park Theater, Park MGM Las Vegas", US, 36.10502-115.17359," Las Vegas, NV, US",36.10502,-115.17359,69243674, Lady Gaga, headline, Lady Gaga
974908, Lady Gaga,35085244," Lady Gaga at Park Theater, Park MGM Las Vegas (October 31, 2019)", Concert,0.615549, 2019-10-31, None,3410514," Park Theater, Park MGM Las Vegas"," Park Theater, Park MGM Las Vegas", US, 36.10502-115.17359," Las Vegas, NV, US",36.10502,-115.17359,67207104, Lady Gaga, headline, Lady Gaga
974908, Lady Gaga,35085249," Lady Gaga at Park Theater, Park MGM Las Vegas (November 2, 2019)", Concert,0.615549, 2019-11-02, None,3410514," Park Theater, Park MGM Las Vegas"," Park Theater, Park MGM Las Vegas", US, 36.10502-115.17359," Las Vegas, NV, US",36.10502,-115.17359,67207109, Lady Gaga, headline, Lady Gaga
974908, Lady Gaga,36307759," Lady Gaga at Park Theater, Park MGM Las Vegas (November 3, 2019)", Concert,0.616935, 2019-11-03, None,3410514," Park Theater, Park MGM Las Vegas"," Park Theater, Park MGM Las Vegas", US, 36.10502-115.17359," Las Vegas, NV, US",36.10502,-115.17359,69242129, Lady Gaga, headline, Lady Gaga
974908, Lady Gaga,35085259," Lady Gaga at Park Theater, Park MGM Las Vegas (November 6, 2019)", Concert,0.615549, 2019-11-06, None,3410514," Park Theater, Park MGM Las Vegas"," Park Theater, Park MGM Las Vegas", US, 36.10502-115.17359," Las Vegas, NV, US",36.10502,-115.17359,67207124, Lady Gaga, headline, Lady Gaga
974908, Lady Gaga,35085274," Lady Gaga at Park Theater, Park MGM Las Vegas (November 8, 2019)", Concert,0.615549, 2019-11-08, None,3410514," Park Theater, Park MGM Las Vegas"," Park Theater, Park MGM Las Vegas", US, 36.10502-115.17359," Las Vegas, NV, US",36.10502,-115.17359,67207144, Lady Gaga, headline, Lady Gaga
974908, Lady Gaga,36308899," Lady Gaga at Park Theater, Park MGM Las Vegas (November 9, 2019)", Concert,0.616935, 2019-11-09, None,3410514," Park Theater, Park MGM Las Vegas"," Park Theater, Park MGM Las Vegas", US, 36.10502-115.17359," Las Vegas, NV, US",36.10502,-115.17359,69243809, Lady Gaga, headline, Lady Gaga
1055942, Jason Derulo,37260319," Jason Derulo at Foxwoods Resort Casino Grand Theater (April 27, 2019)", Concert,0.475245, 2019-04-27, None,3953624, Foxwoods Resort Casino Grand Theater, Foxwoods Resort Casino Grand Theater, US, 41.47334-71.96," Ledyard, CT, US",41.47334,-71.96,70842204, Jason Derulo, headline, Jason Derulo
1134363, Katy Perry,36958459, N.O. Jazz & Heritage Festival 2019, Festival,0.713371, 2019-04-25, None,68443, Fair Grounds Race Course, Fair Grounds Race Course, US, 29.98378-90.07698," New Orleans, LA, US",29.98378,-90.07698,70317464, Katy Perry, headline, Katy Perry
1168415, Flo Rida,35746824, Tortuga Music Festival 2019, Festival,0.480301, 2019-04-12, None,804271, Fort Lauderdale Beach Park, Fort Lauderdale Beach Park, US, 26.10985-80.10608," Fort Lauderdale, FL, US",26.10985,-80.10608,68325529, Flo Rida, headline, Flo Rida
1168415, Flo Rida,36780184, Kaaboo Texas 2019, Festival,0.613042, 2019-05-10, None,804271, Fort Lauderdale Beach Park, Fort Lauderdale Beach Park, US, 26.10985-80.10608," Fort Lauderdale, FL, US",26.10985,-80.10608,68325519, Jason Aldean, headline, Flo Rida
1435335, Nicki Minaj,34335824," Nicki Minaj and Juice WRLD at Royal Arena (March 1, 2019)", Concert,0.630254, 2019-03-01, None,3324844, Royal Arena, Royal Arena, Denmark, 55.6257512.5737," Copenhagen, Denmark",55.62575,12.5737,65898059, Nicki Minaj, headline, Nicki Minaj
1435335, Nicki Minaj,34315739," Nicki Minaj at Oslo Spektrum (March 3, 2019)", Concert,0.58441, 2019-03-03, None,3324844, Royal Arena, Royal Arena, Denmark, 55.6257512.5737," Copenhagen, Denmark",55.62575,12.5737,70652554, Juice WRLD, headline, Nicki Minaj
1435335, Nicki Minaj,34299404," Nicki Minaj with Juice WRLD and Lil Xan at Ericsson Globe Arena (March 4, 2019)", Concert,0.624863, 2019-03-04, None,3324844, Royal Arena, Royal Arena, Denmark, 55.6257512.5737," Copenhagen, Denmark",55.62575,12.5737,65861379, Nicki Minaj, headline, Nicki Minaj
1435335, Nicki Minaj,35214644," Nicki Minaj and Juice WRLD at Palais 12 (March 6, 2019)", Concert,0.630254, 2019-03-06, None,3324844, Royal Arena, Royal Arena, Denmark, 55.6257512.5737," Copenhagen, Denmark",55.62575,12.5737,65834074, Nicki Minaj, headline, Nicki Minaj
1435335, Nicki Minaj,34295224," Nicki Minaj and Juice WRLD at Accorhotels Arena (March 7, 2019)", Concert,0.630254, 2019-03-07, None,3324844, Royal Arena, Royal Arena, Denmark, 55.6257512.5737," Copenhagen, Denmark",55.62575,12.5737,70534339, Juice WRLD, support, Nicki Minaj
9550809, Juice WRLD,35727569," Nicki Minaj and Juice WRLD at Arkea Arena (March 9, 2019)", Concert,0.630254, 2019-03-09, None,3324844, Royal Arena, Royal Arena, Denmark, 55.6257512.5737," Copenhagen, Denmark",55.62575,12.5737,70534344, Lil Xan, support, Juice WRLD
9550809, Juice WRLD,34295819," Nicki Minaj and Future at The O2 Arena (March 11, 2019)", Concert,0.630254, 2019-03-11, None,3324844, Royal Arena, Royal Arena, Denmark, 55.6257512.5737," Copenhagen, Denmark",55.62575,12.5737,67432634, Nicki Minaj, headline, Juice WRLD
9550809, Juice WRLD,34295824," Nicki Minaj and Juice WRLD at Arena Birmingham (March 14, 2019)", Concert,0.630254, 2019-03-14, None,3324844, Royal Arena, Royal Arena, Denmark, 55.6257512.5737," Copenhagen, Denmark",55.62575,12.5737,69459399, Juice WRLD, headline, Juice WRLD
9550809, Juice WRLD,34261464," Nicki Minaj at 3Arena (March 15, 2019)", Concert,0.614953, 2019-03-15, None,3324844, Royal Arena, Royal Arena, Denmark, 55.6257512.5737," Copenhagen, Denmark",55.62575,12.5737,65827199, Nicki Minaj, headline, Juice WRLD
9550809, Juice WRLD,34295829," Nicki Minaj and Juice WRLD at The SSE Hydro (March 17, 2019)", Concert,0.629987, 2019-03-17, None,3324844, Royal Arena, Royal Arena, Denmark, 55.6257512.5737," Copenhagen, Denmark",55.62575,12.5737,69467904, Juice WRLD, headline, Juice WRLD
1435335, Nicki Minaj,34287144," Nicki Minaj and Juice WRLD at Manchester Arena (March 18, 2019)", Concert,0.630254, 2019-03-18, None,3324844, Royal Arena, Royal Arena, Denmark, 55.6257512.5737," Copenhagen, Denmark",55.62575,12.5737,68293749, Nicki Minaj, headline, Nicki Minaj
1435335, Nicki Minaj,34347924," Nicki Minaj at Rockhal (March 20, 2019)", Concert,0.628655, 2019-03-20, None,3324844, Royal Arena, Royal Arena, Denmark, 55.6257512.5737," Copenhagen, Denmark",55.62575,12.5737,69467909, Juice WRLD, headline, Nicki Minaj
1435335, Nicki Minaj,34295834," Nicki Minaj at Festhalle Frankfurt (March 22, 2019)", Concert,0.630254, 2019-03-22, None,34267, Oslo Spektrum, Oslo Spektrum, Norway, 59.912610.75479," Copenhagen, Denmark",55.62575,12.5737,65828134, Nicki Minaj, headline, Nicki Minaj
1435335, Nicki Minaj,34312154," Nicki Minaj at Lanxess Arena (March 23, 2019)", Concert,0.630254, 2019-03-23, None,34267, Oslo Spektrum, Oslo Spektrum, Norway, 59.912610.75479," Copenhagen, Denmark",55.62575,12.5737,65860059, Future, headline, Nicki Minaj
1435335, Nicki Minaj,35220609," Nicki Minaj and Juice WRLD at Ziggo Dome (March 25, 2019)", Concert,0.630254, 2019-03-25, None,34267, Oslo Spektrum, Oslo Spektrum, Norway, 59.912610.75479," Copenhagen, Denmark",55.62575,12.5737,65828139, Nicki Minaj, headline, Nicki Minaj
1435335, Nicki Minaj,34299564," Nicki Minaj at Hallenstadion (March 27, 2019)", Concert,0.616948, 2019-03-27, None,34267, Oslo Spektrum, Oslo Spektrum, Norway, 59.912610.75479," Copenhagen, Denmark",55.62575,12.5737,69457189, Juice WRLD, headline, Nicki Minaj
1435335, Nicki Minaj,34299559," Nicki Minaj at Arena de Geneve (March 28, 2019)", Concert,0.616948, 2019-03-28, None,34267, Oslo Spektrum, Oslo Spektrum, Norway, 59.912610.75479," Copenhagen, Denmark",55.62575,12.5737,65827739, Nicki Minaj, headline, Nicki Minaj
1435335, Nicki Minaj,36994389," Lil Wayne, Nicki Minaj, Tory Lanez, Trippie Redd, and 1 moreâ€¦ at Staples Center (June 21, 2019)", Concert,0.671462, 2019-06-21, None,34267, Oslo Spektrum, Oslo Spektrum, Norway, 59.912610.75479," Copenhagen, Denmark",55.62575,12.5737,65828144, Nicki Minaj, headline, Nicki Minaj
8574269, Playboi Carti,32772319," Playboi Carti, Big Sean, Shy Glizzy, and GASHI at Event Center Arena, SJSU (April 29, 2019) (CANCELLED) ", Concert,0.405101, 2019-04-29, None,6712," Event Center Arena, SJSU"," Event Center Arena, SJSU", US, 37.33508-121.88075," San Jose, CA, US",37.33508,-121.88075,63072249, Playboi Carti, headline, Playboi Carti
8574269, Playboi Carti,35387374," Big Sean, Playboi Carti, Shy Glizzy, and GASHI at River Stage at Penn's Landing (February 23, 2020)", Concert,0.41735, 2020-02-23, None,6712," Event Center Arena, SJSU"," Event Center Arena, SJSU", US, 37.33508-121.88075," San Jose, CA, US",37.33508,-121.88075,63072254, Big Sean, headline, Playboi Carti
8574269, Playboi Carti,35386929," Big Sean, Playboi Carti, Shy Glizzy, and GASHI at Smart Financial Centre (February 25, 2020)", Concert,0.414099, 2020-02-25, None,6712," Event Center Arena, SJSU"," Event Center Arena, SJSU", US, 37.33508-121.88075," San Jose, CA, US",37.33508,-121.88075,63072259, Shy Glizzy, headline, Playboi Carti
8574269, Playboi Carti,35401689," Big Sean, Playboi Carti, Shy Glizzy, and GASHI at The Farm Bureau Insurance Lawn at White River State Park (February 25, 2020)", Concert,0.414279, 2020-02-25, None,6712," Event Center Arena, SJSU"," Event Center Arena, SJSU", US, 37.33508-121.88075," San Jose, CA, US",37.33508,-121.88075,63085014, GASHI, headline, Playboi Carti
2083334, Ed Sheeran,35906414," Ed Sheeran at Songdo Moonlight Festival Park (April 21, 2019)", Concert,0.693101, 2019-04-21, None,2925923, Songdo Moonlight Festival Park, Songdo Moonlight Festival Park," Korea, Republic Of", 37.47636126.61694," Incheon, Korea, Republic Of",37.47636,126.61694,68586139, Ed Sheeran, headline, Ed Sheeran
2083334, Ed Sheeran,35906459," Ed Sheeran at Kallang National Stadium (April 26, 2019)", Concert,0.693101, 2019-04-26, None,2925923, Songdo Moonlight Festival Park, Songdo Moonlight Festival Park," Korea, Republic Of", 37.47636126.61694," Incheon, Korea, Republic Of",37.47636,126.61694,68586204, Ed Sheeran, headline, Ed Sheeran
2083334, Ed Sheeran,35906474," Ed Sheeran at Rajamangala National Stadium (April 28, 2019)", Concert,0.693101, 2019-04-28, None,2925923, Songdo Moonlight Festival Park, Songdo Moonlight Festival Park," Korea, Republic Of", 37.47636126.61694," Incheon, Korea, Republic Of",37.47636,126.61694,68586224, Ed Sheeran, headline, Ed Sheeran
2083334, Ed Sheeran,35906489," Ed Sheeran with James Bay at Unknown venue (May 24, 2019)", Concert,0.713314, 2019-05-24, None,2925923, Songdo Moonlight Festival Park, Songdo Moonlight Festival Park," Korea, Republic Of", 37.47636126.61694," Incheon, Korea, Republic Of",37.47636,126.61694,68586239, Ed Sheeran, headline, Ed Sheeran
2083334, Ed Sheeran,35906504," Ed Sheeran with James Bay at Unknown venue (May 25, 2019)", Concert,0.713314, 2019-05-25, None,2925923, Songdo Moonlight Festival Park, Songdo Moonlight Festival Park," Korea, Republic Of", 37.47636126.61694," Incheon, Korea, Republic Of",37.47636,126.61694,70392644, James Bay, support, Ed Sheeran
2083334, Ed Sheeran,35906509," Ed Sheeran with James Bay at Unknown venue (May 26, 2019)", Concert,0.713314, 2019-05-26, None,2925923, Songdo Moonlight Festival Park, Songdo Moonlight Festival Park," Korea, Republic Of", 37.47636126.61694," Incheon, Korea, Republic Of",37.47636,126.61694,68586264, Ed Sheeran, headline, Ed Sheeran
2083334, Ed Sheeran,35906519," Ed Sheeran with James Bay at Stade Matmut-atlantique (May 29, 2019)", Concert,0.713314, 2019-05-29, None,2925923, Songdo Moonlight Festival Park, Songdo Moonlight Festival Park," Korea, Republic Of", 37.47636126.61694," Incheon, Korea, Republic Of",37.47636,126.61694,70392654, James Bay, support, Ed Sheeran
2083334, Ed Sheeran,35906534," Ed Sheeran with James Bay at Estadio da Luz (June 1, 2019)", Concert,0.713314, 2019-06-01, None,2925923, Songdo Moonlight Festival Park, Songdo Moonlight Festival Park," Korea, Republic Of", 37.47636126.61694," Incheon, Korea, Republic Of",37.47636,126.61694,68586269, Ed Sheeran, headline, Ed Sheeran
2083334, Ed Sheeran,35906529," Ed Sheeran with James Bay at Estadio da Luz (June 2, 2019)", Concert,0.713314, 2019-06-02, None,2925923, Songdo Moonlight Festival Park, Songdo Moonlight Festival Park," Korea, Republic Of", 37.47636126.61694," Incheon, Korea, Republic Of",37.47636,126.61694,70392659, James Bay, support, Ed Sheeran
2083334, Ed Sheeran,35906549," Ed Sheeran with James Bay at Estadi OlÃ­mpic LluÃ­s Companys (June 7, 2019)", Concert,0.713314, 2019-06-07, None,2925923, Songdo Moonlight Festival Park, Songdo Moonlight Festival Park," Korea, Republic Of", 37.47636126.61694," Incheon, Korea, Republic Of",37.47636,126.61694,68586274, Ed Sheeran, headline, Ed Sheeran
2083334, Ed Sheeran,35906559," Ed Sheeran with James Bay at Estadio Wanda Metropolitano (June 11, 2019)", Concert,0.713314, 2019-06-11, None,2925923, Songdo Moonlight Festival Park, Songdo Moonlight Festival Park," Korea, Republic Of", 37.47636126.61694," Incheon, Korea, Republic Of",37.47636,126.61694,70392664, James Bay, support, Ed Sheeran
2083334, Ed Sheeran,35959699, Firenze Rocks Festival 2019, Festival,0.713548, 2019-06-13, None,2925923, Songdo Moonlight Festival Park, Songdo Moonlight Festival Park," Korea, Republic Of", 37.47636126.61694," Incheon, Korea, Republic Of",37.47636,126.61694,68586289, Ed Sheeran, headline, Ed Sheeran
2083334, Ed Sheeran,35542759," Ed Sheeran at Visarno Arena (June 14, 2019)", Concert,0.684152, 2019-06-14, None,130396, Kallang National Stadium, Kallang National Stadium, Singapore, NoneNone," Incheon, Korea, Republic Of",37.47636,126.61694,70392669, James Bay, support, Ed Sheeran
2083334, Ed Sheeran,35542779," Ed Sheeran with James Bay at Stadio Olimpico (June 16, 2019)", Concert,0.713314, 2019-06-16, None,130396, Kallang National Stadium, Kallang National Stadium, Singapore, NoneNone," Incheon, Korea, Republic Of",37.47636,126.61694,68586284, Ed Sheeran, headline, Ed Sheeran
2083334, Ed Sheeran,35542764," Ed Sheeran with James Bay at San Siro (June 19, 2019)", Concert,0.713314, 2019-06-19, None,130396, Kallang National Stadium, Kallang National Stadium, Singapore, NoneNone," Incheon, Korea, Republic Of",37.47636,126.61694,70392674, James Bay, support, Ed Sheeran
2083334, Ed Sheeran,35758234," Ed Sheeran with James Bay at Hockenheimring (June 22, 2019)", Concert,0.713314, 2019-06-22, None,130396, Kallang National Stadium, Kallang National Stadium, Singapore, NoneNone," Incheon, Korea, Republic Of",37.47636,126.61694,68586304, Ed Sheeran, headline, Ed Sheeran
2083334, Ed Sheeran,35758239," Ed Sheeran with James Bay at Hockenheimring (June 23, 2019)", Concert,0.713314, 2019-06-23, None,130396, Kallang National Stadium, Kallang National Stadium, Singapore, NoneNone," Incheon, Korea, Republic Of",37.47636,126.61694,70392679, James Bay, support, Ed Sheeran
2083334, Ed Sheeran,35906569," Ed Sheeran with James Bay at WÃ¶rthersee Stadion (June 28, 2019)", Concert,0.713314, 2019-06-28, None,130396, Kallang National Stadium, Kallang National Stadium, Singapore, NoneNone," Incheon, Korea, Republic Of",37.47636,126.61694,68586314, Ed Sheeran, headline, Ed Sheeran
2083334, Ed Sheeran,35906589," Ed Sheeran with James Bay at WÃ¶rthersee Stadion (June 29, 2019)", Concert,0.713314, 2019-06-29, None,130396, Kallang National Stadium, Kallang National Stadium, Singapore, NoneNone," Incheon, Korea, Republic Of",37.47636,126.61694,70392684, James Bay, support, Ed Sheeran
2083334, Ed Sheeran,35906614," Ed Sheeran with James Bay at Arena NaÈ›ionalÄƒ (National Arena) (July 3, 2019)", Concert,0.713314, 2019-07-03, None,130396, Kallang National Stadium, Kallang National Stadium, Singapore, NoneNone," Incheon, Korea, Republic Of",37.47636,126.61694,68725914, Ed Sheeran, headline, Ed Sheeran
3741276, James Bay,35906634," Ed Sheeran with James Bay at LetiÅ¡tÄ› LetÅˆany (July 7, 2019)", Concert,0.713314, 2019-07-07, None,130396, Kallang National Stadium, Kallang National Stadium, Singapore, NoneNone," Incheon, Korea, Republic Of",37.47636,126.61694,68671754, The Cure, headline, James Bay
3741276, James Bay,35906649," Ed Sheeran with James Bay at LetiÅ¡tÄ› LetÅˆany (July 8, 2019)", Concert,0.713314, 2019-07-08, None,130396, Kallang National Stadium, Kallang National Stadium, Singapore, NoneNone," Incheon, Korea, Republic Of",37.47636,126.61694,70434254, Snow Patrol, headline, James Bay
3741276, James Bay,35906669," Ed Sheeran with James Bay at Lucavsala (July 12, 2019)", Concert,0.713314, 2019-07-12, None,130396, Kallang National Stadium, Kallang National Stadium, Singapore, NoneNone," Incheon, Korea, Republic Of",37.47636,126.61694,68725909, The Smashing Pumpkins, headline, James Bay
3741276, James Bay,35906684," Ed Sheeran with James Bay at Otkritie Arena (July 19, 2019)", Concert,0.713314, 2019-07-19, None,130396, Kallang National Stadium, Kallang National Stadium, Singapore, NoneNone," Incheon, Korea, Republic Of",37.47636,126.61694,69339784, Sum 41, headline, James Bay
3741276, James Bay,35906694," Ed Sheeran with James Bay at Helsinki-Malmi Airport (July 23, 2019)", Concert,0.713314, 2019-07-23, None,289061, Rajamangala National Stadium, Rajamangala National Stadium, Thailand, 13.75846100.62687," Incheon, Korea, Republic Of",37.47636,126.61694,68671749, Tool, headline, James Bay
2083334, Ed Sheeran,35406434," Ed Sheeran with James Bay at Helsinki-Malmi Airport (July 24, 2019)", Concert,0.713314, 2019-07-24, None,289061, Rajamangala National Stadium, Rajamangala National Stadium, Thailand, 13.75846100.62687," Incheon, Korea, Republic Of",37.47636,126.61694,69369539, Dream Theater, headline, Ed Sheeran
2083334, Ed Sheeran,35906704," Ed Sheeran with James Bay at Unknown venue (July 27, 2019)", Concert,0.713314, 2019-07-27, None,289061, Rajamangala National Stadium, Rajamangala National Stadium, Thailand, 13.75846100.62687," Incheon, Korea, Republic Of",37.47636,126.61694,69802474, Matt Simons, headline, Ed Sheeran
2083334, Ed Sheeran,35906709," Ed Sheeran with James Bay at Unknown venue (July 28, 2019)", Concert,0.713314, 2019-07-28, None,289061, Rajamangala National Stadium, Rajamangala National Stadium, Thailand, 13.75846100.62687," Incheon, Korea, Republic Of",37.47636,126.61694,67981889, Ed Sheeran, headline, Ed Sheeran
2083334, Ed Sheeran,35758319," Ed Sheeran with James Bay at MessegelÃ¤nde (August 2, 2019)", Concert,0.713314, 2019-08-02, None,289061, Rajamangala National Stadium, Rajamangala National Stadium, Thailand, 13.75846100.62687," Incheon, Korea, Republic Of",37.47636,126.61694,67981909, Ed Sheeran, headline, Ed Sheeran
2083334, Ed Sheeran,35758329," Ed Sheeran with James Bay at MessegelÃ¤nde (August 3, 2019)", Concert,0.713314, 2019-08-03, None,289061, Rajamangala National Stadium, Rajamangala National Stadium, Thailand, 13.75846100.62687," Incheon, Korea, Republic Of",37.47636,126.61694,70392689, James Bay, support, Ed Sheeran
3741276, James Bay,35321799, Sziget Festival 2019, Festival,0.71644, 2019-08-07, None,289061, Rajamangala National Stadium, Rajamangala National Stadium, Thailand, 13.75846100.62687," Incheon, Korea, Republic Of",37.47636,126.61694,67981894, Ed Sheeran, headline, James Bay
3741276, James Bay,35574174," Ed Sheeran with James Bay at LaugardalsvÃ¶llur (August 10, 2019)", Concert,0.713314, 2019-08-10, None,289061, Rajamangala National Stadium, Rajamangala National Stadium, Thailand, 13.75846100.62687," Incheon, Korea, Republic Of",37.47636,126.61694,70392694, James Bay, support, James Bay
3741276, James Bay,35574194," Ed Sheeran with James Bay at LaugardalsvÃ¶llur (August 11, 2019)", Concert,0.713314, 2019-08-11, None,289061, Rajamangala National Stadium, Rajamangala National Stadium, Thailand, 13.75846100.62687," Incheon, Korea, Republic Of",37.47636,126.61694,68345914, Ed Sheeran, headline, James Bay
3741276, James Bay,35421694," Ed Sheeran with The Darkness at Roundhay Park (August 16, 2019)", Concert,0.713548, 2019-08-16, None,289061, Rajamangala National Stadium, Rajamangala National Stadium, Thailand, 13.75846100.62687," Incheon, Korea, Republic Of",37.47636,126.61694,70392699, James Bay, support, James Bay
3741276, James Bay,35421714," Ed Sheeran with The Darkness at Roundhay Park (August 17, 2019)", Concert,0.713548, 2019-08-17, None,289061, Rajamangala National Stadium, Rajamangala National Stadium, Thailand, 13.75846100.62687," Incheon, Korea, Republic Of",37.47636,126.61694,68345919, Ed Sheeran, headline, James Bay
2083334, Ed Sheeran,35421719," Ed Sheeran with The Darkness at Chantry Park (August 23, 2019)", Concert,0.713548, 2019-08-23, None,289061, Rajamangala National Stadium, Rajamangala National Stadium, Thailand, 13.75846100.62687," Incheon, Korea, Republic Of",37.47636,126.61694,70392704, James Bay, support, Ed Sheeran
2083334, Ed Sheeran,35421729," Ed Sheeran with The Darkness at Chantry Park (August 24, 2019)", Concert,0.713548, 2019-08-24, None, None, Unknown venue, Unknown venue, France, 45.761144.8594," Singapore, Singapore",1.29306,103.856,68586329, Ed Sheeran, headline, Ed Sheeran
2083334, Ed Sheeran,35492789," Ed Sheeran with The Darkness at Chantry Park (August 25, 2019)", Concert,0.713548, 2019-08-25, None, None, Unknown venue, Unknown venue, France, 45.761144.8594," Singapore, Singapore",1.29306,103.856,70392724, James Bay, support, Ed Sheeran
2083334, Ed Sheeran,35906719," Ed Sheeran with The Darkness at Chantry Park (August 26, 2019)", Concert,0.713548, 2019-08-26, None, None, Unknown venue, Unknown venue, France, 45.761144.8594," Singapore, Singapore",1.29306,103.856,68586349, Ed Sheeran, headline, Ed Sheeran
178809, Future,35321874, Primavera Sound Festival 2019, Festival,0.368718, 2019-05-29, None,69463, Parc del FÃ²rum, Parc del FÃ²rum, Spain, 41.41212.21879," Barcelona, Spain",41.4121,2.21879,69173864, Future, headline, Future
178809, Future,36791804, The Governors Ball Music Festival 2019, Festival,0.674141, 2019-05-31, None,69463, Parc del FÃ²rum, Parc del FÃ²rum, Spain, 41.41212.21879," Barcelona, Spain",41.4121,2.21879,69174429, Tame Impala, headline, Future
178809, Future,35320784, Reading Festival 2019, Festival,0.484345, 2019-08-23, None,69463, Parc del FÃ²rum, Parc del FÃ²rum, Spain, 41.41212.21879," Barcelona, Spain",41.4121,2.21879,69173949, Nas, headline, Future
178809, Future,36094884, Leeds Festival 2019, Festival,0.484345, 2019-08-23, None,69463, Parc del FÃ²rum, Parc del FÃ²rum, Spain, 41.41212.21879," Barcelona, Spain",41.4121,2.21879,69174194, Carly Rae Jepsen, headline, Future
2322629, Jessie J,35868454, Zermatt Unplugged Festival 2019, Festival,0.303119, 2019-04-09, None, None, Unknown venue, Unknown venue, Switzerland, NoneNone," Zermatt, Switzerland",46.0241,7.7484,68597904, Jessie J, headline, Jessie J
2322629, Jessie J,36097449," Jessie J at ZeltbÃ¼hne | Zermatt Unplugged Festival (April 13, 2019)", Concert,0.303559, 2019-04-13, None, None, Unknown venue, Unknown venue, Switzerland, NoneNone," Zermatt, Switzerland",46.0241,7.7484,68597894, Passenger, headline, Jessie J
2322629, Jessie J,36807284," Jessie J at Tonhalle - Kultfabrik (April 15, 2019)", Concert,0.30313, 2019-04-15, None, None, Unknown venue, Unknown venue, Switzerland, NoneNone," Zermatt, Switzerland",46.0241,7.7484,70978734, James Bay, headline, Jessie J
2322629, Jessie J,36807254," Jessie J at Mehr! Theater am GroÃŸmarkt (April 18, 2019)", Concert,0.303136, 2019-04-18, None, None, Unknown venue, Unknown venue, Switzerland, NoneNone," Zermatt, Switzerland",46.0241,7.7484,70978759, Alex Clare, headline, Jessie J
2322629, Jessie J,37360979," Jessie J at Olympic Gymnasium (April 26, 2019)", Concert,0.303116, 2019-04-26, None, None, Unknown venue, Unknown venue, Switzerland, NoneNone," Zermatt, Switzerland",46.0241,7.7484,70978739, Tom Odell, headline, Jessie J
449987, Passenger,37018104, Evoke Festival - Jessie J- Saturday Ticket 2019, Festival,0.303049, 2019-07-13, None, None, Unknown venue, Unknown venue, Switzerland, NoneNone," Zermatt, Switzerland",46.0241,7.7484,70978754, Michael Kiwanuka, headline, Passenger
2506696, Imagine Dragons,36886799, BottleRock Napa Valley 2019, Festival,0.629737, 2019-05-24, None,4138944, Napa Valley Expo, Napa Valley Expo, US, 38.29622-122.28756," Napa, CA, US",38.29622,-122.28756,70029559, Imagine Dragons, headline, Imagine Dragons
2506696, Imagine Dragons,35542004, Rock In Rio 2019, Festival,0.629191, 2019-10-03, None,4138944, Napa Valley Expo, Napa Valley Expo, US, 38.29622-122.28756," Napa, CA, US",38.29622,-122.28756,70029564, Mumford & Sons, headline, Imagine Dragons
2867816, The Chainsmokers,36991409, Ultra South Africa 2019, Festival,0.308665, 2019-03-01, None,1571998, Cape Town Ostrich Ranch, Cape Town Ostrich Ranch, South Africa, -33.7442518.55615," Cape Town, South Africa",-33.74425,18.55615,70373529, The Chainsmokers, headline, The Chainsmokers
2867816, The Chainsmokers,36991419, Ultra South Africa 2019, Festival,0.308665, 2019-03-02, None,1571998, Cape Town Ostrich Ranch, Cape Town Ostrich Ranch, South Africa, -33.7442518.55615," Cape Town, South Africa",-33.74425,18.55615,70373544, The Chainsmokers, headline, The Chainsmokers
2867816, The Chainsmokers,36991449," The Chainsmokers at XS Nightclub, the Wynn (March 8, 2019)", Concert,0.308665, 2019-03-08, None,1571998, Cape Town Ostrich Ranch, Cape Town Ostrich Ranch, South Africa, -33.7442518.55615," Cape Town, South Africa",-33.74425,18.55615,70373634, The Chainsmokers, headline, The Chainsmokers
2867816, The Chainsmokers,37000049," The Chainsmokers at XS Nightclub, the Wynn (March 15, 2019)", Concert,0.308665, 2019-03-15, None,1571998, Cape Town Ostrich Ranch, Cape Town Ostrich Ranch, South Africa, -33.7442518.55615," Cape Town, South Africa",-33.74425,18.55615,70389279, The Chainsmokers, headline, The Chainsmokers
2867816, The Chainsmokers,37000069," The Chainsmokers at XS Nightclub, the Wynn (March 29, 2019)", Concert,0.308665, 2019-03-29, None,1571998, Cape Town Ostrich Ranch, Cape Town Ostrich Ranch, South Africa, -33.7442518.55615," Cape Town, South Africa",-33.74425,18.55615,70389299, The Chainsmokers, headline, The Chainsmokers
2867816, The Chainsmokers,37000104, Ultra Music Festival 2019, Festival,0.311595, 2019-03-29, None,1571998, Cape Town Ostrich Ranch, Cape Town Ostrich Ranch, South Africa, -33.7442518.55615," Cape Town, South Africa",-33.74425,18.55615,70389344, The Chainsmokers, headline, The Chainsmokers
2867816, The Chainsmokers,36267544, Festival Vaiven 2019, Festival,0.310134, 2019-03-30, None,1571998, Cape Town Ostrich Ranch, Cape Town Ostrich Ranch, South Africa, -33.7442518.55615," Cape Town, South Africa",-33.74425,18.55615,70684964, Sam Feldt, headline, The Chainsmokers
2867816, The Chainsmokers,37000089," The Chainsmokers at XS Nightclub, the Wynn (March 30, 2019)", Concert,0.308665, 2019-03-30, None,1571998, Cape Town Ostrich Ranch, Cape Town Ostrich Ranch, South Africa, -33.7442518.55615," Cape Town, South Africa",-33.74425,18.55615,70670389, Slander, headline, The Chainsmokers
2867816, The Chainsmokers,37030789," The Chainsmokers at Encore Beach Club, Wynn Las Vegas (March 30, 2019)", Concert,0.309114, 2019-03-30, None,1571998, Cape Town Ostrich Ranch, Cape Town Ostrich Ranch, South Africa, -33.7442518.55615," Cape Town, South Africa",-33.74425,18.55615,69422284, The Chainsmokers, headline, The Chainsmokers
2867816, The Chainsmokers,37000114," The Chainsmokers at XS Nightclub, the Wynn (April 5, 2019)", Concert,0.308665, 2019-04-05, None,1571998, Cape Town Ostrich Ranch, Cape Town Ostrich Ranch, South Africa, -33.7442518.55615," Cape Town, South Africa",-33.74425,18.55615,69422289, Disclosure, headline, The Chainsmokers
2867816, The Chainsmokers,37000129," The Chainsmokers at XS Nightclub, the Wynn (April 12, 2019)", Concert,0.308665, 2019-04-12, None,1571998, Cape Town Ostrich Ranch, Cape Town Ostrich Ranch, South Africa, -33.7442518.55615," Cape Town, South Africa",-33.74425,18.55615,69422294, CHVRCHES, headline, The Chainsmokers
2867816, The Chainsmokers,37000154," The Chainsmokers at XS Nightclub, the Wynn (April 19, 2019)", Concert,0.308665, 2019-04-19, None,1571998, Cape Town Ostrich Ranch, Cape Town Ostrich Ranch, South Africa, -33.7442518.55615," Cape Town, South Africa",-33.74425,18.55615,69422304, Daya, headline, The Chainsmokers
2867816, The Chainsmokers,37000159," The Chainsmokers at XS Nightclub, the Wynn (April 26, 2019)", Concert,0.308665, 2019-04-26, None,1571998, Cape Town Ostrich Ranch, Cape Town Ostrich Ranch, South Africa, -33.7442518.55615," Cape Town, South Africa",-33.74425,18.55615,69422299, BreakBot, headline, The Chainsmokers
2867816, The Chainsmokers,37000164," The Chainsmokers at Encore Beach Club, Wynn Las Vegas (April 28, 2019)", Concert,0.308665, 2019-04-28, None,1571998, Cape Town Ostrich Ranch, Cape Town Ostrich Ranch, South Africa, -33.7442518.55615," Cape Town, South Africa",-33.74425,18.55615,69422309, Two Feet, headline, The Chainsmokers
2867816, The Chainsmokers,37030754," The Chainsmokers at Encore Beach Club, Wynn Las Vegas (April 28, 2019)", Concert,0.309114, 2019-04-28, None,2080284, Nasrec Expo Centre, Nasrec Expo Centre, South Africa, -26.2491927.9736," Cape Town, South Africa",-33.74425,18.55615,69422319, SG Lewis, headline, The Chainsmokers
2867816, The Chainsmokers,37386824," The Chainsmokers at Encore Beach Club, Wynn Las Vegas (May 5, 2019)", Concert,0.315154, 2019-05-05, None,2080284, Nasrec Expo Centre, Nasrec Expo Centre, South Africa, -26.2491927.9736," Cape Town, South Africa",-33.74425,18.55615,69422329, Oliver Tree, headline, The Chainsmokers
2867816, The Chainsmokers,37387114," The Chainsmokers at Encore Beach Club, Wynn Las Vegas (May 25, 2019)", Concert,0.315154, 2019-05-25, None,2080284, Nasrec Expo Centre, Nasrec Expo Centre, South Africa, -26.2491927.9736," Cape Town, South Africa",-33.74425,18.55615,69180774, Shiba San, headline, The Chainsmokers
2867816, The Chainsmokers,37387174," The Chainsmokers at Encore Beach Club, Wynn Las Vegas (June 2, 2019)", Concert,0.315154, 2019-06-02, None,2080284, Nasrec Expo Centre, Nasrec Expo Centre, South Africa, -26.2491927.9736," Cape Town, South Africa",-33.74425,18.55615,69422334, Icarus, headline, The Chainsmokers
2867816, The Chainsmokers,37387194," The Chainsmokers at Encore Beach Club, Wynn Las Vegas (June 8, 2019)", Concert,0.315154, 2019-06-08, None,2080284, Nasrec Expo Centre, Nasrec Expo Centre, South Africa, -26.2491927.9736," Cape Town, South Africa",-33.74425,18.55615,69422324, Lee Foss, headline, The Chainsmokers
2867816, The Chainsmokers,37386894," The Chainsmokers at Encore Beach Club, Wynn Las Vegas (June 22, 2019)", Concert,0.315154, 2019-06-22, None,2080284, Nasrec Expo Centre, Nasrec Expo Centre, South Africa, -26.2491927.9736," Cape Town, South Africa",-33.74425,18.55615,69422339, zimmer, headline, The Chainsmokers
2867816, The Chainsmokers,37386954," The Chainsmokers at Encore Beach Club, Wynn Las Vegas (June 30, 2019)", Concert,0.315154, 2019-06-30, None,2080284, Nasrec Expo Centre, Nasrec Expo Centre, South Africa, -26.2491927.9736," Cape Town, South Africa",-33.74425,18.55615,69422359, Alex Ferreira, headline, The Chainsmokers
2867816, The Chainsmokers,37000174, Eurokeennes Festival 2019, Festival,0.308665, 2019-07-04, None,2080284, Nasrec Expo Centre, Nasrec Expo Centre, South Africa, -26.2491927.9736," Cape Town, South Africa",-33.74425,18.55615,69422354, Elsa y Elmar, headline, The Chainsmokers
2867816, The Chainsmokers,37000199, Palmesus 2019, Festival,0.308665, 2019-07-05, None,2080284, Nasrec Expo Centre, Nasrec Expo Centre, South Africa, -26.2491927.9736," Cape Town, South Africa",-33.74425,18.55615,69422349, Rebolledo, headline, The Chainsmokers
2867816, The Chainsmokers,37209514, Atlas Weekend 2019, Festival,0.315592, 2019-07-09, None,2080284, Nasrec Expo Centre, Nasrec Expo Centre, South Africa, -26.2491927.9736," Cape Town, South Africa",-33.74425,18.55615,69422369, Tom & Collins, headline, The Chainsmokers
2867816, The Chainsmokers,35305614, Airbeat One Festival 2019, Festival,0.315154, 2019-07-10, None,2080284, Nasrec Expo Centre, Nasrec Expo Centre, South Africa, -26.2491927.9736," Cape Town, South Africa",-33.74425,18.55615,69422364, Los WÃ¡lters, headline, The Chainsmokers
2867816, The Chainsmokers,37000219, Airbeat One Festival 2019, Festival,0.308665, 2019-07-12, None,2080284, Nasrec Expo Centre, Nasrec Expo Centre, South Africa, -26.2491927.9736," Cape Town, South Africa",-33.74425,18.55615,69422379, Rubytates, headline, The Chainsmokers
2867816, The Chainsmokers,37000289, Les Vielles Scharrues 2019, Festival,0.308665, 2019-07-18, None,2080284, Nasrec Expo Centre, Nasrec Expo Centre, South Africa, -26.2491927.9736," Cape Town, South Africa",-33.74425,18.55615,69422384, mÃ©trika, headline, The Chainsmokers
2867816, The Chainsmokers,35334894, Parookaville Festival 2019, Festival,0.314186, 2019-07-19, None,2080284, Nasrec Expo Centre, Nasrec Expo Centre, South Africa, -26.2491927.9736," Cape Town, South Africa",-33.74425,18.55615,69422344, LNG/SHT, headline, The Chainsmokers
2867816, The Chainsmokers,36282624," The Chainsmokers at Sands Steel Stage (August 2, 2019)", Concert,0.298494, 2019-08-02, None,1074456," XS Nightclub, the Wynn"," XS Nightclub, the Wynn", US, 36.12947-115.16497," Cape Town, South Africa",-33.74425,18.55615,69422374, Tini Gessler, headline, The Chainsmokers
2867816, The Chainsmokers,36987104, Summer Sonic 2019, Festival,0.706793, 2019-08-16, None,1074456," XS Nightclub, the Wynn"," XS Nightclub, the Wynn", US, 36.12947-115.16497," Cape Town, South Africa",-33.74425,18.55615,69422394, self sabotage, headline, The Chainsmokers
8386078, Sam Feldt,37131419," The Chainsmokers at US Bank Arena (September 25, 2019)", Concert,0.315592, 2019-09-25, None,1074456," XS Nightclub, the Wynn"," XS Nightclub, the Wynn", US, 36.12947-115.16497," Cape Town, South Africa",-33.74425,18.55615,69423899, immasoul, headline, Sam Feldt
8386078, Sam Feldt,37131439," The Chainsmokers at TD Garden (September 27, 2019)", Concert,0.315592, 2019-09-27, None,1074456," XS Nightclub, the Wynn"," XS Nightclub, the Wynn", US, 36.12947-115.16497," Cape Town, South Africa",-33.74425,18.55615,69422389, Marcelo Gamboa, headline, Sam Feldt
8386078, Sam Feldt,37131444," The Chainsmokers at Mohegan Sun Arena (September 28, 2019)", Concert,0.315592, 2019-09-28, None,1074456," XS Nightclub, the Wynn"," XS Nightclub, the Wynn", US, 36.12947-115.16497," Cape Town, South Africa",-33.74425,18.55615,69228664, Danno Summer, headline, Sam Feldt
8386078, Sam Feldt,37131459," The Chainsmokers at Bryce Jordan Center (September 29, 2019)", Concert,0.315592, 2019-09-29, None,1074456," XS Nightclub, the Wynn"," XS Nightclub, the Wynn", US, 36.12947-115.16497," Cape Town, South Africa",-33.74425,18.55615,69422314, Camilo VII, headline, Sam Feldt
8386078, Sam Feldt,37131469," The Chainsmokers at Little Caesars Arena (October 3, 2019)", Concert,0.315592, 2019-10-03, None,1074456," XS Nightclub, the Wynn"," XS Nightclub, the Wynn", US, 36.12947-115.16497," Cape Town, South Africa",-33.74425,18.55615,69422399, Kleinfinger, headline, Sam Feldt
485932, Slander,37131479," The Chainsmokers at United Center (October 4, 2019)", Concert,0.315592, 2019-10-04, None,1074456," XS Nightclub, the Wynn"," XS Nightclub, the Wynn", US, 36.12947-115.16497," Cape Town, South Africa",-33.74425,18.55615,69422404, Meca Meca, headline, Slander
485932, Slander,37131484," The Chainsmokers at Xcel Energy Center (October 5, 2019)", Concert,0.315592, 2019-10-05, None,1074456," XS Nightclub, the Wynn"," XS Nightclub, the Wynn", US, 36.12947-115.16497," Cape Town, South Africa",-33.74425,18.55615,70389319, The Chainsmokers, headline, Slander
485932, Slander,37131499," The Chainsmokers at Scotiabank Arena (October 8, 2019)", Concert,0.315592, 2019-10-08, None,1074456," XS Nightclub, the Wynn"," XS Nightclub, the Wynn", US, 36.12947-115.16497," Cape Town, South Africa",-33.74425,18.55615,70439174, The Chainsmokers, headline, Slander
485932, Slander,37131504," The Chainsmokers at Bell Centre (October 9, 2019)", Concert,0.315592, 2019-10-09, None,1074456," XS Nightclub, the Wynn"," XS Nightclub, the Wynn", US, 36.12947-115.16497," Cape Town, South Africa",-33.74425,18.55615,70389349, The Chainsmokers, headline, Slander
485932, Slander,37131514," The Chainsmokers at PPG Paints Arena (October 11, 2019)", Concert,0.315592, 2019-10-11, None,1074456," XS Nightclub, the Wynn"," XS Nightclub, the Wynn", US, 36.12947-115.16497," Cape Town, South Africa",-33.74425,18.55615,70389374, The Chainsmokers, headline, Slander
2867816, The Chainsmokers,37131524," The Chainsmokers at KeyBank Center (October 12, 2019)", Concert,0.315592, 2019-10-12, None,1074456," XS Nightclub, the Wynn"," XS Nightclub, the Wynn", US, 36.12947-115.16497," Cape Town, South Africa",-33.74425,18.55615,70389404, The Chainsmokers, headline, The Chainsmokers
2867816, The Chainsmokers,37131529," The Chainsmokers at Value City Arena, Schottenstein Center (October 13, 2019)", Concert,0.315592, 2019-10-13, None,1074456," XS Nightclub, the Wynn"," XS Nightclub, the Wynn", US, 36.12947-115.16497," Cape Town, South Africa",-33.74425,18.55615,70389409, The Chainsmokers, headline, The Chainsmokers
2867816, The Chainsmokers,37131534," The Chainsmokers at Capital One Arena (October 15, 2019)", Concert,0.315592, 2019-10-15, None,1074456," XS Nightclub, the Wynn"," XS Nightclub, the Wynn", US, 36.12947-115.16497," Johannesburg, South Africa",-26.24919,27.9736,70389419, The Chainsmokers, headline, The Chainsmokers
2867816, The Chainsmokers,37131539," The Chainsmokers at Barclays Center (October 17, 2019)", Concert,0.315592, 2019-10-17, None,1074456," XS Nightclub, the Wynn"," XS Nightclub, the Wynn", US, 36.12947-115.16497," Johannesburg, South Africa",-26.24919,27.9736,70439134, The Chainsmokers, headline, The Chainsmokers
2867816, The Chainsmokers,37131549," The Chainsmokers at Bridgestone Arena (October 20, 2019)", Concert,0.315592, 2019-10-20, None,1074456," XS Nightclub, the Wynn"," XS Nightclub, the Wynn", US, 36.12947-115.16497," Johannesburg, South Africa",-26.24919,27.9736,71058924, The Chainsmokers, headline, The Chainsmokers
771160, Disclosure,37131559," The Chainsmokers at State Farm Arena (October 22, 2019)", Concert,0.315592, 2019-10-22, None,1074456," XS Nightclub, the Wynn"," XS Nightclub, the Wynn", US, 36.12947-115.16497," Johannesburg, South Africa",-26.24919,27.9736,71059239, The Chainsmokers, headline, Disclosure
771160, Disclosure,37131564," The Chainsmokers at AmericanAirlines Arena (October 24, 2019)", Concert,0.315592, 2019-10-24, None,1074456," XS Nightclub, the Wynn"," XS Nightclub, the Wynn", US, 36.12947-115.16497," Johannesburg, South Africa",-26.24919,27.9736,71059299, The Chainsmokers, headline, Disclosure
771160, Disclosure,37131569," The Chainsmokers at Amalie Arena (October 25, 2019)", Concert,0.315592, 2019-10-25, None,1074456," XS Nightclub, the Wynn"," XS Nightclub, the Wynn", US, 36.12947-115.16497," Johannesburg, South Africa",-26.24919,27.9736,71059324, The Chainsmokers, headline, Disclosure
771160, Disclosure,37156964," The Chainsmokers at Amway Center (October 26, 2019)", Concert,0.315592, 2019-10-26, None,1074456," XS Nightclub, the Wynn"," XS Nightclub, the Wynn", US, 36.12947-115.16497," Johannesburg, South Africa",-26.24919,27.9736,71058994, The Chainsmokers, headline, Disclosure
771160, Disclosure,37131574," The Chainsmokers at Smoothie King Center (October 29, 2019)", Concert,0.315592, 2019-10-29, None,1074456," XS Nightclub, the Wynn"," XS Nightclub, the Wynn", US, 36.12947-115.16497," Johannesburg, South Africa",-26.24919,27.9736,71059054, The Chainsmokers, headline, Disclosure
3277856, Kendrick Lamar,36097874, Lollapalooza 2019, Festival,0.632232, 2019-03-29, None,821361, HipÃ³dromo de San Isidro, HipÃ³dromo de San Isidro, Argentina, -34.49282-58.54785," Buenos Aires, Argentina",-34.49282,-58.54785,68901824, Kendrick Lamar, headline, Kendrick Lamar
3277856, Kendrick Lamar,36097879, Lollapalooza 2019, Festival,0.632232, 2019-03-29, None,821361, HipÃ³dromo de San Isidro, HipÃ³dromo de San Isidro, Argentina, -34.49282-58.54785," Buenos Aires, Argentina",-34.49282,-58.54785,68901829, Arctic Monkeys, headline, Kendrick Lamar
3277856, Kendrick Lamar,35703879, Lollapalooza 2019, Festival,0.632232, 2019-04-05, None,821361, HipÃ³dromo de San Isidro, HipÃ³dromo de San Isidro, Argentina, -34.49282-58.54785," Buenos Aires, Argentina",-34.49282,-58.54785,68901849, Sam Smith, headline, Kendrick Lamar
3277856, Kendrick Lamar,36097914, Festival Estereo Picnic 2019, Festival,0.632232, 2019-04-05, None,821361, HipÃ³dromo de San Isidro, HipÃ³dromo de San Isidro, Argentina, -34.49282-58.54785," Buenos Aires, Argentina",-34.49282,-58.54785,68901834, Twenty One Pilots, headline, Kendrick Lamar
3376301, Clean Bandit,36249174, Paaspop 2019, Festival,0.223842, 2019-04-19, None, None, Unknown venue, Unknown venue, Netherlands, NoneNone," Schijndel, Netherlands",51.6197,5.4335,69682404, Clean Bandit, headline, Clean Bandit
3376301, Clean Bandit,37180469, Seoul Jazz Festival 2019, Festival,0.223592, 2019-05-25, None, None, Unknown venue, Unknown venue, Netherlands, NoneNone," Schijndel, Netherlands",51.6197,5.4335,69145484, Passenger, headline, Clean Bandit
3376301, Clean Bandit,37279939, Bath Festival Finale Weekend - Weekend 2019, Festival,0.222724, 2019-06-01, None, None, Unknown venue, Unknown venue, Netherlands, NoneNone," Schijndel, Netherlands",51.6197,5.4335,69376304, White Lies, headline, Clean Bandit
3376301, Clean Bandit,37291959, Bath Festival Finale Weekend - Saturday 2019, Festival,0.222724, 2019-06-01, None, None, Unknown venue, Unknown venue, Netherlands, NoneNone," Schijndel, Netherlands",51.6197,5.4335,69487044, Sam Feldt, headline, Clean Bandit
3376301, Clean Bandit,37317459, Bath Festival Finale Weekend - Weekend. Clean Bandit & Van Morrison 2019, Festival,0.222897, 2019-06-01, None, None, Unknown venue, Unknown venue, Netherlands, NoneNone," Schijndel, Netherlands",51.6197,5.4335,70930089, Within Temptation, headline, Clean Bandit
449987, Passenger,37317634, The Bath Festival Finale Weekend - Saturday. Clean Bandit 2019, Festival,0.222897, 2019-06-01, None, None, Unknown venue, Unknown venue, Netherlands, NoneNone," Schijndel, Netherlands",51.6197,5.4335,70920099, Blood Red Shoes, headline, Passenger
449987, Passenger,37293869, Bath Festival 2019, Festival,0.223842, 2019-06-02, None, None, Unknown venue, Unknown venue, Netherlands, NoneNone," Schijndel, Netherlands",51.6197,5.4335,70607014, Ellen Allien, headline, Passenger
449987, Passenger,36072294, Bergenfest 2019, Festival,0.216038, 2019-06-12, None, None, Unknown venue, Unknown venue, Netherlands, NoneNone," Schijndel, Netherlands",51.6197,5.4335,70118974, De Staat, headline, Passenger
449987, Passenger,36569934," Clean Bandit at Sentrum Scene (June 15, 2019)", Concert,0.216038, 2019-06-15, None, None, Unknown venue, Unknown venue, Netherlands, NoneNone," Schijndel, Netherlands",51.6197,5.4335,70730019, Novastar, headline, Passenger
449987, Passenger,36159664," David Guetta, Years & Years, Clean Bandit, Mabel, and 2 moreâ€¦ at Ricoh Arena - Stadium (June 16, 2019)", Concert,0.608735, 2019-06-16, None, None, Unknown venue, Unknown venue, Netherlands, NoneNone," Schijndel, Netherlands",51.6197,5.4335,69862494, Kovacs, headline, Passenger
705077, White Lies,37051454," David Guetta, Anne-Marie, Years & Years, Clean Bandit, and 2 moreâ€¦ at Ricoh Arena (June 16, 2019)", Concert,0.611551, 2019-06-16, None, None, Unknown venue, Unknown venue, Netherlands, NoneNone," Schijndel, Netherlands",51.6197,5.4335,69832814, Octave One, headline, White Lies
705077, White Lies,35042104, Rock Werchter 2019, Festival,0.541236, 2019-06-27, None, None, Unknown venue, Unknown venue, Netherlands, NoneNone," Schijndel, Netherlands",51.6197,5.4335,70920184, DeWolff, headline, White Lies
705077, White Lies,37160939," Mumford & Sons, The Blaze, Miles Kane, Macklemore, and 9 moreâ€¦ at Festivalpark Werchter (June 29, 2019)", Concert,0.541932, 2019-06-29, None, None, Unknown venue, Unknown venue, Netherlands, NoneNone," Schijndel, Netherlands",51.6197,5.4335,71108924, Joeyak, headline, White Lies
705077, White Lies,37172134, Victorious Festival 2019, Festival,0.293629, 2019-08-23, None, None, Unknown venue, Unknown venue, Netherlands, NoneNone," Schijndel, Netherlands",51.6197,5.4335,70953209, Daddy Long Legs, headline, White Lies
4971683, Ariana Grande,35810534," Ariana Grande at Times Union Center (March 18, 2019)", Concert,0.422341, 2019-03-18, None,496, Times Union Center, Times Union Center, US, 42.64834-73.75396," Albany, NY, US",42.64834,-73.75396,68430384, Ariana Grande, headline, Ariana Grande
4971683, Ariana Grande,35810554," Ariana Grande at TD Garden (March 20, 2019)", Concert,0.422341, 2019-03-20, None,496, Times Union Center, Times Union Center, US, 42.64834-73.75396," Albany, NY, US",42.64834,-73.75396,68430404, Ariana Grande, headline, Ariana Grande
4971683, Ariana Grande,35810569," Ariana Grande at KeyBank Center (March 22, 2019)", Concert,0.422341, 2019-03-22, None,496, Times Union Center, Times Union Center, US, 42.64834-73.75396," Albany, NY, US",42.64834,-73.75396,68430419, Ariana Grande, headline, Ariana Grande
4971683, Ariana Grande,35810579," Ariana Grande at Capital One Arena (March 25, 2019)", Concert,0.434405, 2019-03-25, None,496, Times Union Center, Times Union Center, US, 42.64834-73.75396," Albany, NY, US",42.64834,-73.75396,68430429, Ariana Grande, headline, Ariana Grande
4971683, Ariana Grande,35810594," Ariana Grande at Wells Fargo Center (March 26, 2019)", Concert,0.422341, 2019-03-26, None,496, Times Union Center, Times Union Center, US, 42.64834-73.75396," Albany, NY, US",42.64834,-73.75396,68430444, Ariana Grande, headline, Ariana Grande
4971683, Ariana Grande,35810609," Ariana Grande at Quicken Loans Arena (March 28, 2019)", Concert,0.437958, 2019-03-28, None,496, Times Union Center, Times Union Center, US, 42.64834-73.75396," Albany, NY, US",42.64834,-73.75396,68430459, Ariana Grande, headline, Ariana Grande
4971683, Ariana Grande,36189614," Ariana Grande with Normani and Social House at Quicken Loans Arena (March 28, 2019)", Concert,0.406396, 2019-03-28, None,496, Times Union Center, Times Union Center, US, 42.64834-73.75396," Albany, NY, US",42.64834,-73.75396,69049644, Ariana Grande, headline, Ariana Grande
4971683, Ariana Grande,35810619," Ariana Grande at Mohegan Sun Arena (March 30, 2019)", Concert,0.422341, 2019-03-30, None,496, Times Union Center, Times Union Center, US, 42.64834-73.75396," Albany, NY, US",42.64834,-73.75396,69049649, Normani, support, Ariana Grande
4971683, Ariana Grande,35810634," Ariana Grande at Bell Centre (April 1, 2019)", Concert,0.437958, 2019-04-01, None,496, Times Union Center, Times Union Center, US, 42.64834-73.75396," Albany, NY, US",42.64834,-73.75396,69049654, Social House, support, Ariana Grande
4971683, Ariana Grande,35810644," Ariana Grande at Scotiabank Arena (April 3, 2019)", Concert,0.422341, 2019-04-03, None,496, Times Union Center, Times Union Center, US, 42.64834-73.75396," Albany, NY, US",42.64834,-73.75396,68430469, Ariana Grande, headline, Ariana Grande
4971683, Ariana Grande,35810649," Ariana Grande at Little Caesars Arena (April 5, 2019)", Concert,0.422341, 2019-04-05, None,496, Times Union Center, Times Union Center, US, 42.64834-73.75396," Albany, NY, US",42.64834,-73.75396,68430489, Ariana Grande, headline, Ariana Grande
4971683, Ariana Grande,35810654," Ariana Grande at United Center (April 7, 2019)", Concert,0.41942, 2019-04-07, None,496, Times Union Center, Times Union Center, US, 42.64834-73.75396," Albany, NY, US",42.64834,-73.75396,68430499, Ariana Grande, headline, Ariana Grande
4971683, Ariana Grande,35810664," Ariana Grande at Value City Arena, Schottenstein Center (April 10, 2019)", Concert,0.41942, 2019-04-10, None,518, TD Garden, TD Garden, US, 42.36619-71.06215," Albany, NY, US",42.64834,-73.75396,68430509, Ariana Grande, headline, Ariana Grande
4971683, Ariana Grande,30951289, Coachella 2019, Festival,0.572812, 2019-04-12, None,518, TD Garden, TD Garden, US, 42.36619-71.06215," Albany, NY, US",42.64834,-73.75396,68430514, Ariana Grande, headline, Ariana Grande
4971683, Ariana Grande,35810674," Ariana Grande at Bankers Life Fieldhouse (April 12, 2019)", Concert,0.41942, 2019-04-12, None,518, TD Garden, TD Garden, US, 42.36619-71.06215," Albany, NY, US",42.64834,-73.75396,68430524, Ariana Grande, headline, Ariana Grande
4971683, Ariana Grande,35810684," Ariana Grande at Enterprise Center (April 13, 2019)", Concert,0.41942, 2019-04-13, None,518, TD Garden, TD Garden, US, 42.36619-71.06215," Albany, NY, US",42.64834,-73.75396,69576584, Wiz Khalifa, headline, Ariana Grande
4971683, Ariana Grande,35810699," Ariana Grande at Fiserv Forum (April 15, 2019)", Concert,0.41942, 2019-04-15, None,518, TD Garden, TD Garden, US, 42.36619-71.06215," Albany, NY, US",42.64834,-73.75396,69575734, Ariana Grande, headline, Ariana Grande
4971683, Ariana Grande,35810704," Ariana Grande at Xcel Energy Center (April 17, 2019)", Concert,0.41942, 2019-04-17, None,518, TD Garden, TD Garden, US, 42.36619-71.06215," Albany, NY, US",42.64834,-73.75396,69576204, Kid Cudi, headline, Ariana Grande
4971683, Ariana Grande,35810709," Ariana Grande at Chi Health Center (April 18, 2019) (CANCELLED) ", Concert,0.422341, 2019-04-18, None,518, TD Garden, TD Garden, US, 42.36619-71.06215," Albany, NY, US",42.64834,-73.75396,69575894, Childish Gambino, headline, Ariana Grande
4971683, Ariana Grande,36505889, Coachella 2019, Festival,0.572812, 2019-04-19, None,518, TD Garden, TD Garden, US, 42.36619-71.06215," Albany, NY, US",42.64834,-73.75396,69576579, Weezer, headline, Ariana Grande
4971683, Ariana Grande,35810719," Ariana Grande at Pepsi Center (April 20, 2019)", Concert,0.41942, 2019-04-20, None,518, TD Garden, TD Garden, US, 42.36619-71.06215," Albany, NY, US",42.64834,-73.75396,69576609, Zedd, headline, Ariana Grande
4971683, Ariana Grande,35810724," Ariana Grande at Vivint Smart Home Arena (April 22, 2019)", Concert,0.41942, 2019-04-22, None,518, TD Garden, TD Garden, US, 42.36619-71.06215," Albany, NY, US",42.64834,-73.75396,69576489, Tame Impala, headline, Ariana Grande
4971683, Ariana Grande,35810744," Ariana Grande at Rogers Place (April 25, 2019)", Concert,0.422341, 2019-04-25, None,518, TD Garden, TD Garden, US, 42.36619-71.06215," Albany, NY, US",42.64834,-73.75396,69576194, Khalid, headline, Ariana Grande
4971683, Ariana Grande,35810764," Ariana Grande at Rogers Arena (April 27, 2019)", Concert,0.422341, 2019-04-27, None,518, TD Garden, TD Garden, US, 42.36619-71.06215," Albany, NY, US",42.64834,-73.75396,69576499, The 1975, headline, Ariana Grande
4971683, Ariana Grande,35810784," Ariana Grande at The Moda Center (April 30, 2019)", Concert,0.422341, 2019-04-30, None,38546, KeyBank Center, KeyBank Center, US, 42.87495-78.87625," Albany, NY, US",42.64834,-73.75396,69575969, DJ Snake, headline, Ariana Grande
4971683, Ariana Grande,35810789," Ariana Grande at SAP Center at San Jose (May 2, 2019)", Concert,0.422341, 2019-05-02, None,38546, KeyBank Center, KeyBank Center, US, 42.87495-78.87625," Albany, NY, US",42.64834,-73.75396,69575964, Diplo, headline, Ariana Grande
4971683, Ariana Grande,35810804," Ariana Grande at Golden 1 Center (May 3, 2019)", Concert,0.422341, 2019-05-03, None,38546, KeyBank Center, KeyBank Center, US, 42.87495-78.87625," Albany, NY, US",42.64834,-73.75396,69576594, YG, headline, Ariana Grande
4971683, Ariana Grande,35810809," Ariana Grande at Staples Center (May 6, 2019)", Concert,0.437958, 2019-05-06, None,38546, KeyBank Center, KeyBank Center, US, 42.87495-78.87625," Albany, NY, US",42.64834,-73.75396,69576349, Pusha T, headline, Ariana Grande
4971683, Ariana Grande,36306384," Ariana Grande at Staples Center (May 7, 2019)", Concert,0.43756, 2019-05-07, None,38546, KeyBank Center, KeyBank Center, US, 42.87495-78.87625," Albany, NY, US",42.64834,-73.75396,69575914, CHVRCHES, headline, Ariana Grande
4971683, Ariana Grande,35810819," Ariana Grande at The Forum (May 10, 2019)", Concert,0.422341, 2019-05-10, None,38546, KeyBank Center, KeyBank Center, US, 42.87495-78.87625," Albany, NY, US",42.64834,-73.75396,69576119, J Balvin, headline, Ariana Grande
4971683, Ariana Grande,36648194," Ariana Grande, Normani, and Social House at T-Mobile Arena (May 11, 2019)", Concert,0.437958, 2019-05-11, None,38546, KeyBank Center, KeyBank Center, US, 42.87495-78.87625," Albany, NY, US",42.64834,-73.75396,69576144, Janelle MonÃ¡e, headline, Ariana Grande
4971683, Ariana Grande,35810824," Ariana Grande at Talking Stick Resort Arena (May 14, 2019)", Concert,0.422341, 2019-05-14, None,38546, KeyBank Center, KeyBank Center, US, 42.87495-78.87625," Albany, NY, US",42.64834,-73.75396,69575749, BASSNECTAR, headline, Ariana Grande
4971683, Ariana Grande,35810829," Ariana Grande at AT&T Center (May 17, 2019)", Concert,0.422341, 2019-05-17, None,38546, KeyBank Center, KeyBank Center, US, 42.87495-78.87625," Albany, NY, US",42.64834,-73.75396,69576254, Mac DeMarco, headline, Ariana Grande
4971683, Ariana Grande,35810844," Ariana Grande at Toyota Center (May 19, 2019)", Concert,0.437958, 2019-05-19, None,38546, KeyBank Center, KeyBank Center, US, 42.87495-78.87625," Albany, NY, US",42.64834,-73.75396,69575719, Anderson .Paak, headline, Ariana Grande
4971683, Ariana Grande,35810849," Ariana Grande at American Airlines Center (May 21, 2019)", Concert,0.422341, 2019-05-21, None,38546, KeyBank Center, KeyBank Center, US, 42.87495-78.87625," Albany, NY, US",42.64834,-73.75396,69575959, Dillon Francis, headline, Ariana Grande
9534224, Normani,35810854," Ariana Grande at Chesapeake Energy Arena (May 23, 2019)", Concert,0.422341, 2019-05-23, None,38546, KeyBank Center, KeyBank Center, US, 42.87495-78.87625," Albany, NY, US",42.64834,-73.75396,69575764, Billie Eilish, headline, Normani
9534224, Normani,35810869," Ariana Grande at Smoothie King Center (May 25, 2019)", Concert,0.422341, 2019-05-25, None,3640349, Capital One Arena, Capital One Arena, US, 38.89801-77.021," Boston, MA, US",42.36619,-71.06215,69575729, Aphex Twin, headline, Normani
9534224, Normani,35810889," Ariana Grande at Amalie Arena (May 28, 2019)", Concert,0.422341, 2019-05-28, None,3640349, Capital One Arena, Capital One Arena, US, 38.89801-77.021," Boston, MA, US",42.36619,-71.06215,69576339, Playboi Carti, headline, Normani
9534224, Normani,35810899," Ariana Grande at Amway Center (May 29, 2019)", Concert,0.422341, 2019-05-29, None,3640349, Capital One Arena, Capital One Arena, US, 38.89801-77.021," Boston, MA, US",42.36619,-71.06215,69576179, Kaytranada, headline, Normani
9534224, Normani,35810914," Ariana Grande at AmericanAirlines Arena (May 31, 2019)", Concert,0.422341, 2019-05-31, None,3640349, Capital One Arena, Capital One Arena, US, 38.89801-77.021," Boston, MA, US",42.36619,-71.06215,69576559, Unknown Mortal Orchestra, headline, Normani
9737869, Social House,36787734," Ariana Grande, Normani, and Social House at AmericanAirlines Arena (June 1, 2019)", Concert,0.420106, 2019-06-01, None,3640349, Capital One Arena, Capital One Arena, US, 38.89801-77.021," Boston, MA, US",42.36619,-71.06215,69576009, Four Tet, headline, Social House
9737869, Social House,35810924," Ariana Grande at PNC Arena (June 4, 2019)", Concert,0.422341, 2019-06-04, None,3640349, Capital One Arena, Capital One Arena, US, 38.89801-77.021," Boston, MA, US",42.36619,-71.06215,69576449, Solange, headline, Social House
9737869, Social House,36648664," Ariana Grande, Normani, and Social House at United Center (June 4, 2019)", Concert,0.41942, 2019-06-04, None,3640349, Capital One Arena, Capital One Arena, US, 38.89801-77.021," Boston, MA, US",42.36619,-71.06215,69575739, Bad Bunny, headline, Social House
9737869, Social House,36649179," Ariana Grande, Normani, and Social House at United Center (June 5, 2019)", Concert,0.41942, 2019-06-05, None,3640349, Capital One Arena, Capital One Arena, US, 38.89801-77.021," Boston, MA, US",42.36619,-71.06215,69576174, Kacey Musgraves, headline, Social House
9737869, Social House,35810934," Ariana Grande at Bridgestone Arena (June 7, 2019)", Concert,0.422341, 2019-06-07, None,3640349, Capital One Arena, Capital One Arena, US, 38.89801-77.021," Boston, MA, US",42.36619,-71.06215,69576124, Jaden Smith, headline, Social House
4971683, Ariana Grande,35810939," Ariana Grande at State Farm Arena (June 8, 2019)", Concert,0.422341, 2019-06-08, None,3640349, Capital One Arena, Capital One Arena, US, 38.89801-77.021," Boston, MA, US",42.36619,-71.06215,69575779, Blood Orange, headline, Ariana Grande
4971683, Ariana Grande,35810949," Ariana Grande at Spectrum Center (June 10, 2019)", Concert,0.422341, 2019-06-10, None,3640349, Capital One Arena, Capital One Arena, US, 38.89801-77.021," Boston, MA, US",42.36619,-71.06215,69576169, Juice WRLD, headline, Ariana Grande
4971683, Ariana Grande,35810959," Ariana Grande at PPG Paints Arena (June 12, 2019)", Concert,0.422341, 2019-06-12, None,3640349, Capital One Arena, Capital One Arena, US, 38.89801-77.021," Boston, MA, US",42.36619,-71.06215,69576379, RÃœFÃœS DU SOL, headline, Ariana Grande
4971683, Ariana Grande,35810964," Ariana Grande at Barclays Center (June 14, 2019)", Concert,0.422341, 2019-06-14, None,1079871, Wells Fargo Center, Wells Fargo Center, US, 39.90427-75.17133," Boston, MA, US",42.36619,-71.06215,69575754, Bazzi, headline, Ariana Grande
4971683, Ariana Grande,36789584," Ariana Grande, Normani, and Social House at Barclays Center (June 15, 2019)", Concert,0.420106, 2019-06-15, None,1079871, Wells Fargo Center, Wells Fargo Center, US, 39.90427-75.17133," Boston, MA, US",42.36619,-71.06215,69576019, Gorgon City, headline, Ariana Grande
5352228, Kesha,37006469," Kesha at Appalachian State University (March 29, 2019)", Concert,0.391809, 2019-03-29, None,57779, Appalachian State University, Appalachian State University, US, 36.26308-81.59953," Boone, NC, US",36.26308,-81.59953,70401359, Kesha, headline, Kesha
5352228, Kesha,37414104," Kesha at River Spirit Casino (April 26, 2019)", Concert,0.392162, 2019-04-26, None,57779, Appalachian State University, Appalachian State University, US, 36.26308-81.59953," Boone, NC, US",36.26308,-81.59953,71108559, Kesha, headline, Kesha
5427893, Little Mix,37098564," Little Mix at Wiener Stadthalle - Halle D (September 19, 2019)", Concert,0.170733, 2019-09-19, None,771576, Wiener Stadthalle - Halle D, Wiener Stadthalle - Halle D, Austria, 48.2020116.33155," Vienna, Austria",48.20201,16.33155,70557964, Little Mix, headline, Little Mix
5427893, Little Mix,37098574," Little Mix at Porsche Arena (September 21, 2019)", Concert,0.170733, 2019-09-21, None,771576, Wiener Stadthalle - Halle D, Wiener Stadthalle - Halle D, Austria, 48.2020116.33155," Vienna, Austria",48.20201,16.33155,70557974, Little Mix, headline, Little Mix
5427893, Little Mix,37098569," Little Mix at Lanxess Arena (September 23, 2019)", Concert,0.170733, 2019-09-23, None,771576, Wiener Stadthalle - Halle D, Wiener Stadthalle - Halle D, Austria, 48.2020116.33155," Vienna, Austria",48.20201,16.33155,70557969, Little Mix, headline, Little Mix
5427893, Little Mix,37017609," Little Mix at Ziggo Dome (September 25, 2019)", Concert,0.173513, 2019-09-25, None,771576, Wiener Stadthalle - Halle D, Wiener Stadthalle - Halle D, Austria, 48.2020116.33155," Vienna, Austria",48.20201,16.33155,70418549, Little Mix, headline, Little Mix
5427893, Little Mix,37302444," Little Mix at Sportpaleis (September 27, 2019)", Concert,0.172526, 2019-09-27, None,771576, Wiener Stadthalle - Halle D, Wiener Stadthalle - Halle D, Austria, 48.2020116.33155," Vienna, Austria",48.20201,16.33155,70914744, Little Mix, headline, Little Mix
5427893, Little Mix,36132004," Little Mix at Teca Aberdeen (October 4, 2019) (CANCELLED) ", Concert,0.172526, 2019-10-04, None,771576, Wiener Stadthalle - Halle D, Wiener Stadthalle - Halle D, Austria, 48.2020116.33155," Vienna, Austria",48.20201,16.33155,68956094, Little Mix, headline, Little Mix
5427893, Little Mix,36138929," Little Mix at SSE Arena (October 6, 2019)", Concert,0.173513, 2019-10-06, None,771576, Wiener Stadthalle - Halle D, Wiener Stadthalle - Halle D, Austria, 48.2020116.33155," Vienna, Austria",48.20201,16.33155,68967404, Little Mix, headline, Little Mix
5427893, Little Mix,36139044," Little Mix at SSE Arena (October 7, 2019)", Concert,0.173513, 2019-10-07, None,771576, Wiener Stadthalle - Halle D, Wiener Stadthalle - Halle D, Austria, 48.2020116.33155," Vienna, Austria",48.20201,16.33155,68967619, Little Mix, headline, Little Mix
5427893, Little Mix,36200434," Little Mix at 3Arena (October 8, 2019)", Concert,0.173513, 2019-10-08, None,771576, Wiener Stadthalle - Halle D, Wiener Stadthalle - Halle D, Austria, 48.2020116.33155," Vienna, Austria",48.20201,16.33155,69067324, Little Mix, headline, Little Mix
5427893, Little Mix,35738429," Little Mix at 3Arena (October 10, 2019)", Concert,0.173513, 2019-10-10, None,771576, Wiener Stadthalle - Halle D, Wiener Stadthalle - Halle D, Austria, 48.2020116.33155," Vienna, Austria",48.20201,16.33155,68312194, Little Mix, headline, Little Mix
5427893, Little Mix,35984434," Little Mix at 3Arena (October 11, 2019)", Concert,0.173513, 2019-10-11, None,771576, Wiener Stadthalle - Halle D, Wiener Stadthalle - Halle D, Austria, 48.2020116.33155," Vienna, Austria",48.20201,16.33155,68713399, Little Mix, headline, Little Mix
5427893, Little Mix,35748044," Little Mix at SSE Arena (October 13, 2019)", Concert,0.173513, 2019-10-13, None,771576, Wiener Stadthalle - Halle D, Wiener Stadthalle - Halle D, Austria, 48.2020116.33155," Vienna, Austria",48.20201,16.33155,68327719, Little Mix, headline, Little Mix
5427893, Little Mix,35825419," Little Mix at SSE Arena (October 14, 2019)", Concert,0.173513, 2019-10-14, None,1091261, Porsche Arena, Porsche Arena, Germany, 48.793669.22705," Vienna, Austria",48.20201,16.33155,68454014, Little Mix, headline, Little Mix
5427893, Little Mix,35808299," Little Mix at The SSE Hydro (October 17, 2019)", Concert,0.173513, 2019-10-17, None,1091261, Porsche Arena, Porsche Arena, Germany, 48.793669.22705," Vienna, Austria",48.20201,16.33155,68426824, Little Mix, headline, Little Mix
5427893, Little Mix,35729189," Little Mix at The SSE Hydro (October 18, 2019)", Concert,0.173513, 2019-10-18, None,1091261, Porsche Arena, Porsche Arena, Germany, 48.793669.22705," Vienna, Austria",48.20201,16.33155,68296294, Little Mix, headline, Little Mix
5427893, Little Mix,35729229," Little Mix at The SSE Hydro (October 19, 2019)", Concert,0.173513, 2019-10-19, None,1091261, Porsche Arena, Porsche Arena, Germany, 48.793669.22705," Vienna, Austria",48.20201,16.33155,68296339, Little Mix, headline, Little Mix
5427893, Little Mix,35732899," Little Mix at M&s Bank Arena (October 21, 2019)", Concert,0.168757, 2019-10-21, None,1091261, Porsche Arena, Porsche Arena, Germany, 48.793669.22705," Vienna, Austria",48.20201,16.33155,68303244, Little Mix, headline, Little Mix
5427893, Little Mix,35729224," Little Mix at M&s Bank Arena (October 22, 2019)", Concert,0.168757, 2019-10-22, None,1091261, Porsche Arena, Porsche Arena, Germany, 48.793669.22705," Vienna, Austria",48.20201,16.33155,68296334, Little Mix, headline, Little Mix
5427893, Little Mix,35821004," Little Mix at Utilita Arena (October 24, 2019)", Concert,0.173411, 2019-10-24, None,1091261, Porsche Arena, Porsche Arena, Germany, 48.793669.22705," Vienna, Austria",48.20201,16.33155,68446589, Little Mix, headline, Little Mix
5427893, Little Mix,35729274," Little Mix at Utilita Arena (October 25, 2019)", Concert,0.169765, 2019-10-25, None,1091261, Porsche Arena, Porsche Arena, Germany, 48.793669.22705," Vienna, Austria",48.20201,16.33155,68296429, Little Mix, headline, Little Mix
5427893, Little Mix,35729289," Little Mix at Utilita Arena (October 26, 2019)", Concert,0.169765, 2019-10-26, None,1091261, Porsche Arena, Porsche Arena, Germany, 48.793669.22705," Vienna, Austria",48.20201,16.33155,68296444, Little Mix, headline, Little Mix
5427893, Little Mix,35729209," Little Mix at FlyDSA Arena (October 28, 2019)", Concert,0.161479, 2019-10-28, None,1091261, Porsche Arena, Porsche Arena, Germany, 48.793669.22705," Vienna, Austria",48.20201,16.33155,68296319, Little Mix, headline, Little Mix
5427893, Little Mix,35729239," Little Mix at FlyDSA Arena (October 29, 2019)", Concert,0.161479, 2019-10-29, None,1091261, Porsche Arena, Porsche Arena, Germany, 48.793669.22705," Vienna, Austria",48.20201,16.33155,68296359, Little Mix, headline, Little Mix
5427893, Little Mix,35729219," Little Mix at The O2 Arena (October 31, 2019)", Concert,0.173513, 2019-10-31, None,1091261, Porsche Arena, Porsche Arena, Germany, 48.793669.22705," Vienna, Austria",48.20201,16.33155,68296329, Little Mix, headline, Little Mix
5427893, Little Mix,35729154," Little Mix at The O2 Arena (November 1, 2019)", Concert,0.173513, 2019-11-01, None,31006, Lanxess Arena, Lanxess Arena, Germany, 50.938966.98413," Vienna, Austria",48.20201,16.33155,68296249, Little Mix, headline, Little Mix
5427893, Little Mix,35729254," Little Mix at The O2 Arena (November 2, 2019)", Concert,0.173513, 2019-11-02, None,31006, Lanxess Arena, Lanxess Arena, Germany, 50.938966.98413," Vienna, Austria",48.20201,16.33155,68296399, Little Mix, headline, Little Mix
5427893, Little Mix,35808349," Little Mix at Resorts World Arena (November 7, 2019)", Concert,0.173411, 2019-11-07, None,31006, Lanxess Arena, Lanxess Arena, Germany, 50.938966.98413," Vienna, Austria",48.20201,16.33155,68426899, Little Mix, headline, Little Mix
5427893, Little Mix,35729249," Little Mix at Resorts World Arena (November 8, 2019)", Concert,0.17183, 2019-11-08, None,31006, Lanxess Arena, Lanxess Arena, Germany, 50.938966.98413," Vienna, Austria",48.20201,16.33155,68296389, Little Mix, headline, Little Mix
5427893, Little Mix,35729304," Little Mix at Resorts World Arena (November 9, 2019)", Concert,0.165794, 2019-11-09, None,31006, Lanxess Arena, Lanxess Arena, Germany, 50.938966.98413," Vienna, Austria",48.20201,16.33155,68296464, Little Mix, headline, Little Mix
5427893, Little Mix,35729199," Little Mix at Motorpoint Arena Nottingham (November 11, 2019)", Concert,0.161479, 2019-11-11, None,31006, Lanxess Arena, Lanxess Arena, Germany, 50.938966.98413," Vienna, Austria",48.20201,16.33155,68296304, Little Mix, headline, Little Mix
5427893, Little Mix,35729164," Little Mix at Motorpoint Arena Nottingham (November 12, 2019)", Concert,0.161479, 2019-11-12, None,31006, Lanxess Arena, Lanxess Arena, Germany, 50.938966.98413," Vienna, Austria",48.20201,16.33155,68296264, Little Mix, headline, Little Mix
5427893, Little Mix,35821144," Little Mix at Manchester Arena (November 14, 2019)", Concert,0.173411, 2019-11-14, None,31006, Lanxess Arena, Lanxess Arena, Germany, 50.938966.98413," Vienna, Austria",48.20201,16.33155,68446774, Little Mix, headline, Little Mix
5427893, Little Mix,36431554," Little Mix at Manchester Arena (November 14, 2019)", Concert,0.166258, 2019-11-14, None,31006, Lanxess Arena, Lanxess Arena, Germany, 50.938966.98413," Vienna, Austria",48.20201,16.33155,69448604, Little Mix, headline, Little Mix
5427893, Little Mix,35729149," Little Mix at Manchester Arena (November 15, 2019)", Concert,0.16137, 2019-11-15, None,31006, Lanxess Arena, Lanxess Arena, Germany, 50.938966.98413," Vienna, Austria",48.20201,16.33155,68296244, Little Mix, headline, Little Mix
5427893, Little Mix,36431654," Little Mix at Manchester Arena (November 15, 2019)", Concert,0.166258, 2019-11-15, None,31006, Lanxess Arena, Lanxess Arena, Germany, 50.938966.98413," Vienna, Austria",48.20201,16.33155,69448739, Little Mix, headline, Little Mix
5427893, Little Mix,35729169," Little Mix at Manchester Arena (November 16, 2019)", Concert,0.16137, 2019-11-16, None,31006, Lanxess Arena, Lanxess Arena, Germany, 50.938966.98413," Vienna, Austria",48.20201,16.33155,68296269, Little Mix, headline, Little Mix
5427893, Little Mix,36431704," Little Mix at Manchester Arena (November 16, 2019)", Concert,0.166258, 2019-11-16, None,1603193, Ziggo Dome, Ziggo Dome, Netherlands, 52.313454.93719," Stuttgart, Germany",48.79366,9.22705,69448819, Little Mix, headline, Little Mix
5427893, Little Mix,35729109," Little Mix at First Direct Arena (November 18, 2019)", Concert,0.16137, 2019-11-18, None,1603193, Ziggo Dome, Ziggo Dome, Netherlands, 52.313454.93719," Stuttgart, Germany",48.79366,9.22705,68296179, Little Mix, headline, Little Mix
5427893, Little Mix,35733369," Little Mix at First Direct Arena (November 19, 2019)", Concert,0.161479, 2019-11-19, None,1603193, Ziggo Dome, Ziggo Dome, Netherlands, 52.313454.93719," Stuttgart, Germany",48.79366,9.22705,68303964, Little Mix, headline, Little Mix
5427893, Little Mix,35808379," Little Mix at The O2 Arena (November 21, 2019)", Concert,0.173513, 2019-11-21, None,1603193, Ziggo Dome, Ziggo Dome, Netherlands, 52.313454.93719," Stuttgart, Germany",48.79366,9.22705,68426944, Little Mix, headline, Little Mix
5427893, Little Mix,36253639," Little Mix at The O2 Arena (November 22, 2019)", Concert,0.173513, 2019-11-22, None,1603193, Ziggo Dome, Ziggo Dome, Netherlands, 52.313454.93719," Stuttgart, Germany",48.79366,9.22705,69152529, Little Mix, headline, Little Mix
65557, Lil Wayne,36791804, The Governors Ball Music Festival 2019, Festival,0.674141, 2019-05-31, None,3788999, Randall's Island Park, Randall's Island Park, US, 40.79407-73.92716," New York, NY, US",40.79407,-73.92716,70034149, Lil Wayne, headline, Lil Wayne
7561184, Tove Lo,37006669, Mighty Hoopla 2019, Festival,0.239152, 2019-06-08, None,64004, Brockwell Park, Brockwell Park, UK, 51.45426-0.10824," Herne Hill, UK",51.45426,-0.10824,70401829, Tove Lo, headline, Tove Lo
7561184, Tove Lo,37087044," Tove Lo at Lucerna Music Bar (August 6, 2019)", Concert,0.237679, 2019-08-06, None,64004, Brockwell Park, Brockwell Park, UK, 51.45426-0.10824," Herne Hill, UK",51.45426,-0.10824,70741904, Chaka Khan, headline, Tove Lo
7561184, Tove Lo,36292004, Grape Festival 2019, Festival,0.290524, 2019-08-09, None,64004, Brockwell Park, Brockwell Park, UK, 51.45426-0.10824," Herne Hill, UK",51.45426,-0.10824,70401804, All Saints, headline, Tove Lo
8008073, Shawn Mendes,35220704," Shawn Mendes at Ziggo Dome (March 7, 2019)", Concert,0.259084, 2019-03-07, None,1603193, Ziggo Dome, Ziggo Dome, Netherlands, 52.313454.93719," Amsterdam, Netherlands",52.31345,4.93719,67440909, Shawn Mendes, headline, Shawn Mendes
8008073, Shawn Mendes,33980609," Shawn Mendes at Ziggo Dome (March 8, 2019)", Concert,0.259771, 2019-03-08, None,1603193, Ziggo Dome, Ziggo Dome, Netherlands, 52.313454.93719," Amsterdam, Netherlands",52.31345,4.93719,65280969, Shawn Mendes, headline, Shawn Mendes
8008073, Shawn Mendes,33851509," Shawn Mendes at Antwerps Sportpaleis (March 10, 2019)", Concert,0.259084, 2019-03-10, None,1603193, Ziggo Dome, Ziggo Dome, Netherlands, 52.313454.93719," Amsterdam, Netherlands",52.31345,4.93719,65046419, Shawn Mendes, headline, Shawn Mendes
8008073, Shawn Mendes,33851534," Shawn Mendes at Mercedes-Benz Arena (March 11, 2019)", Concert,0.259084, 2019-03-11, None,1603193, Ziggo Dome, Ziggo Dome, Netherlands, 52.313454.93719," Amsterdam, Netherlands",52.31345,4.93719,65046449, Shawn Mendes, headline, Shawn Mendes
8008073, Shawn Mendes,33851594," Shawn Mendes at Oslo Spektrum (March 13, 2019)", Concert,0.259084, 2019-03-13, None,1603193, Ziggo Dome, Ziggo Dome, Netherlands, 52.313454.93719," Amsterdam, Netherlands",52.31345,4.93719,65046529, Shawn Mendes, headline, Shawn Mendes
8008073, Shawn Mendes,33852909," Shawn Mendes at Ericsson Globe Arena (March 15, 2019)", Concert,0.211668, 2019-03-15, None,1603193, Ziggo Dome, Ziggo Dome, Netherlands, 52.313454.93719," Amsterdam, Netherlands",52.31345,4.93719,65049144, Shawn Mendes, headline, Shawn Mendes
8008073, Shawn Mendes,33852939," Shawn Mendes at Royal Arena (March 16, 2019)", Concert,0.259771, 2019-03-16, None,1603193, Ziggo Dome, Ziggo Dome, Netherlands, 52.313454.93719," Amsterdam, Netherlands",52.31345,4.93719,65049204, Shawn Mendes, headline, Shawn Mendes
8008073, Shawn Mendes,33852944," Shawn Mendes at Lanxess Arena (March 18, 2019)", Concert,0.259084, 2019-03-18, None,1603193, Ziggo Dome, Ziggo Dome, Netherlands, 52.313454.93719," Amsterdam, Netherlands",52.31345,4.93719,65049209, Shawn Mendes, headline, Shawn Mendes
8008073, Shawn Mendes,33852954," Shawn Mendes at AccorHotels Arena POPB (March 19, 2019)", Concert,0.259556, 2019-03-19, None,1603193, Ziggo Dome, Ziggo Dome, Netherlands, 52.313454.93719," Amsterdam, Netherlands",52.31345,4.93719,65049234, Shawn Mendes, headline, Shawn Mendes
8008073, Shawn Mendes,33852989," Shawn Mendes at Olympiahalle (March 21, 2019)", Concert,0.259084, 2019-03-21, None,1603193, Ziggo Dome, Ziggo Dome, Netherlands, 52.313454.93719," Amsterdam, Netherlands",52.31345,4.93719,65049339, Shawn Mendes, headline, Shawn Mendes
8008073, Shawn Mendes,33853004," Shawn Mendes at Unipol Arena (March 23, 2019)", Concert,0.259084, 2019-03-23, None,1603193, Ziggo Dome, Ziggo Dome, Netherlands, 52.313454.93719," Amsterdam, Netherlands",52.31345,4.93719,65049399, Shawn Mendes, headline, Shawn Mendes
8008073, Shawn Mendes,33853024," Shawn Mendes at Pala Alpitour (March 24, 2019)", Concert,0.259084, 2019-03-24, None,1603193, Ziggo Dome, Ziggo Dome, Netherlands, 52.313454.93719," Amsterdam, Netherlands",52.31345,4.93719,65049419, Shawn Mendes, headline, Shawn Mendes
8008073, Shawn Mendes,33853029," Shawn Mendes at Palau Sant Jordi (March 26, 2019)", Concert,0.259771, 2019-03-26, None,1603193, Ziggo Dome, Ziggo Dome, Netherlands, 52.313454.93719," Amsterdam, Netherlands",52.31345,4.93719,65049424, Shawn Mendes, headline, Shawn Mendes
8008073, Shawn Mendes,33853054," Shawn Mendes at Altice Arena (March 28, 2019)", Concert,0.259084, 2019-03-28, None,1603193, Ziggo Dome, Ziggo Dome, Netherlands, 52.313454.93719," Amsterdam, Netherlands",52.31345,4.93719,65049459, Shawn Mendes, headline, Shawn Mendes
8008073, Shawn Mendes,33853084," Shawn Mendes at Sud de France Arena (March 30, 2019)", Concert,0.259084, 2019-03-30, None,1603193, Ziggo Dome, Ziggo Dome, Netherlands, 52.313454.93719," Amsterdam, Netherlands",52.31345,4.93719,65049534, Shawn Mendes, headline, Shawn Mendes
8008073, Shawn Mendes,33853094," Shawn Mendes at Hallenstadion (March 31, 2019)", Concert,0.232911, 2019-03-31, None,1603193, Ziggo Dome, Ziggo Dome, Netherlands, 52.313454.93719," Amsterdam, Netherlands",52.31345,4.93719,65049544, Shawn Mendes, headline, Shawn Mendes
8008073, Shawn Mendes,33875149," Shawn Mendes at Hallenstadion (March 31, 2019)", Concert,0.232911, 2019-03-31, None,1603193, Ziggo Dome, Ziggo Dome, Netherlands, 52.313454.93719," Amsterdam, Netherlands",52.31345,4.93719,65088934, Shawn Mendes, headline, Shawn Mendes
8008073, Shawn Mendes,33853099," Shawn Mendes at Tauron Arena Krakow (April 2, 2019)", Concert,0.211668, 2019-04-02, None,1603193, Ziggo Dome, Ziggo Dome, Netherlands, 52.313454.93719," Amsterdam, Netherlands",52.31345,4.93719,65049549, Shawn Mendes, headline, Shawn Mendes
8008073, Shawn Mendes,33853114," Shawn Mendes at Wiener Stadthalle (April 3, 2019)", Concert,0.211668, 2019-04-03, None,1603193, Ziggo Dome, Ziggo Dome, Netherlands, 52.313454.93719," Amsterdam, Netherlands",52.31345,4.93719,65049574, Shawn Mendes, headline, Shawn Mendes
8008073, Shawn Mendes,33853134," Shawn Mendes at The SSE Hydro (April 6, 2019)", Concert,0.211668, 2019-04-06, None,1603193, Ziggo Dome, Ziggo Dome, Netherlands, 52.313454.93719," Amsterdam, Netherlands",52.31345,4.93719,65049604, Shawn Mendes, headline, Shawn Mendes
8008073, Shawn Mendes,33910799," Shawn Mendes with Alessia Cara at The SSE Hydro (April 6, 2019)", Concert,0.259771, 2019-04-06, None,1603193, Ziggo Dome, Ziggo Dome, Netherlands, 52.313454.93719," Amsterdam, Netherlands",52.31345,4.93719,65153739, Shawn Mendes, headline, Shawn Mendes
8008073, Shawn Mendes,33853149," Shawn Mendes at Manchester Arena (April 7, 2019)", Concert,0.211668, 2019-04-07, None,1603193, Ziggo Dome, Ziggo Dome, Netherlands, 52.313454.93719," Amsterdam, Netherlands",52.31345,4.93719,70971199, Alessia Cara, support, Shawn Mendes
8008073, Shawn Mendes,33935464," Shawn Mendes with Alessia Cara at Manchester Arena (April 7, 2019)", Concert,0.258284, 2019-04-07, None,1603193, Ziggo Dome, Ziggo Dome, Netherlands, 52.313454.93719," Amsterdam, Netherlands",52.31345,4.93719,65049624, Shawn Mendes, headline, Shawn Mendes
8008073, Shawn Mendes,33853189," Shawn Mendes at Arena Birmingham (April 9, 2019)", Concert,0.211668, 2019-04-09, None,1603193, Ziggo Dome, Ziggo Dome, Netherlands, 52.313454.93719," Amsterdam, Netherlands",52.31345,4.93719,65199264, Shawn Mendes, headline, Shawn Mendes
8008073, Shawn Mendes,33853214," Shawn Mendes at First Direct Arena (April 10, 2019)", Concert,0.211668, 2019-04-10, None,3724069, Antwerps Sportpaleis, Antwerps Sportpaleis, Belgium, NoneNone," Amsterdam, Netherlands",52.31345,4.93719,70971204, Alessia Cara, support, Shawn Mendes
8008073, Shawn Mendes,33910359," Shawn Mendes at First Direct Arena (April 10, 2019)", Concert,0.211668, 2019-04-10, None,3724069, Antwerps Sportpaleis, Antwerps Sportpaleis, Belgium, NoneNone," Amsterdam, Netherlands",52.31345,4.93719,65049684, Shawn Mendes, headline, Shawn Mendes
8008073, Shawn Mendes,33935469," Shawn Mendes with Alessia Cara at First Direct Arena (April 10, 2019)", Concert,0.258284, 2019-04-10, None,3724069, Antwerps Sportpaleis, Antwerps Sportpaleis, Belgium, NoneNone," Amsterdam, Netherlands",52.31345,4.93719,65049714, Shawn Mendes, headline, Shawn Mendes
8008073, Shawn Mendes,33853244," Shawn Mendes at 3Arena (April 13, 2019)", Concert,0.259771, 2019-04-13, None,3724069, Antwerps Sportpaleis, Antwerps Sportpaleis, Belgium, NoneNone," Amsterdam, Netherlands",52.31345,4.93719,65152799, Shawn Mendes, headline, Shawn Mendes
8008073, Shawn Mendes,34006999," Shawn Mendes at 3Arena (April 14, 2019)", Concert,0.259771, 2019-04-14, None,3724069, Antwerps Sportpaleis, Antwerps Sportpaleis, Belgium, NoneNone," Amsterdam, Netherlands",52.31345,4.93719,65199269, Shawn Mendes, headline, Shawn Mendes
8008073, Shawn Mendes,33853264," Shawn Mendes at The O2 Arena (April 16, 2019)", Concert,0.211668, 2019-04-16, None,3724069, Antwerps Sportpaleis, Antwerps Sportpaleis, Belgium, NoneNone," Amsterdam, Netherlands",52.31345,4.93719,70971209, Alessia Cara, support, Shawn Mendes
8008073, Shawn Mendes,33853319," Shawn Mendes at The O2 Arena (April 17, 2019)", Concert,0.211668, 2019-04-17, None,3724069, Antwerps Sportpaleis, Antwerps Sportpaleis, Belgium, NoneNone," Amsterdam, Netherlands",52.31345,4.93719,65049759, Shawn Mendes, headline, Shawn Mendes
8008073, Shawn Mendes,34218814," Shawn Mendes at The O2 Arena (April 19, 2019)", Concert,0.259556, 2019-04-19, None,3724069, Antwerps Sportpaleis, Antwerps Sportpaleis, Belgium, NoneNone," Amsterdam, Netherlands",52.31345,4.93719,65331359, Shawn Mendes, headline, Shawn Mendes
8008073, Shawn Mendes,33853359," Shawn Mendes with Alessia Cara at The Moda Center (June 12, 2019)", Concert,0.259556, 2019-06-12, None,3724069, Antwerps Sportpaleis, Antwerps Sportpaleis, Belgium, NoneNone," Amsterdam, Netherlands",52.31345,4.93719,65049779, Shawn Mendes, headline, Shawn Mendes
8008073, Shawn Mendes,33853544," Shawn Mendes at Rogers Arena (June 14, 2019)", Concert,0.259556, 2019-06-14, None,3724069, Antwerps Sportpaleis, Antwerps Sportpaleis, Belgium, NoneNone," Amsterdam, Netherlands",52.31345,4.93719,65049844, Shawn Mendes, headline, Shawn Mendes
8008073, Shawn Mendes,33853564," Shawn Mendes at Rogers Place (June 16, 2019)", Concert,0.259556, 2019-06-16, None,3724069, Antwerps Sportpaleis, Antwerps Sportpaleis, Belgium, NoneNone," Amsterdam, Netherlands",52.31345,4.93719,65694069, Shawn Mendes, headline, Shawn Mendes
8008073, Shawn Mendes,37297519," Shawn Mendes at SaskTel Centre (June 17, 2019)", Concert,0.259556, 2019-06-17, None,3724069, Antwerps Sportpaleis, Antwerps Sportpaleis, Belgium, NoneNone," Amsterdam, Netherlands",52.31345,4.93719,65049884, Shawn Mendes, headline, Shawn Mendes
8008073, Shawn Mendes,33853579," Shawn Mendes at Bell MTS Place (formerly MTS Centre) (June 19, 2019)", Concert,0.259556, 2019-06-19, None,31898, Mercedes-Benz Arena, Mercedes-Benz Arena, Germany, 52.5059613.43874," Amsterdam, Netherlands",52.31345,4.93719,70936019, Alessia Cara, support, Shawn Mendes
8008073, Shawn Mendes,33853594," Shawn Mendes with Alessia Cara at Xcel Energy Center (June 21, 2019)", Concert,0.259556, 2019-06-21, None,31898, Mercedes-Benz Arena, Mercedes-Benz Arena, Germany, 52.5059613.43874," Amsterdam, Netherlands",52.31345,4.93719,65050219, Shawn Mendes, headline, Shawn Mendes
8008073, Shawn Mendes,33853639," Shawn Mendes at Wells Fargo Arena (June 22, 2019)", Concert,0.211668, 2019-06-22, None,31898, Mercedes-Benz Arena, Mercedes-Benz Arena, Germany, 52.5059613.43874," Amsterdam, Netherlands",52.31345,4.93719,65050249, Shawn Mendes, headline, Shawn Mendes
8008073, Shawn Mendes,37297609," Shawn Mendes at Van Andel Arena (June 24, 2019)", Concert,0.259556, 2019-06-24, None,31898, Mercedes-Benz Arena, Mercedes-Benz Arena, Germany, 52.5059613.43874," Amsterdam, Netherlands",52.31345,4.93719,70905604, Shawn Mendes, headline, Shawn Mendes
8008073, Shawn Mendes,37297869," Shawn Mendes at Fiserv Forum (June 25, 2019)", Concert,0.259556, 2019-06-25, None,31898, Mercedes-Benz Arena, Mercedes-Benz Arena, Germany, 52.5059613.43874," Amsterdam, Netherlands",52.31345,4.93719,65050264, Shawn Mendes, headline, Shawn Mendes
8008073, Shawn Mendes,33853699," Shawn Mendes at Allstate Arena (June 27, 2019)", Concert,0.259556, 2019-06-27, None,31898, Mercedes-Benz Arena, Mercedes-Benz Arena, Germany, 52.5059613.43874," Amsterdam, Netherlands",52.31345,4.93719,65050279, Shawn Mendes, headline, Shawn Mendes
8008073, Shawn Mendes,37297644," Shawn Mendes at Allstate Arena (June 28, 2019)", Concert,0.259556, 2019-06-28, None,31898, Mercedes-Benz Arena, Mercedes-Benz Arena, Germany, 52.5059613.43874," Amsterdam, Netherlands",52.31345,4.93719,70937519, Alessia Cara, support, Shawn Mendes
8008073, Shawn Mendes,33853709," Shawn Mendes at Enterprise Center (June 30, 2019)", Concert,0.259556, 2019-06-30, None,31898, Mercedes-Benz Arena, Mercedes-Benz Arena, Germany, 52.5059613.43874," Amsterdam, Netherlands",52.31345,4.93719,65050344, Shawn Mendes, headline, Shawn Mendes
8008073, Shawn Mendes,33853734," Shawn Mendes at Pepsi Center (July 2, 2019)", Concert,0.211668, 2019-07-02, None,31898, Mercedes-Benz Arena, Mercedes-Benz Arena, Germany, 52.5059613.43874," Amsterdam, Netherlands",52.31345,4.93719,70905784, Shawn Mendes, headline, Shawn Mendes
8008073, Shawn Mendes,33861654," Shawn Mendes at Staples Center (July 5, 2019)", Concert,0.211668, 2019-07-05, None,31898, Mercedes-Benz Arena, Mercedes-Benz Arena, Germany, 52.5059613.43874," Amsterdam, Netherlands",52.31345,4.93719,70906259, Shawn Mendes, headline, Shawn Mendes
8008073, Shawn Mendes,37297659," Shawn Mendes at Staples Center (July 6, 2019)", Concert,0.257999, 2019-07-06, None,31898, Mercedes-Benz Arena, Mercedes-Benz Arena, Germany, 52.5059613.43874," Amsterdam, Netherlands",52.31345,4.93719,65050409, Shawn Mendes, headline, Shawn Mendes
8008073, Shawn Mendes,33861674," Shawn Mendes at Valley View Casino Center (July 8, 2019)", Concert,0.211668, 2019-07-08, None,31898, Mercedes-Benz Arena, Mercedes-Benz Arena, Germany, 52.5059613.43874," Amsterdam, Netherlands",52.31345,4.93719,70905839, Shawn Mendes, headline, Shawn Mendes
8008073, Shawn Mendes,33911749," Shawn Mendes with Alessia Cara at Pechanga Arena San Diego (July 8, 2019)", Concert,0.257999, 2019-07-08, None,34267, Oslo Spektrum, Oslo Spektrum, Norway, 59.912610.75479," Amsterdam, Netherlands",52.31345,4.93719,65050429, Shawn Mendes, headline, Shawn Mendes
8008073, Shawn Mendes,33861684," Shawn Mendes at Gila River Arena (July 9, 2019)", Concert,0.259556, 2019-07-09, None,34267, Oslo Spektrum, Oslo Spektrum, Norway, 59.912610.75479," Amsterdam, Netherlands",52.31345,4.93719,65050464, Shawn Mendes, headline, Shawn Mendes
8324968, Meghan Trainor,37316369," Meghan Trainor and MAX with Jake Miller at The Anthem (April 5, 2019)", Concert,0.226765, 2019-04-05, None,3552789, The Anthem, The Anthem, US, 38.88009-77.02611," Washington, DC, US",38.88009,-77.02611,70938204, Meghan Trainor, headline, Meghan Trainor
8504398, Camila Cabello,36520929," Camila Cabello at Rodeo Houston (March 5, 2019)", Concert,0.124221, 2019-03-05, None,891581, Rodeo Houston, Rodeo Houston, US, 29.68716-95.40546," Houston, TX, US",29.68716,-95.40546,69600649, Camila Cabello, headline, Camila Cabello
8008073, Shawn Mendes,33910799," Shawn Mendes with Alessia Cara at The SSE Hydro (April 6, 2019)", Concert,0.259771, 2019-04-06, None,2443719, The SSE Hydro, The SSE Hydro, UK, 55.86086-4.28813," Glasgow, UK",55.86086,-4.28813,65153739, Shawn Mendes, headline, Shawn Mendes
8008073, Shawn Mendes,33935464," Shawn Mendes with Alessia Cara at Manchester Arena (April 7, 2019)", Concert,0.258284, 2019-04-07, None,2443719, The SSE Hydro, The SSE Hydro, UK, 55.86086-4.28813," Glasgow, UK",55.86086,-4.28813,70971199, Alessia Cara, support, Shawn Mendes
8008073, Shawn Mendes,33935469," Shawn Mendes with Alessia Cara at First Direct Arena (April 10, 2019)", Concert,0.258284, 2019-04-10, None,2443719, The SSE Hydro, The SSE Hydro, UK, 55.86086-4.28813," Glasgow, UK",55.86086,-4.28813,65199264, Shawn Mendes, headline, Shawn Mendes
8008073, Shawn Mendes,37007474," Alessia Cara and Martyn Joseph at National Arts Centre (May 11, 2019)", Concert,0.166407, 2019-05-11, None,2443719, The SSE Hydro, The SSE Hydro, UK, 55.86086-4.28813," Glasgow, UK",55.86086,-4.28813,70971204, Alessia Cara, support, Shawn Mendes
8008073, Shawn Mendes,37007479," Alessia Cara at FirstOntario Concert Hall (May 12, 2019)", Concert,0.162145, 2019-05-12, None,2443719, The SSE Hydro, The SSE Hydro, UK, 55.86086-4.28813," Glasgow, UK",55.86086,-4.28813,65199269, Shawn Mendes, headline, Shawn Mendes
8568579, Alessia Cara,37013909," Alessia Cara at Centre in the Square (May 13, 2019)", Concert,0.162145, 2019-05-13, None,2443719, The SSE Hydro, The SSE Hydro, UK, 55.86086-4.28813," Glasgow, UK",55.86086,-4.28813,70971209, Alessia Cara, support, Alessia Cara
8568579, Alessia Cara,37007654," Alessia Cara at The Colosseum, Caesar's Windsor (May 15, 2019)", Concert,0.162145, 2019-05-15, None,2443719, The SSE Hydro, The SSE Hydro, UK, 55.86086-4.28813," Glasgow, UK",55.86086,-4.28813,70403309, Alessia Cara, headline, Alessia Cara
8568579, Alessia Cara,37007584," Alessia Cara at Sony Centre for the Performing Arts (May 17, 2019)", Concert,0.162145, 2019-05-17, None,2443719, The SSE Hydro, The SSE Hydro, UK, 55.86086-4.28813," Glasgow, UK",55.86086,-4.28813,70784109, Martyn Joseph, headline, Alessia Cara
8568579, Alessia Cara,37007409," Alessia Cara and Ryland James at Burton Cummings Theatre (May 20, 2019)", Concert,0.162308, 2019-05-20, None,2443719, The SSE Hydro, The SSE Hydro, UK, 55.86086-4.28813," Glasgow, UK",55.86086,-4.28813,70403314, Alessia Cara, headline, Alessia Cara
8568579, Alessia Cara,37000284," Alessia Cara at Conexus Arts Centre (May 21, 2019)", Concert,0.166407, 2019-05-21, None,2443719, The SSE Hydro, The SSE Hydro, UK, 55.86086-4.28813," Glasgow, UK",55.86086,-4.28813,70413559, Alessia Cara, headline, Alessia Cara
8008073, Shawn Mendes,37007609," Alessia Cara and Ryland James at Northern Alberta Jubilee Auditorium (May 22, 2019)", Concert,0.162308, 2019-05-22, None,2443719, The SSE Hydro, The SSE Hydro, UK, 55.86086-4.28813," Glasgow, UK",55.86086,-4.28813,70403664, Alessia Cara, headline, Shawn Mendes
8008073, Shawn Mendes,37007449," Alessia Cara at Grey Eagle Event Centre (May 25, 2019)", Concert,0.162145, 2019-05-25, None,2443719, The SSE Hydro, The SSE Hydro, UK, 55.86086-4.28813," Glasgow, UK",55.86086,-4.28813,70403534, Alessia Cara, headline, Shawn Mendes
8008073, Shawn Mendes,37007394," Alessia Cara and Ryland James at Queen Elizabeth Theatre (May 27, 2019)", Concert,0.162308, 2019-05-27, None,17602, Manchester Arena, Manchester Arena, UK, 53.48731-2.24335," Glasgow, UK",55.86086,-4.28813,70403184, Alessia Cara, headline, Shawn Mendes
8008073, Shawn Mendes,37007484," Alessia Cara at Centre in the Square (May 31, 2019)", Concert,0.162145, 2019-05-31, None,17602, Manchester Arena, Manchester Arena, UK, 53.48731-2.24335," Glasgow, UK",55.86086,-4.28813,70435174, Ryland James, headline, Shawn Mendes
8008073, Shawn Mendes,33853359," Shawn Mendes with Alessia Cara at The Moda Center (June 12, 2019)", Concert,0.259556, 2019-06-12, None,17602, Manchester Arena, Manchester Arena, UK, 53.48731-2.24335," Glasgow, UK",55.86086,-4.28813,70389599, Alessia Cara, headline, Shawn Mendes
8568579, Alessia Cara,33853594," Shawn Mendes with Alessia Cara at Xcel Energy Center (June 21, 2019)", Concert,0.259556, 2019-06-21, None,17602, Manchester Arena, Manchester Arena, UK, 53.48731-2.24335," Glasgow, UK",55.86086,-4.28813,70403574, Alessia Cara, headline, Alessia Cara
8568579, Alessia Cara,33911749," Shawn Mendes with Alessia Cara at Pechanga Arena San Diego (July 8, 2019)", Concert,0.257999, 2019-07-08, None,17602, Manchester Arena, Manchester Arena, UK, 53.48731-2.24335," Glasgow, UK",55.86086,-4.28813,70435439, Ryland James, headline, Alessia Cara
8568579, Alessia Cara,34431134," Shawn Mendes and Alessia Cara at American Airlines Center (July 22, 2019)", Concert,0.259556, 2019-07-22, None,17602, Manchester Arena, Manchester Arena, UK, 53.48731-2.24335," Glasgow, UK",55.86086,-4.28813,70403274, Alessia Cara, headline, Alessia Cara
8568579, Alessia Cara,34431124," Shawn Mendes and Alessia Cara at AT&T Center (July 23, 2019)", Concert,0.259556, 2019-07-23, None,17602, Manchester Arena, Manchester Arena, UK, 53.48731-2.24335," Glasgow, UK",55.86086,-4.28813,70403129, Alessia Cara, headline, Alessia Cara
8568579, Alessia Cara,34431139," Shawn Mendes and Alessia Cara at Amalie Arena (July 27, 2019)", Concert,0.259556, 2019-07-27, None,17602, Manchester Arena, Manchester Arena, UK, 53.48731-2.24335," Glasgow, UK",55.86086,-4.28813,70435149, Ryland James, headline, Alessia Cara
8008073, Shawn Mendes,34431144," Shawn Mendes and Alessia Cara at AmericanAirlines Arena (July 28, 2019)", Concert,0.259556, 2019-07-28, None,17602, Manchester Arena, Manchester Arena, UK, 53.48731-2.24335," Glasgow, UK",55.86086,-4.28813,70403319, Alessia Cara, headline, Shawn Mendes
8008073, Shawn Mendes,34431159," Shawn Mendes and Alessia Cara at Amway Center (July 30, 2019)", Concert,0.259556, 2019-07-30, None,17602, Manchester Arena, Manchester Arena, UK, 53.48731-2.24335," Glasgow, UK",55.86086,-4.28813,65049884, Shawn Mendes, headline, Shawn Mendes
8008073, Shawn Mendes,34431154," Shawn Mendes and Alessia Cara at State Farm Arena (July 31, 2019)", Concert,0.259556, 2019-07-31, None,17602, Manchester Arena, Manchester Arena, UK, 53.48731-2.24335," Glasgow, UK",55.86086,-4.28813,70936019, Alessia Cara, support, Shawn Mendes
8008073, Shawn Mendes,34431119," Shawn Mendes and Alessia Cara at PPG Paints Arena (August 6, 2019)", Concert,0.259556, 2019-08-06, None,17602, Manchester Arena, Manchester Arena, UK, 53.48731-2.24335," Glasgow, UK",55.86086,-4.28813,65050279, Shawn Mendes, headline, Shawn Mendes
8008073, Shawn Mendes,36788884," Shawn Mendes and Alessia Cara at TD Garden (August 15, 2019)", Concert,0.259556, 2019-08-15, None,2298254, First Direct Arena, First Direct Arena, UK, 53.80368-1.54384," Glasgow, UK",55.86086,-4.28813,70937519, Alessia Cara, support, Shawn Mendes
8568579, Alessia Cara,36790124," Shawn Mendes and Alessia Cara at Barclays Center (August 24, 2019)", Concert,0.259556, 2019-08-24, None,2298254, First Direct Arena, First Direct Arena, UK, 53.80368-1.54384," Glasgow, UK",55.86086,-4.28813,65155429, Shawn Mendes, headline, Alessia Cara
